REGION,CHD,PROVINCE,CITY,COMPLETE ADDRESS,OWNERSHIP,NAME OF CLINIC,NO. OF STATION,HEAD OF THE FACILITY,CONTACT NUMBER,VALIDITY
REGION 1,ILOCOS,ILOCOS NORTE,,"Unit 7 Bldg. A Valdez Center. National Highway, San Nicolas, Ilocos Norte",PVT,NORTHERN RENAL HEALTH INC.,13,Dr. Kristianne Rachel P. Medina-Liabres,09609353030/09171262028,"Nov. 19, 2021 to Dec. 31, 2023"
REGION 1,ILOCOS,ILOCOS NORTE,,"Bonoan St., Brgy. 2, San Baltazar, San Nicolas, Ilocos Norte",PVT,"NEPHROLOGY CENTER OF ILOCOS NORTE DIALYSIS, INC.",12,Dr. Oliver Nicolas P. Mabanag,077-6771923/09120565956/3512311/3767148,"Jan. 1, 2022 to Dec. 31, 2024"
REGION 1,ILOCOS,ILOCOS NORTE,Laoag City,"Domingo Samonte corner Z. Flores Streets, Brgy. 6 San Agustin, Laoag City, Ilocos Norte",PVT,ILOCOS KIDNEY PLUS DIALYSIS CENTER,22,Dr. Ofelia Dela Cruz- Datu,077-6707720/09399182814/09473255074,"Jan. 1, 2022 to Dec. 31, 2024"
REGION 1,ILOCOS,ILOCOS NORTE,Laoag City,"Karmelli Clinic and Hosptial, #2 Legaspi St., Brgy. 29, Laoag City, Ilocos Norte",PVT,ST. MARTIN DE PORRES RENAL CARE CENTER,16,Dr. Norman Panfilo G. Rabago,09178384538/077-6003329,"Jan. 1, 2020 to Dec. 31, 2022"
REGION 1,ILOCOS,ILOCOS SUR,,"Sitio, Limmansangan North, Narvacan, Ilocos Sur",PVT,RENALTECH DIALYSIS CENTER,11,Dr. Mary Josephine C. Baroña,09175970190/09178190531,"Jan. 1, 2022 to Dec. 31, 2024"
REGION 1,ILOCOS,ILOCOS SUR,,"JTC Mall Central, Del Pilar, Tagudin, Ilocos Sur",PVT,LORMA LIFECHECK CLINIC,10,Dr. Mario T. Bautista,09178673638/072-7000600 loc 122/077-6320293/09178695641,"Jan. 1, 2022 to Dec. 31, 2024"
REGION 1,ILOCOS,ILOCOS SUR,,"Las-ud, Tagudin, Ilocos Sur",PVT,TAGUDIN MEDICAL DIAGNOSTIC CENTER,6,Dr. Virginia Mangati,077-6741242/09173392584/077-6320330/09563922703,"Jan. 1, 2022 to Dec. 31, 2024"
REGION 1,ILOCOS,LA UNION,,"La Union Medical Center, Brgy. Nazareno, Agoo, La Union",PVT,FRESENIUS KIDNEY CARE,12,Dr. Francisco Ontalan Iii,072-6083827 / 0917-8468046,"Jan. 1, 2020 to Dec. 31, 2022"
REGION 1,ILOCOS,LA UNION,,"Rosario, First Town Mall, Bgry. Concepcion, Rosario, La Union",PVT,AVITUS LA UNION KIDNEY CARE AND DIALYSIS CENTER CORP.,15,Dr. Anne Rhea Selga Dacayanan,9175345111,"Jan. 1, 2021 to Dec. 31, 2023"
REGION 1,ILOCOS,LA UNION,"San Fernando City, La Union","65 National Hignway, Carlatan, San Fernando City, La Union",PVT,LA-UNION CENTER FOR KIDNEY DISEASES,6,Dr. Maricar Josephine Geronimo,072-6193201,"July 20, 2020 to Dec. 31, 2022"
REGION 1,ILOCOS,LA UNION,"San Fernando City, La Union","National Highway, Catbangen, San Fernando City, La Union",PVT,AVITUS KIDNEY CARE AND DIALYSIS CENTER CORPORATION,24,Dr. Anne Rea S. Dacayanan,9175345111,"Aug. 13, 2020 to Dec. 31, 2022"
REGION 1,ILOCOS,LA UNION,"San Fernando City, La Union","Bethany Hospital Compd., Widdoes St., Brgy. II, San Fernando, La Union",PVT,FRESENIUS KIDNEY CARE,12,Dr. Charmaine Joy M. Almojuela,072-6194792,"Jan. 1, 2020 to Dec. 31, 2022"
REGION 1,ILOCOS,PANGASINAN,,"Quezon Boulevard, Poblacion Sur, Bayambang, Pangasinan",PVT,"ST. VINCENT HEALTHCARE, INC.",10,Dr. Abraham T. Coquia,075-6339948/09560739439/09212873485/09175084212,"Jan. 1, 2022 to Dec. 31, 2024"
REGION 1,ILOCOS,PANGASINAN,,"Barangay Bued, Binalonan, Pangasinan",PVT,AVITUS KIDNEY CARE AND DIALYSIS CENTER CORPORATION,18,Dr. Shari Ann Atanacio,09176237474/09205870524/09778564294/09175345111/09176537821,"Jan. 1, 2022 to Dec. 31, 2024"
REGION 1,ILOCOS,PANGASINAN,,"San Isidro Sur, Binmaley, Pangasinan",PVT,"B. BRAUN AVITUM PHILIPPINES, INC.",12,Dr. Kristine Ynzon Fernandez,9175152631,"Jan. 23, 2021 to Dec. 31, 2023"
REGION 1,ILOCOS,PANGASINAN,,"18 Romulo Highway, Socony, Bugallon, Pangasinan",PVT,SOCONY MEDICAL GROUP INC.,12,Dr. Elizabeth B. Estoesta,09178159850/09205696536/09179387316/075-6003701,"Jan. 1, 2021 to Dec. 31, 2023"
REGION 1,ILOCOS,PANGASINAN,,"Solis Street, Brgy. Poblacion, Lingayen, Pangasinan",PVT,AVITUS PANGASINAN DIALYSIS CENTER CORP.,12,Dr. Carlo Nemesio B. Trinidad,09175345111 /,"Jan. 1, 2021 to Dec. 31, 2023"
REGION 1,ILOCOS,PANGASINAN,,"#133 1/F DoriaBldg., Brgy. Gomez, Malasiqui, Pangasinan",PVT,"INFINI CARE HEALTH SYSTEMS, INC.",8,Dr. Elizabeth B. Estoesta,09257778641/075-6326941/09123250038/09753833374,"Jan. 1, 2022 to Dec. 31, 2024"
REGION 1,ILOCOS,PANGASINAN,,"Quezon Boulevard Ext., Brgy. Poblacion, Malasiqui, Pangasinan",PVT,AVITUS MALASIQUI DIALYSIS CENTER CORP.,8,Dr. Concepcion C. Cabatbat,09175345111/047-2221155/09176537821,"Jan. 1, 2022 to Dec. 31, 2024"
REGION 1,ILOCOS,PANGASINAN,,"2F Universal Health General Hospital, Brgy. Cabatling, Malasiqui, Pangasinan",PVT,NORTHERN FAITH DIALYSIS CENTER,10,Dr. Irina Rey-Roxas,9278348160,"Mar. 2, 2020 to Dec. 31, 2022"
REGION 1,ILOCOS,PANGASINAN,,"2nd Floor Mendoza Building, Magsaysay Street, Malasiqui, Pangasinan",PVT,EXPERT KIDNEY CARE DIALYSIS CENTER INC. ,12,Dr. Michael B. Fernandez,09277377542/09395723537,"April 24, 2021 to Dec. 31, 2023"
REGION 1,ILOCOS,PANGASINAN,,"3/F Villasis Polymedic Hospital & Trauma Center, Inc., Zone II, Barangay Poblacion, Villasis, Pangasinan",PVT,NEPHRO ZONE HEALTH CARE,9,Dr. Manuel F. Quirino,075-5232590/09159840456,"Jan. 1, 2021 to Dec. 31, 2023"
REGION 1,ILOCOS,PANGASINAN,Dagupan City,"Coquia Building, 275 Caranglaan District, Dagupan City, Pangasinan",PVT,"CIPRIANA COQUIA MEMORIAL DIALYSIS AND KIDNEY CENTER, INC.",22,Dr. Abraham T. Coquia,09175634517/09277603861/075-5225586 LOC 804/5157183/09338526632,"Jan. 1, 2022 to Dec. 31, 2024"
REGION 1,ILOCOS,PANGASINAN,San Carlos City,"# 944 Rizal St., 3rd Floor, Pangasinan Doctors Hospital, San Carlos City, Pangasinan",PVT,NEPHROLOGY CENTER OF PANGASINAN DIALYSIS INC.,10,Dr. Elizabeth B. Estoesta,02-3767148/09228636475/6362484,"Jan. 1, 2020 to Dec. 31, 2022"
REGION 1,ILOCOS,PANGASINAN,Urdaneta City,"National Highway, Nancayasan, Urdaneta City, Pangasinan",PVT,"HEMOTEK RENAL CENTER, INC.",13,Dr. Michael V. Fernandez,075-6530816/5361091/5293187/2040899,"Jan. 1, 2022 to Dec. 31, 2024"
REGION 2,CAGAYAN VALLEY,CAGAYAN,,"Grupo Medical de Dios, Inc., Bulala, Camalaniugan, Cagayan",PVT,"B. BRAUN AVITUM PHILIPPINES, INC.",10,Dr. Maridel O. Gorospe,0917-8659262 / 0917-8623959,"Jan. 1, 2020 to Dec. 31, 2022"
REGION 2,CAGAYAN VALLEY,CAGAYAN,Tuguegarao City,"Luna St., Centro 02, Tuguegarao City, Cagayan",PVT,"B. BRAUN AVITUM PHILS., INC.",15,Dr. Frederick L. Parallag,0917-6536614,"Jan. 1, 2021 to Dec. 31, 2023"
REGION 2,CAGAYAN VALLEY,CAGAYAN,Tuguegarao City,"3/F Cagayan United Doctors Medical Center, Bagay Rd., Caritan Centro, Tuguegarao City",PVT,"B. BRAUN AVITUM PHILIPPINES, INC. ",15,Dr. Frederick L. Parallag,9176536614,"Dec. 16, 2021 to Dec. 31, 2023"
REGION 2,CAGAYAN VALLEY,CAGAYAN,Tuguegarao City,"2nd Floor, MYL Building, Buntun Highway, Tuguegarao City, Cagayan",PVT,"SAN BENEDICTO RENAL CARE CENTER, INC.",12,Dr. Rema G. Caronan-Parallag,0995-2788450 / 0917-6293720,"Feb. 20, 2020 to Dec. 31, 2022"
REGION 2,CAGAYAN VALLEY,CAGAYAN,Tuguegarao City,"Pan Philippine Highway cor. Mercedes Village, Pengue, Tuguegarao City",PVT,"ST. THERESA DIALYSIS CENTER, INC.",15,Dr. Isabelle Delos Santos,0977-8198340,"Dec. 16, 2020 to Dec. 31, 2022"
REGION 2,CAGAYAN VALLEY,ISABELA,,"APC Building, Anao, Cabagan, Isabela",PVT,"SAINT MARY KIDNEY CARE, INC.",17,Dr. Edmund C. Bautista,0977-8198340,"Aug. 13, 2020 to Dec. 31, 2022"
REGION 2,CAGAYAN VALLEY,ISABELA,,"Doña Syquia St., Brgy. Bantug, Roxas, Isabela",PVT,"B. BRAUN AVITUM PHILIPPINES, INC.",12,Dr. Erika Bianca Villazor-Isidro,5885600 / 035-5885668,"Jan. 1, 2022 to Dec. 31, 2024"
REGION 2,CAGAYAN VALLEY,ISABELA,,"Leaño Bldg., National Highway Brgy. 03, San Mateo, Isabela",PVT,"SAN MATEO KIDNEY CARE AND DIALYSIS CENTER, INC",6,Dr. Kristen Ann C. Manalo,0905-0322104,"Jan. 1, 2022 to Dec. 31, 2024"
REGION 2,CAGAYAN VALLEY,ISABELA,Cauayan City,"#25 Rizal Ave., District III, Cauayan City, Isabela",PVT,"CAUAYAN CITY RENAL CARE SERVICES, INC.",10,Dr. Omega M. Biton,078-6521834,"Dec. 4, 2020 to Dec.31, 2022"
REGION 2,CAGAYAN VALLEY,ISABELA,Cauayan City,"Rosemary Reyes St., District 1, Cauayan City, Isabela",PVT,"CURIS HEMODIALYSIS CLINIC, INC.",12,Dr. Juvelon G. Mendoza,0905-7944561 / 0945-3724989,"July 27, 2020 to Dec. 31, 2022"
REGION 2,CAGAYAN VALLEY,ISABELA,Cauayan City,"#8 Rizal Avenue, Cauayan City, Isabela",PVT,"DCCI-DIALYSIS CENTER OF CAUAYAN, INC.",10,Dr. Glenn R. Butuyan,0915-5364940 / 0961-2466620,"Jan. 7, 2020 to Dec. 31, 2022"
REGION 2,CAGAYAN VALLEY,ISABELA,Cauayan City,"Cauayan District Hospital, Rosemarie Reyes St., Cauayan City, Isabela",PVT,"MSR HEALTH CARE, INC.",10,Dr. Erika Bianca S. Villazor-Isidro,0906-5444924,"Jan. 1, 2021 to Dec. 31, 2023"
REGION 2,CAGAYAN VALLEY,ISABELA,City of Ilagan,"GFNDSMH Hospital, Calamagui 2nd, City of Ilagan, Isabela",PVT,"MSR HEALTH CARE, INC.",10,Dr. Marissa M. Mamate,02-5501489/0906-5444924,"Jan. 1, 2022 to Dec. 31, 2024"
REGION 2,CAGAYAN VALLEY,ISABELA,Santiago City,"De Vera's Medical Center, City Road, Calao East, Santiago City, Isabela",PVT,"B. BRAUN AVITUM PHILS., INC.",9,Dr. Elenwhite Caras-Luna,0917-5153645 / 0917-8623959,"Jan. 1, 2020 to Dec. 31, 2022"
REGION 2,CAGAYAN VALLEY,ISABELA,Santiago City,"JK Bldg., 68 Maharlika Highway, Villasis, Santiago City, Isabela",PVT,"ISABELA KIDNEY CARE DIALYSIS CENTER, INC.",8,Dr. Kristen Ann C. Manalo,078-3055520 / 0917-4669565,"Jan. 1, 2021 to Dec. 31, 2023"
REGION 2,CAGAYAN VALLEY,ISABELA,Santiago City,"Villasis, Santiago City, Isabela",PVT,"SANTIAGO CITY KIDNEY CENTER, INC.",12,"Dr. Glenn R. Butuyan, FPCP, FPSN",078-3052064,"Jan. 1, 2021 to Dec. 31, 2023"
REGION 2,CAGAYAN VALLEY,ISABELA,Santiago City,"AMF Bldg., Bayaua St., Centro East, Santiago City, Isabela",PVT,"SANTIAGO CITY RENALCARE SERVICES, INC.",15,Dr. Omega Malillin-Biton,0917-5628901,"Jan. 1, 2021 to Dec. 31, 2023"
REGION 2,CAGAYAN VALLEY,ISABELA,Santiago City,"Arellano St., Dubiran East, Santiago City, Isabela",PVT,UKARE ADVANCE DIALYSIS CENTER,10,Dr. Diezi Belinda A. Ramos,0933-8789345,"Jan. 1, 2020 to Dec. 31, 2022"
REGION 2,CAGAYAN VALLEY,NUEVA VIZCAYA,,"National Highway, Banganan, Aritao, Nueva Vizcaya",PVT,JPF RENAL CARE CENTER,8,"Dr. Kaye Kristine P. Estiandan, FPCP, DPSN",0977-2934617,"Feb. 3, 2020 to Dec. 31, 2022"
REGION 2,CAGAYAN VALLEY,NUEVA VIZCAYA,,"Nueva Vizcaya-Ifugao-Mountain Province Road, Brgy. Lantap, Bagabag, Nueva Vizcaya",PVT,"B. BRAUN AVITUM PHILIPPINES, INC.",15,Dr. Rubylaine Grace G. Par-Pinoy,0917-5152631,"Jan. 1, 2022 to Dec. 31, 2024"
REGION 2,CAGAYAN VALLEY,NUEVA VIZCAYA,,"National Hi-way, Bonfal Proper, Bayombong, Nueva Vizcaya",PVT,"VIZCAYA NEPHROCARE DIALYSIS CENTER, INC.",12,Dr. Rubylaine Grace P. Pinoy,078-3921841/09175646444,"Jan. 1, 2021 to Dec. 31, 2023"
REGION 2,CAGAYAN VALLEY,NUEVA VIZCAYA,,"79 Burgos St., Solano, Nueva Vizcaya",PVT,VIZCAYA KIDNEY CARE CENTER COOPERATIVE,3,Dr. Ruby Cheryl C. Menia,078-3267051,"Jan. 1, 2021 to Dec. 31, 2023"
REGION 3,CENTRAL LUZON,BATAAN,,"Barangay Wawa, Limay, Bataan",PVT,LIMAY DIALYSIS CENTER,10,Edmundo M Pasamba,09175762795/09999945495/09209161386,"Aug. 17, 2020 to Dec. 31, 2022"
REGION 3,CENTRAL LUZON,BATAAN,,"Brgy. Duale, Limay, Bataan",PVT,LIMAY KIDNEY AND DIALYSIS CENTER CORPORATION ,10,Dr. Shalee Santos,,"Dec. 9, 2021 to Dec. 31, 2023"
REGION 3,CENTRAL LUZON,BATAAN,,"Km. 148, Villa Imperial Subd. Lucanin, 3rd Dist. Mariveles, Bataan",PVT,"SAINT NICHOLAS DIALYSIS CENTER , INC.",21,Dr. Bryan Christian llagan,09778198340/09504476909,"Jan. 1, 2022 to Dec. 31, 2024"
REGION 3,CENTRAL LUZON,BATAAN,,"Kaparangan, Orani, Bataan",PVT,ORANI KIDNEY AND DIALYSIS CENTER,8,Dr. Hezel A. Diwa,9989926763,"Jan. 1, 2022 to Dec. 31, 2024"
REGION 3,CENTRAL LUZON,BATAAN,Balanga City,"Laurel St., San Jose, Balanga City, Bataan",PVT,BATAAN KIDNEY AND DIALYSIS CENTER,17,Dr. Ma. Jewewui Reyes,047-2371342/2404825,"Jan. 1, 2021 to Dec. 31, 2023"
REGION 3,CENTRAL LUZON,BATAAN,Balanga City,"600 General Capinpin St., San Jose, Balanga City, Bataan",PVT,CLINICA NEPHROLOGIA DIALYSIS AND MEDICAL CENTER,26,Ma. Lorelie Lucio-Tong,047-2376627/09178084880,"Jan. 1, 2020 to Dec. 31, 2022"
REGION 3,CENTRAL LUZON,BATAAN,Balanga City,"600 General Capinpin St. San Jose Balanga, Bataan",PVT,"SAINT NICHOLAS DIALYSIS CENTER, INC. ",21,Dr. Ma. Lorelei Lucio Tong,9778198340,"April 8, 2021 to Dec. 31, 2023"
REGION 3,CENTRAL LUZON,BULACAN,,"M. Ponce St., Tibag, Baliuag, Bulacan",PVT,PRO RENAL SPECIALIST DIALYSIS CENTER CORPORATION,10,Dr. Minerva G. Nicolas,9228316500,"Jan. 1, 2021 to Dec. 31, 2023"
REGION 3,CENTRAL LUZON,BULACAN,,"252 Burgos St., Brgy. Poblacion,Bocaue, Bulacan",PVT,PRO RENAL SPECIALIST DIALYSIS CENTER CORPORATION,13,Dr. Rocelia DR. Gonzales,0922-8316500,"Jan. 1, 2021 to Dec. 31, 2023"
REGION 3,CENTRAL LUZON,BULACAN,,"General A. Santos Highway, Poblacion, Bustos, Bulacan",PVT,RENAL SOLUTIONS DIALYSIS CENTER CO.,11,Dr. Olivia Idio,044-7611005,"Jan. 1, 2021 to Dec. 31, 2023"
REGION 3,CENTRAL LUZON,BULACAN,,"G. del Pilar, Poblacion, Calumpit, Bulacan",PVT,PRO RENAL SPECIALIST DIALYSIS CENTER CORPORATION,10,Dr. Minerva Nicolas,0922-8316500/8152455,"Jan. 1, 2021 to Dec. 31, 2023"
REGION 3,CENTRAL LUZON,BULACAN,,"Along McArhur Highway, G/F ASM Plaza Building, Caniogan, Calumpit, Bulacan",PVT,"ST. FRANCIS HEMODIALYSI CENTER, INC. ",10,Dr. Ritchel A. Hidalgo,0917-5174933,"Jan. 18.2021 to Dec. 31, 2023"
REGION 3,CENTRAL LUZON,BULACAN,,"#662 JFBI Security Building, McArthur Hi-way, Ilang-ilang, Guiguinto, Bulacan",PVT,RENAL DIALYSIS CENTER,7,Dr. Ritchel A. Hidalgo,9330041975,"July 21, 2020 to Dec. 31, 2022"
REGION 3,CENTRAL LUZON,BULACAN,,"Municipal Compound Poblacion, Norzagaray, Bulacan",PVT,"PRO RENAL SPECIALIST DIALYSIS CENTER, INC.",6,DR. Mara Tugade,9228316500,"Jan. 1, 2022 to Dec. 31, 2024"
REGION 3,CENTRAL LUZON,BULACAN,,"G/F Juan Hugo Ccommercial Complex, JP Rizal t., Poblacion, Pandi, Bulacan",PVT,"NEPHROMED SPECIALISTS, INC.",8,Dr. Minerva G. Nicolas,8026008/09772068542,"Jan. 1, 2020 to Dec. 31, 2022"
REGION 3,CENTRAL LUZON,BULACAN,,"2nd Floor Reina del Cielo Maternity and General Hospital, Brgy. Banga 1st . Plaridel, Bulacan",PVT,"HEMOTEK RENAL CENTER, INC.",9,Dr. Rachell Ann C. Siute,044-7955381,"Jan. 1, 2022 to Dec. 31, 2024"
REGION 3,CENTRAL LUZON,BULACAN,,"Marcelo-Padilla Children's & Medical Hospital, Banga 1st, Plaridel, Bulacan",PVT,RENAL LIFECARE DIALYSIS CENTER CO.,5,Dr. Marichel Pile-Coronel,44-9312752,"Jan. 1, 2021 to Dec. 31, 2023"
REGION 3,CENTRAL LUZON,BULACAN,,"National Road, Poblacion, Pulilan, Bulacan",PVT,THE GOOD SHEPHERD HOSPITAL RENAL CENTER CO.,5,Dr. Marichel DC Pile,,"Jan. 1, 2022 to Dec. 31, 2024"
REGION 3,CENTRAL LUZON,BULACAN,,"Cagayan Valley Road, Old St. Rita, San Miguel, Bulacan",PVT,EMMANUEL HOSPITAL DIALYSIS CENTER,10,Dr. Angelito A. Rioveros,044-7620890/0917838343,"Jan. 1, 2021 to Dec. 31, 2023"
REGION 3,CENTRAL LUZON,BULACAN,,"#67 R. Mercado St., Poblacion, Sta. Maria, Bulacan",PVT,GEM NEPHROCARE DIALYSIS CENTER,5,Ritchell A. Hidalgo,0961-404-2996 / 0933-288-8111,"Jan. 3, 2022 to Dec. 31, 2024"
REGION 3,CENTRAL LUZON,BULACAN,,"Rogaciano M. Mercado Mem Hospital, C. De Jesus St., Sta. Maria, Bulacan",PVT,"MSR HEALTH CARE, INC.",12,Dr.Joemie D. Soriano,02-5510646,"Jan. 1, 2020 to Dec. 31, 2022"
REGION 3,CENTRAL LUZON,BULACAN,,"Puregold Bldg., Gov. F. Halili Avenue, Bagbaguin, Sta. Maria, Bulacan",PVT,RENAL CENTER AND MULTI-SPECIALTY CLINIC CORP,10,Dr. Ma. Katrina Salazar-Simon,044-7629202,"Jan. 1, 2020 to Dec. 31, 2022"
REGION 3,CENTRAL LUZON,BULACAN,,"Brgy. Guyon, Sta. Maria, Bulacan",PVT,ST. DOMINIC RENALCARE DIALYSIS CENTER,20,Dr. Genesere Bernarbe Vino,044-8026484,"Jan. 1, 2020 to Dec. 31, 2022"
REGION 3,CENTRAL LUZON,BULACAN,Malolos City,"Unit 8, New Santos Clinic Comp., McArthur Highway, City of Malolos Bulacan",PVT,NEPHROLOGY CENTER OF MALOLOS BULACAN,10,Dr. Florante G. Tuazon,044-7906553,"Jan. 1, 2022 to Dec. 31, 2024"
REGION 3,CENTRAL LUZON,BULACAN,Meycauayan City,"McArthur Highway, Brgy. Calvario, Meycauayan, Bulacan",PVT,"NEPHROLOGY CENTER OF MEYCAUAYAN BULACAN, INC,",15,Florante G. Tuazon,044-8122313,"Jan. 1, 2021 to Dec. 31, 2023"
REGION 3,CENTRAL LUZON,BULACAN,San Jose del Monte City,"Saints Vivians Plaza M. Villarica Provincial Rd. Brgy. Muzon, SJDM, Bulacan",PVT,CVS DIALYSIS CENTER ,11,Dr. Stephen Roberts,9179691131,"June 29, 2021 to Dec. 31, 2023"
REGION 3,CENTRAL LUZON,BULACAN,San Jose del Monte City,"Lauan St. cor. Upper Apitong St., Phase 6, Pleasant Hills subd., Brgy. San Manuel, San Jose Del Monte City, Bulacan",PVT,MSR HEALTH CARE INC.,12,Dr. Aubrey D. Andales-Severo,9293441354,"July 21, 2020 to Dec. 31, 2022"
REGION 3,CENTRAL LUZON,BULACAN,San Jose del Monte City,"101 FLB Bldg. Tungkong Mannga, City of San Jose Del Monte, Bulacan",PVT,METROHEMO DIALYSIS CENTER ,5,Dr. Ma. Christina P. Kaw,0917-8181918/044-8026775,"Oct. 25, 2021 to Dec. 31, 2023"
REGION 3,CENTRAL LUZON,PAMPANGA,,"Mc Arthur Highway, Sulipan, Apalit Pampanga",PVT,APALIT HEMODIALYSIS CENTER CORPORATION,16,Dr. Angelito A. Rioveros,99999155,"Jan. 1, 2022 to Dec. 31, 2024"
REGION 3,CENTRAL LUZON,PAMPANGA,,"Purok V, Brgy. Fortuna, Floridablanca, Pampanga",PVT,FLORIDABLANCA HEMODIALYSIS CENTER CORP.,18,Dr. Ismael G. Ramos,045-4026929 / 0909-5792416 / 0920-8798148,"Jan. 1, 2020 to Dec. 31, 2022"
REGION 3,CENTRAL LUZON,PAMPANGA,,"National Highway, Brgy. San Antonio, Guagua, Pampanga",PVT,"GC HEMODYNAMIX, INC.",15,Dr. Alexandro S. Sese,0917-6061726,"Sept. 17, 2020 to Dec. 31, 2022"
REGION 3,CENTRAL LUZON,PAMPANGA,,"Guagua Town Center, Jose Abad Santos Ave., Brgy. San Matias, Guagua, Pampanga",PVT,HOPE DIALYSIS CENTER,19,Dr. Mary Grace Angelica Gomez,0977-8198340,"Jan. 1, 2021 to Dec. 31, 2023"
REGION 3,CENTRAL LUZON,PAMPANGA,,"Annex Bldg, ERDH Compound, San Nicolas I, Lubao, Pampanga",PVT,ST. AGUSTINE DIALYSIS CENTER INC.,4,Dr. Girlie M. Reoyan,(45) 402 6929,"Jan. 1, 2021 to Dec. 31, 2023"
REGION 3,CENTRAL LUZON,PAMPANGA,,"# 01 Ocon Bldg., Purok I, San Roque Arbol, Lubao, Pampanga",PVT,ST. AGUSTINE DIALYSIS CENTER INC.,10,Dr. Jacqueline Tiglao,(45) 402 6929,"Jan. 1, 2021 to Dec. 31, 2023"
REGION 3,CENTRAL LUZON,PAMPANGA,,"Mabalacat District Hospital, Mabalacat Pampanga",PVT,"GKM DIALYSIS CENTER, INC.",5,Dr. Jaqueline Tiglao,0932-320 0874,"Jan. 1, 2022 to Dec. 31, 2024"
REGION 3,CENTRAL LUZON,PAMPANGA,,"Poblacion 1, Sta. Cruz, Magalang Pampanga",PVT,"ST. THERESA DIALYSIS CENTER, INC.",15,Dr. Jan Melvin M. Zapanta,094521-3274,"Jan. 1 , 2022 - Dec. 31, 2024"
REGION 3,CENTRAL LUZON,PAMPANGA,,Spillway Punzalan Bldg. Brgy. Sto. Rosario Mexico Pampanga,PVT,MEXICO HEMODIALYSIS CENTER CORPORATION,14,Dr. Ismael G. Ramos,09209798148 / (045) 435-7792,"Jan. 1, 2022 to Dec. 31, 2024"
REGION 3,CENTRAL LUZON,PAMPANGA,,"Jose Abad Santos Avenue Road, Brgy. Lagundi Mexico Pampanga",PVT,PENINSULA MEXICO DIAGNOSTIC CLINIC CORP. ,6,Dr. Marc Angelo P. Hizon,045-5555704,"Jan. 28, 2021 to Dec. 31, 2023"
REGION 3,CENTRAL LUZON,PAMPANGA,,"Jose Songco Lapid District Hospital Gen. Luna St., Babo Sacan, Porac, Pampanga",PVT,"JOSEPH BENEDICT HEALTHCARE ALLIANCE CENTER, INC.",6,Dr. Jan Melvin M. Zapanta,9189089168,"Jan. 1, 2022 to Dec. 31, 2024"
REGION 3,CENTRAL LUZON,PAMPANGA,Angeles City,"Holy Family Medical Center, Inc., #179 Entiero St., Brgy. Sto. Cristo, Angeles City, Pampanga",PVT,MJM RENAL CARE,8,Dr. Rene Toledano,(045) 385-2396,"Jan. 1, 2020 to Dec. 31, 2022"
REGION 3,CENTRAL LUZON,PAMPANGA,Angeles CIty,"3rd Floor W. Long Building Mac Arthur Hi-way Corner-Angeles Magalang Road, Angeles City, Pampanga",PVT,RENAL CLINICAL CARE SERVICES INC.,30,Dr. Marizel M. Catungal,9190044380,"Jan. 1, 2022 to Dec. 31, 2024"
REGION 3,CENTRAL LUZON,PAMPANGA,Angeles City,"Building 2-D, Montang Ave., Diamond Balibago, Angeles City, Pampanga",PVT,"SAINT MARY KIDNEY CARE CENTER, INC.",10,Dr. Darwin Darjuan,045-9616677 / 0917-5952021,"Jan. 1, 2022 to Dec. 31, 2024"
REGION 3,CENTRAL LUZON,PAMPANGA,Angeles City,"Unit EG Building Friendship Rd. Brgy. Pampanga, Angeles City, Pampanga",PVT,O2 MEDLINK INC. ,6,Dr. Lei Anne Carolina,9353590755,"June 18, 2021 to Dec. 31, 2023"
REGION 3,CENTRAL LUZON,PAMPANGA,Mabalacat City,"Lot 13 Block 10, Mc Arthur Highway, Mabiga, Mabalacat City, Pampanga",PVT,ACCU-RENAL MEDICAL SERVICES (ARMS) INC.,12,Dr. Jan Melvin M. Zapanta,0998-9817415,"Jan.1, 2022 to Dec.31, 2024"
REGION 3,CENTRAL LUZON,PAMPANGA,Mabalacat City,"Phase I, Sapang Biabas Resettlement Center, Mabalacat City, Pampanga",PVT,MABALACAT CITY HEMODIALYSIS CENTER,9,Dr. Ramon Jose Suarez,9161555052,"Jan. 1, 2020 to Dec. 31, 2022"
REGION 3,CENTRAL LUZON,PAMPANGA,"City of San Fernando, Pampanga","Center for Urologic Health, Brgy. Sindalan, City of San Fernando, Pampanga",PVT,"GC HEMODYNAMIX, INC.",15,"Dr. Elejandro Sese, Jr.",0917 -107-1680,"Jan. 1, 2020 to Dec. 31, 2022"
REGION 3,CENTRAL LUZON,PAMPANGA,"City of San Fernando, Pampanga","NVP Bldg., McArthur Highway, Brgy. Saguin, San Fernando City, Pampanga",PVT,HEMOTEK RENAL CENTER,15,Dr. Grace M. Nierras,(45) 455 0198,"Jan. 1, 2021 to Dec. 31, 2023"
REGION 3,CENTRAL LUZON,PAMPANGA,"City of San Fernando, Pampanga","G/F Doña Juliana Bldg., Juliana Subd., City of San Fernando, Pampanga",PVT,"NEPHROLIFE, INC.",10,Dr. Marc Angelo P. Hizon,,"Dec. 9, 2020 to Dec. 31, 2022"
REGION 3,CENTRAL LUZON,PAMPANGA,"City of San Fernando, Pampanga","Block 3 Lot 6, Dolores Heights City of San Fernando, Pampanga",PVT,SAN FERNANDO HEMODIALYSIS CENTER CORP.,12,Dra. Zarah Maria Tan,9162149432,"Dec. 12, 2020 to Dec, 31, 2022"
REGION 3,CENTRAL LUZON,PAMPANGA,"City of San Fernando, Pampanga","G/F, CLK Bldg. Dolores, McArthur Highway City of San Fernando, Pampanga",PVT,"ST. THERESA DIALYSIS CENTER, INC.",24,Dr. Jan Melvin M. Zapanta,(045) 961 6677,"Jan.1, 2022 to Dec.31, 2024"
REGION 3,CENTRAL LUZON,PAMPANGA,"City of San Fernando, Pampanga","Lazatin Blvd. Villa Victoria Subdivision, City of San Fernando, Pampanga",PVT,TOLEDANO MEDICAL CLINIC AND DIALYSIS CENTER,14,Dr. Renne G. TOledano,(045) 961 2162,"Jan. 1, 2022 to Dec. 31, 2024"
REGION 3,CENTRAL LUZON,TARLAC,,"Unit 3 to 8, Ground Floor, Queen's Central, McArthur Highwa y, Brgy. Sto. Domingo I, Capas, Tarlac",PVT,FRESENIUS KIDNEY CARE,12,Dr. Janice Q. Rivera,(045) 925-4816,"Jan. 1, 2020 to Dec. 31, 2022"
REGION 3,CENTRAL LUZON,TARLAC,,"Mac Arthur Highway Sto. Domingo II Capas, Tarlac",PVT,"GC HEMODYNAMIX, INC.",15,Dr. Janice Rivera,0917 -107-1680,"Jan. 1, 2020 to Dec. 31, 2022"
REGION 3,CENTRAL LUZON,Tarlac,,"L. Cortez corner Plaridel Sts., Brgy. San Nicolas Poblacion, Concepcion Tarlac",PVT,CONCEPCION HEMODIALYSIS CENTER INC,28,Dr. Monina Cleofas V. Lucas,0912-101-4939 / 0946-366-4977,"Jan.13 2022-Dec. 31, 2024"
REGION 3,CENTRAL LUZON,TARLAC,,"Lot 17, Block 2, Green Village Conception, Tarlac",PVT,ST. AGUSTINE DIALYSIS CENTER INC.,14,"Flanz Roven D. Calvelo, MD/Dr. Monina Cleofas V. Lucas",0907 206 5081,"Jan. 1, 2021 to Dec. 31, 2023"
REGION 3,CENTRAL LUZON,TARLAC,,"Purok Papaya, Abagon, Gerona, Tarlac",PVT,GERONA DIALYSIS OF THE SACRED HEART CORPORATION ,6,Dr. Cristina Pascual,9175683044,"Aug. 18, 2021 to Dec. 31, 2023"
REGION 3,CENTRAL LUZON,TARLAC,,"05 Baltazar Subd., Poblacion Norte, Paniqui, Tarlac",PVT,RAYOS-VALENTIN DIALYSIS CENTER,10,Dr. Jeanette Rayos,0915 7830863,"Jan. 1, 2020 to Dec. 31, 2022"
REGION 3,CENTRAL LUZON,TARLAC,,"Mc Arthur Highway, Brgy. Carino, Paniqui, Tarlac",PVT,PANIQUI DIALYSIS CENTER ,17,Dr. Rica Mari Katherina De Borja,9189648265,"June 10, 2021 to Dec. 31, 2023"
REGION 3,CENTRAL LUZON,TARLAC,Tarlac City,"M.H. del Pilar St. cor, Zafiro St., Brgy.San Nicolas, Tarlac City",PVT,JMC DIALYSIS CENTER,8,Dr. Rika Marikatherina K. De Borja,045-9825501,"Jan. 1, 2021 to Dec. 31, 2023"
REGION 3,CENTRAL LUZON,TARLAC,Tarlac City,"JRT Bldg., M.H. Del Pilar cor. Hilario St., Ligtasan, Tarlac City, Tarlac",PVT,"MSR HEALTHCARE, INC.",12,Dr. Lloyd Everett R. Lim,09065444924/09325749028/3092533 /,"Jan. 1, 2021 to Dec. 31, 2023"
REGION 3,CENTRAL LUZON,TARLAC,Tarlac City,"G/F Ramos General Hospital, P. Hilario St., Ligtasan, Tarlac City",PVT,MULTISPECIALTY VENTURE OF TARLAC CORPORATION,12,Dr. Monna Cleofas V. Lucas,493-2565 loc. 124/125,"Jan. 1, 2020 to Dec. 31, 2022"
REGION 3,CENTRAL LUZON,NUEVA ECIJA,,"L. De Ocampo Street, Saranay District, Guimba, Nueva Ecija",PVT,BIOREGEN HEMO CENTER INC.,8,Dr. Manuel L. Galapon III,09175591986/09064842243 /,"Jan. 4, 2021 to Dec. 31, 2023"
REGION 3,CENTRAL LUZON,NUEVA ECIJA,,"Km 106 Maharlika Highway, Gomez, Sta. Rosa, Nueva Ecija",PVT,NORTH EAST DIALYSIS CENTER CORP.,18,Dr. Roland E. Valdez,044-3335579/09065038888,"Jan. 1, 2021 to Dec. 31, 2023"
REGION 3,CENTRAL LUZON,NUEVA ECIJA,,"Market Road, Sampaloc, Talavera, Nueva Ecija",PVT,FIRST RENAL DIALYSIS CENTER CORP. ,12,Dr. Jeffrey P. Mora,9165488886,"Feb. 17, 2021 to Dec. 31, 2023"
REGION 3,CENTRAL LUZON,NUEVA ECIJA,,"Purok 7 San Isidro, Zaragoza, Nueva Ecija",PVT,"NUEVA ECIJA RENAL CENTER - ZARAGOZA, INC.",24,Jovi Flauta,0917-704-0085 / 0917-105-1726,"Jan. 3, 2022 to Dec. 31, 2024"
REGION 3,CENTRAL LUZON,NUEVA ECIJA,Cabanatuan City,"ELJ, Maharlika Highway, Brgy.. Daan Sarili, Cabanatuan City Nueva Ecija",PVT,MSR HEALTH CARE INC.,27,Dr. Antoinette Limjoco,0906-544-4924,"Jan.1, 2022 to Dec.31, 2024"
REGION 3,CENTRAL LUZON,NUEVA ECIJA,Cabanatuan City,"WLC Bldg., Circumferential Rd., Brgy. San Juan Accfa, Cabanatuan City",PVT,"SAINT MARY KIDNEY CARE, INC.",10,Dr. Darwin C. Darjuan,0963-442-8123,"Jan. 1, 2020 to Dec. 31, 2022"
REGION 3,CENTRAL LUZON,NUEVA ECIJA,Gapan City,"City Hall Compound, Brgy. Bayanihan, Gapan City, Nueva Ecija",PVT,NORTH EAST DIALYSIS CENTER CORP.,18,Dr. Jeffrey P. Mora,9953888853,"Aug. 10. 2020 to Dec. 31, 2022"
REGION 3,CENTRAL LUZON,NUEVA ECIJA,"Muñoz City, Nueva Ecija","Purok Cabiawan, Brgy. Rizal, Science City of Muñoz, Nueva Ecija",PVT,"NUEVA ECIJA RENAL CENTER-SAN JOSE, INC. ",10,Dr. Rachelle Coloma-Daus,,"June 14, 2021 to Dec. 31, 2023"
REGION 3,CENTRAL LUZON,NUEVA ECIJA,Palayan City,"Aurora Road, Singalat, Palayan City Nueva Ecija",PVT,PALAYAN CITY DIALYSIS CENTER ,7,DR. Yumi Czarina Ong Cruda,0917 8256025,"Oct. 28, 2021 to Dec. 31, 2023"
REGION 3,CENTRAL LUZON,NUEVA ECIJA,San Jose City,"3121 RMZ Building, Ramar Village, Malasin San Jose City, Nueva Ecija",PVT,NUEVA ECIJA RENAL CENTER - SAN JOSE INC.,30,Dr. Rachelle Coloma-Daus,0917-704-0085 / 0917-105-1726,"Jan, 3, 2022 to Dec. 31, 2024"
REGION 3,CENTRAL LUZON,ZAMBALES,,"Sta. Lucia Street South Poblacion Masinloc, Zambales",PVT,SOUTH POBLACION DIALYSIS CENTER ,6,Dr. Shalee M Santos,0929 2560246,"Jan. 4, 2021 to Dec. 31, 2023"
REGION 3,CENTRAL LUZON,ZAMBALES,,"6564 National Highway, Palanginan, Iba, Zambales",PVT,"ZAMBALES DIALYSIS AND KIDNEY CENTER, INC.",8,Dr. Olivia Roque Idio,047-6024640,"Jan. 1, 2021 to Dec. 31, 2023"
REGION 3,CENTRAL LUZON,ZAMBALES,,"Brgy. Patrocinio, San Narciso, Zambales",PVT,AVITUS KIDNEY CARE AND DIALYSIS CENTER CORPORATION,12,Dr. Maria Regina Gregorio,9175345111,"Jan.1, 2022-Dec.31, 2024"
REGION 3,CENTRAL LUZON,ZAMBALES,,"National Highway, Biay, Sta. Cruz, Zambales",PVT,AVITUS KIDNEY CARE AND DIALYSIS CENTER CORP.,14,Dr. Shari Ann C. Atanacio,9175345111,"Dec. 4, 2020 to Dec. 31, 2022"
REGION 3,CENTRAL LUZON,ZAMBALES,Olongapo City,"39 Lower Kalaklan, RH5 National Highway, Olongapo City, Zambales",PVT,AVITUS KIDNEY CARE AND DIALYSIS CENTER CORPORATION,20,Dr. Maria Regina Gergorio,9175065756,"Jan. 1, 2020 to Dec. 31, 2022"
REGION 3,CENTRAL LUZON,ZAMBALES,Olongapo City,"1759 Rizal Avenue, West Bajac-Bajac, Olongapo City, Zambales",PVT,AVITUS KIDNEY CARE AND DIALYSIS CENTER CORPORATION,30,Dr. Arnel S. Chua,09176537821/047-6109351,"Jan. 1, 2020 to Dec. 31, 2022"
REGION 3,CENTRAL LUZON,ZAMBALES,Olongapo City,"#65 JM Bldg., 18th St., East Bajac-Bajac, Olongapo City, Zambales",PVT,"B. BRAUN AVITUM PHILIPPINES, INC.",15,Dr. Beverly C. Aguila,0917-5152631,"Jan. 1, 2021 to Dec. 31, 2023"
REGION 3,CENTRAL LUZON,ZAMBALES,Olongapo City,"2 Afable St., cor. 18th St., East Bajac Bajac, Olongapo City, Zambales",PVT,MED LINE DIALYSIS CENTER,7,"Dr. Ma. Lorelei Lucio-Tong. FPSN, FPCP",09610811400/09273226853,"Dec. 1, 2020 to Dec. 31, 2022"
REGION 3,CENTRAL LUZON,ZAMBALES,Olongapo City,"No. 88 Gordon Ave., New Asinan, Olongapo City, Zambales",PVT,"QUALITY RENAL CARE, INC.",12,Dr. Edision SA Gurerreo,0229096/093991786,"Jan. 1, 2020 to Dec. 31, 2022"
REGION 4A,CALABARZON,BATANGAS,,"Lumbang Calzada, Calaca, Batangas",PVT,ST. RAFAEL DIALYSIS CENTER,12,Dr. Maria Caridad R. Pasno,0977-8262000,"Jan. 1, 2020 to Dec. 31, 2022"
REGION 4A,CALABARZON,BATANGAS,,"Unit 1GF & Unit 1 2nd Floor, GGDC Bldg. Poblacion, Ibaan, Batangas",PVT,AIZ HEMODIALYSIS CENTER INC.,12,Dr. Arginino Romeo Dorado,0929-625544,"Jan. 12, 2021 to Dec. 31, 2023"
REGION 4A,CALABARZON,BATANGAS,,"268 Santiago St., Poblacion, Ibaan, Batangas",PVT,"MARY MEDIATRIX MEDICAL CENTER, INC",11,Dr. Robert M. Magsino - Pres.,0917-1579537,"July 15, 2020 to Dec. 31, 2022"
REGION 4A,CALABARZON,BATANGAS,,"Metro Rei Business Park, Brgy. Palindan, Ibaan, Batangas",PVT,SOUTHERN LUZON DIALYSIS CARE CENTER,8,Dr. Joengeles Montalbo-Genebago,0915-3895528,"Jan. 1, 2021 to Dec. 31, 2023"
REGION 4A,CALABARZON,BATANGAS,,"Xentro Mall Batangas, Calaca-Lemery Highway, Lemery, Batangas",PVT,"GLOBAL RELIANCE RENALCARE, INC.",12,Dr. Aljun M. Malambut,0917-5049205,"Jan. 1, 2022 to Dec. 31, 2024"
REGION 4A,CALABARZON,BATANGAS,,"G/F APC Bldg., Jose P. Laurel Highway, Brgy. Poblacion, Malvar, Batangas",PVT,"AGE BRIDGE COR SUPPLY AND MEDICAL SERVICES, INC.",11,Dr. Rica Carpio,043-4063371,"Jan. 1, 2021 to Dec. 31, 2023"
REGION 4A,CALABARZON,BATANGAS,,"262 J.P. Laurel St. corner Roxas St., Nasugbu, Batangas",PVT,UNIVERSE KIDNEY CARE CENTER,12,Dr. Bienvenido Manlutac,0906-0140471,"Sept. 14, 2020 to Dec. 31, 2022"
REGION 4A,CALABARZON,BATANGAS,,"G/F Medical Experts Building, Rosario Road, Brgy. San Roque, Rosario, Batangas",PVT,FRESENIUS KIDNEY CARE,14,Dr. Irene Castillo-Paler,043-7816509,"Jan.1, 2022 to Dec.31, 2024"
REGION 4A,CALABARZON,BATANGAS,,"2+A19nd Floor Sto. Rosario Hospital, V. Escano St. cor.G. Recto St., Poblacion C, Rosario, Batangas",PVT,"HEMOTEK RENAL CENTER, INC.",10,Dr. Kathleen Joy L. Flores,5361091,"Jan. 1, 2022 to Dec. 31, 2024"
REGION 4A,CALABARZON,BATANGAS,,"Poblacion D, Rosario, Batangas",PVT,HOLISTIC DIALYSIS CENTER,20,Dr. Michelle Otayco,09155926004/043-3211371 /,"Jan. 1, 2021 to Dec. 31, 2023"
REGION 4A,CALABARZON,BATANGAS,,"44 Brgy. Calicanto, San Juan, Batangas",PVT,"SAN JUAN NEPOMUCENO DIALYSIS CENTER, INC,",10,Dr. Joengelee Montalbo-Genebago,043-5758890 / 0917-5747982,"Jan. 1, 2022 to Dec. 31, 2024"
REGION 4A,CALABARZON,BATANGAS,,"2nd Floor SMP Square Building, San Rafael, Maharlika Highway, Sto. Tomas, Batangas",PVT,FRESENIUS KIDNEY CARE,15,"Dr. Edgardo Faustino, FPCP, FACP, FPSN",02-8919575 loc. 2643,"Jan. 1, 2021 to Dec. 31, 2023"
REGION 4A,CALABARZON,BATANGAS,Batangas City,"G/F MB Bldg., Gulod Labac, Batangas City, Batangas",PVT,BCDMS DIALYSIS CENTER,11,Dr. Aprille Kirsten Ilustre,043-7276097,"Sept. 25, 2020 to Dec. 31, 2022"
REGION 4A,CALABARZON,BATANGAS,Batangas City,"2/F Batangas Healthcare Specialists Medical Center, Port Diversion Road, Brgy. Alangilan, Batangas City, Batangas",PVT,FRESENIUS KIDNEY CARE,12,Dr. Divina Cruz Ribas,7275139 / 0917-8066120 / 0917-8648055,"Jan.1, 2022 to Dec.31, 2024"
REGION 4A,CALABARZON,BATANGAS,Batangas City,"Kumintang Ibaba, Batangas City, Batangas",PVT,MEDWAY DIALYSIS CENTER,10,Dr. Nickson E. Austria,0917-8070832,"Mar. 13, 2020 to Dec. 31, 2022"
REGION 4A,CALABARZON,BATANGAS,Batangas City,"Urbano Mojares Jr. Bldg., National Highway, Alangilan, Batangas City",PVT,"NEPHROLOGY CENTER OF BATANGAS CITY, INC.",12,Dr. Catherine B. Bugayong,043-9845011,"Jan. 1, 2021 to Dec. 31, 2023"
REGION 4A,CALABARZON,BATANGAS,Batangas City,"3rd Floor Nuciti Central Mall, P. Burgos St., Batangas City, Batangas",PVT,"YOUNG HEALTH ENTERPRENEURS, INC. ",14,Dr. Aprille Kirsten Ilustre,0977-8100191,"Jan. 4, 2021 to Dec. 31, 2023"
REGION 4A,CALABARZON,BATANGAS,Lipa City,"RCD Plaza, by-Pass Road, Balintawak, Lipa City, Batangas",PVT,"ESSENTIAL CARE DIALYSIS CENTER, INC.",11,Dr. Nickson E. Austria,0915-5926004,"Jan. 1, 2020 to Dec. 31, 2022"
REGION 4A,CALABARZON,BATANGAS,Lipa City,"Jiao Medical Bldg., JP Laurel Highway, Brgy. Sico, Lipa City, Batangas",PVT,FIDELIS DIALYSIS CARE,5,Dr. Joengelee Montalbo-Genebago,043-9819983/7068089/09212777133/09165897900/09271336203,"Jan. 1, 2021 to Dec. 31, 2023"
REGION 4A,CALABARZON,BATANGAS,Lipa City,"Romleon Bldg., Ayala Highway, Brgy. Balintawak, Lipa City, Batangas",PVT,"HEALTH DELIVERY SYSTEM, INC.",11,Dr. Jose P. Ty,043-4049226,"Jan. 1, 2021 to Dec. 31, 2023"
REGION 4A,CALABARZON,BATANGAS,Lipa City,"Phoenix Station, JM Katigbak St., Mataas na Lupa, Lipa City, Batangas",PVT,LIPA SPECIALIST GROUP,16,Dr. Georgette Lee,0977-8100191,"Sept. 14, 2020 to Dec. 31, 2022"
REGION 4A,CALABARZON,BATANGAS,Tanauan City,"Sicto Castillo St., Brgy. 2, Tanauan City, Batangas",PVT,"ROTARY CLUB OF TANAUAN BATANGAS, INC.",8,"Dr, Norman C. Constantino",043-7786172 / 0920-9616182,"Jan. 1, 2022 to Dec. 31, 2024"
REGION 4A,CALABARZON,CAVITE,,"Unit 8, 88 Building, Governor's Drive, Brgy. Maduya, Carmona, Cavite",PVT,"CARMONA DIALYSIS SYSTEM, INC.",14,Dr. Rene V. Baltazar,046-9722917/046-4332939 / 0975-2531783/0929-8478250,"Jan. 1, 2022 to Dec. 31, 2024"
REGION 4A,CALABARZON,CAVITE,,"G/F Angeles Bldg., Brgy. J. Lumbreras, Congressional Road, General Mariano Alvarez, Cavite",PVT,MEDLINE DIALYSIS CENTER,5,Dr. Marilyn Vinluan-Olveda,046-4431319,"Oct. 30, 2020 to Dec. 31, 2022"
REGION 4A,CALABARZON,CAVITE,,"G/F Units 10 & 11 Robertsons Plaza, Brgy. Tabon, Centennial Road, Kawit, Cavite",PVT,"GLOBAL RELIANCE RENAL CARE, INC.",13,Dr. Sheena Ann Manalili-Diloy,0917-5049205,"Nov. 19, 2020 to Dec. 31, 2022"
REGION 4A,CALABARZON,CAVITE,,"JP Rizal St., Brgy. Asis III, Mendez, Cavite",PVT,"NEPHROLOGY CENTER OF CAVITE CT-R HEMODIALYSIS, INC.",9,Dr. Rosella M. Noche,046-8613013/8613014,"Jan. 1, 2021 to Dec. 31, 2023"
REGION 4A,CALABARZON,CAVITE,,"#39 Governors Drive, Ibayo Silangan, Naic, Cavite",PVT,CURIS NAIC DIALYSIS CLINIC,12,Dr. Maria Divina Nazareno,0905-7944561,"Dec. 11, 2020 to Dec. 31, 2022"
REGION 4A,CALABARZON,CAVITE,,"039 Governor's Drive, Ibayo Silangan, Naic, Cavite",PVT,NAIC DIALYSIS CENTER INC. ,15,"Dr. Maria Theresa P. Santiago, FPSN",046-4093627 / 0936-9158496 / 0997-2507677,"Jan. 1, 2022 to Dec. 31, 2024"
REGION 4A,CALABARZON,CAVITE,,"Estrella Hospital, Km. 43, Gen. Emilio Aguinaloo Highway, Brgy. San Miguel, Silang, Cavite",PVT,CAVITE DIALYSIS CENTER CORPORATION,8,Dr. Rogelio Aquino,046-4870614 / 0923-1997819 / 0927-4793558,"Jan. 1, 2022 to Dec. 31, 2024"
REGION 4A,CALABARZON,CAVITE,,"Premier Plaza, 7180 E. Aguinaldo Highway, Brgy. Lucsuhin, Silang, Cavite",PVT,"GLOBAL RELIANCE RENALCARE, INC.",15,Dr. Marie Fe A. Vergara-Lim Dy,0917-8126895,"Jan. 1, 2021 to Dec. 31, 2023"
REGION 4A,CALABARZON,CAVITE,,"J. Rizal St., Brgy. Sabutan, Silang, Cavite",PVT,VELAZCO HOSPITAL DIALYSIS UNIT CO.,9,Dr. Agnes Baston,046-4131492 / 0916-3980065,"Sept. 14, 2020 to Dec. 31, 2022"
REGION 4A,CALABARZON,CAVITE,,"CDC Bldg., A. Soriano Highway, Poblacion IV, Tanza, Cavite",PVT,"CAVITE DIAGNOSTIC STROKE CARE CENTER, INC.",8,Dr. Luis Ricardo D. Sahilan,046-4352734/4352660 / 0923-8515315,"Jan.1, 2022 to Dec.31, 2024"
REGION 4A,CALABARZON,Cavite,Bacoor City,"Groud Floor, Unit 3, FYNN Commercial Bldg., Panapaan 4, Bacoor City, Cavite",PVT,"HEMOTEK RENAL CENTER, INC.",20,Dr. Dabbie Que Wonghin,046-4319925,"Jan.1, 2022 to Dec.31, 2024"
REGION 4A,CALABARZON,Cavite,Bacoor City,"2nd Floor, Bacoor Doctors Medical Center, Molino Blvd., Brgy. Bayanan, Bacoor City, Cavite",PVT,"HEMOTEK RENAL CENTER, INC.",4,Dr. Lilibeth Ibarrientos,046-7955381/0977-2953303,"Jan.1, 2022 to Dec.31, 2024"
REGION 4A,CALABARZON,CAVITE,Bacoor City,"JMN Bldg., Tirona Highway, Habay I, Bacoor City, Cavite",PVT,"NEPHROLOGY CENTER OF BACOOR CAVITE, INC.",11,Dr. Dennis P. Fuentes,046-5308189 / 5309819,"Jan. 1, 2020 to Dec. 31, 2022"
REGION 4A,CALABARZON,CAVITE,Bacoor City,"Bldg. A, Unit 3, Paseo de Bacoor, Brgy. Molino III, Bacoor City, Cavite",PVT,WELLSERVE DIALYSIS CENTER,13,"Dr. Louie Anne Marie S. Salvador, FPCP, DPSN",046-4505491 / 0908-8841383,"Jan. 1, 2022 to Dec. 31, 2024"
REGION 4A,CALABARZON,CAVITE,Dasmariñas City,"Unitop Mall Governors Drive cor. Paliparan-Silang Road, Paliparan I, Dasmariñas City, Cavite",PVT,DASMARIÑAS RENAL CARE CENTER INC.,10,Dr. Jonathan Moleta,(046) 4306948/0917-8902109/0995-2788450,"Oct. 29, 2020 to Dec. 31, 2022"
REGION 4A,CALABARZON,CAVITE,Dasmariñas City,"G/F Units 3,4,5 Leveriza Bldg., E. Aguinaldo Highway, Dasmariñas City, Cavite",PVT,"GLOBAL RELIANCE RENALCARE, INC.",12,Dr. Jenny R. Bicol,046-8437989,"Jan. 1, 2021 to Dec. 31, 2023"
REGION 4A,CALABARZON,CAVITE,Dasmariñas City,"RJVA Bldg., Sampaloc 1, Aguinaldo Highway, Palapala, Dasmariñas City, Cavite",PVT,"HEMOTEK RENAL CENTER, INC.",15,Dr. Georgette E. Lee,046-4893625,"Jan. 1, 2021 to Dec. 31, 2023"
REGION 4A,CALABARZON,Cavite,Dasmariñas City,"895 Mayumi Bldg., Jose Abad Santos Ave., Salitran 1, Dasmariñas City, Cavite",PVT,KIDNEYCARE DIALYSIS CENTER,13,Dr. Eunice Bernadette Go-Lopez,046-5405997 / 0917-1193166,"Jan.1, 2022 to Dec.31, 2024"
REGION 4A,CALABARZON,Cavite,Dasmariñas City,"Molino-Paliparan Road, Salawag, Dasmariñas City, Cavite",PVT,K-MATTERS TAGUIG DIALYSIS AND DIAGNOSTIC CENTER CO.,12,Dr. Arlene Afaga,046-6860450/0926-0382171/0921-5779166,"Jan.1, 2022 to Dec.31, 2024"
REGION 4A,CALABARZON,CAVITE,Dasmariñas City,"Zone 1A, Agustina Village, Zone 1 (POB), Dasmariñas City, Cavite",PVT,"NEPHROLOGY CENTER OF DASMARIÑAS CITY, INC.",15,Dr. Richard Thomas P. Lim,0930-7382240,"Oct. 8, 2020 to Dec. 31, 2022"
REGION 4A,CALABARZON,CAVITE,Gen. Trias City,"Epza-Bacao Road, Gen. Trias City, Cavite",PVT,KOREA-PHILIPPINES FRIENDSHIP OCCUPATIONAL HEALTH & DIALYSIS CLINIC,14,Dr. Juancho Ambata,046-4370818/0916-7393364,"April 16, 2020 to Dec. 31, 2022"
REGION 4A,CALABARZON,CAVITE,Gen. Trias City,"2nd Floor Robinsons Place, General Trias, EPZA, Soriano Highway, Diversion Road, Bacao, General Trias City, Cavite",PVT,NEPHROSOUTH INCORPORATED,15,Dr. Georgette Lee,9778100191,"Aug. 14, 2020 to Dec. 31, 2022"
REGION 4A,CALABARZON,CAVITE,Gen. Trias City,"A. Soriano Hi-way, Brgy. Tejero, General Trias, Cavite",PVT,ST. AUGUSTINE DIALYSIS INC. ,10,Dr. MA. MELYNDA J. FANI,09176293720/046-4306948 loc 106,"Sept. 1, 2021 to Dec. 31, 2023"
REGION 4A,CALABARZON,CAVITE,Imus City,"9073 E. Aguinaldo Highway, Anabu II-B, Imus City, Cavite",PVT,"B. BRAUN AVINTUM PHILS., INC.",10,Dr. Rudi Joy T. Larano,02-5885698 / 0917-5152631,"Jan. 1, 2020 to Dec. 31, 2022"
REGION 4A,CALABARZON,Cavite,Imus City,"Unit 205, Sun City Plaza Bldg., Aguinaldo Highway, Anabu I, Imus City, Cavite",PVT,"NEPHROLOGY CENTER OF CAVITE CITY DIALYSIS, INC.",15,Dr. Eloisa Mercado,046-4020255,"Jan. 1, 2022 to Dec. 31, 2024"
REGION 4A,CALABARZON,CAVITE,Imus City,"Ground Floor, Citymall, Anabu, Gen. Emilio Aguinaldo, Imus City, Cavite",PVT,"RELIANCECARE, INC.",15,Dr. Margrette ruth I. Bernardo,6345714 / 0917-5097647,"Jan. 1, 2020 to Dec. 31, 2022"
REGION 4A,CALABARZON,CAVITE,Tagaytay City,"3rd Floor, Plaza San Nicolas De Tolentino, Purok 157, General Aguinaldo, Brgy. San Jose, Tagaytay, City",PVT,"ROYAL CARE DIALYSIS CENTER, INC.",16,Dr. Rodolfo Aquino,8010995,"Jan. 1, 2020 to Dec. 31, 2022"
REGION 4A,CALABARZON,CAVITE,Trece Martires City,"Lower Ground Floor, Unit 1,2,3 Puregold San Agustin, Governor's Drive, San Agustin, Trece Martires City, Cavite",PVT,"HSI HEMOCARE SYSTEM, INC.",14,Dr. Rene V. Baltazar,046-5704631,"Jan. 1, 2021 to Dec. 31, 2023"
REGION 4A,CALABARZON,Cavite,Trece Martires City,"Governor's Drive, Brgy. San Agustin, Trece Martires City, Cavite",PVT,"MSR HEALTH CARE, INC.",12,Dr. Rosalyn Cabuco,5501489 / 0906-5444924,"Jan.1, 2022 to Dec.31, 2024"
REGION 4A,CALABARZON,LAGUNA,,"Lopez Jaena St., Brgy. Poblacion 1, Nagcarlan, Laguna",PVT,"UNITED DOCTORS OF LAGUNA [UDL] DIALYSIS CENTER, INC.",7,Kenneth C. Lim,049-5496801,"Jan. 1, 2021 to Dec. 31, 2023"
REGION 4A,CALABARZON,Laguna,,"Temprosa Bldg., Brgy. Bagumbayan, Siniloan, Laguna",PVT,DIALYSIS CENTER OF SINILOAN LAGUNA CORP.,6,Dr. Marlene V. Iniego,0905-4480695,"Jan.1, 2022 to Dec.31, 2024"
REGION 4A,CALABARZON,LAGUNA,,"#18 AMNC Bldg., P. Guevarra Ave., Brgy. Pagsawitan, Sta. Cruz, Laguna",PVT,DCS DIALYSIS CENTER,8,Dr. Marlene Villanueva-Iniego,0917-8159830,"Jan. 1, 2022 to Dec. 31, 2024"
REGION 4A,CALABARZON,LAGUNA,,"Mabini St., Brgy. Bukal, Sta. Cruz, Laguna",PVT,STA. CRUZ HEMODIALYSIS CENTER CORP.,17,Dr. Maria Rhowena Flores-Florendo,049-6233539 / 0915-7776700,"Jan. 1, 2022 to Dec. 31, 2024"
REGION 4A,CALABARZON,LAGUNA,Binan City,"Unit A17-A, Ground Floor, south Woods Mall, Southwoods city, barangay San Francisco, Binan Laguna",PVT,"B.BRAUN AVITUM PHILIPPINES, INC. ",17,Dr. Arni Agawin Magdamo,9176536622/09178387177,"May 6, 2021 to Dec. 31, 2023"
REGION 4A,CALABARZON,Laguna,Biñan City,"Sto. Domingo, Biñan City, Laguna",PVT,"GC HEMODYNAMIX, INC.",15,"Dr, Rolando N. Macalalag",0967-2486639,"Jan.1, 2022 to Dec.31, 2024"
REGION 4A,CALABARZON,LAGUNA,Binan City,"Rm. 303 A&C, Coral Center Bldg.,, Southwoods, Biñan, Laguna",PVT,ST. MICHAEL AND ST. RAPHAEL DIALYSIS CENTER CORP.,10,Dr. Josierina Y. Sarmiento,0917-8176668 / 049-5597103,"Jan. 1, 2021 to Dec. 31, 2023"
REGION 4A,CALABARZON,LAGUNA,Binan City,"2nd Floor, Umbria Commercial Center, Brgy. San Antonio, City of Biñan, Laguna",PVT,"RNM DIALYSIS CENTER, INC. ",10,Dr. Cindy Angue,0927-6255544,"Aug. 31, 2021 to Dec. 31, 2023"
REGION 4A,CALABARZON,LAGUNA,Cabuyao City,"Ospital ng Cabuyao, Brgy. Tres, Cabuyao, Laguna",PVT,NEPHROMED ASIA MEDICAL GROUP INCORPORATED,10,Dr. Rogelio C. Aquino,0977-8100191,"Aug. 14, 2020 to Dec. 31, 2022"
REGION 4A,CALABARZON,LAGUNA,Calamba City,"175 National Highway, Paciano Rizal, Calamba, Laguna",PVT,"CPDC-BRIDGES DIALYSIS CENTER, INC.",7,Dr. Genaro Angcao,0917-8406089,"Jan. 1, 2020 to Dec. 31, 2022"
REGION 4A,CALABARZON,LAGUNA,Calamba City,"G/F Linville Bldg., Brgy. Real, Calamba, Laguna",PVT,"HEMOTEK RENAL CENTER, INC.",15,Dr. Genaro T. Angcao,5361091 / 0915-2722902,"Jan. 1, 2022 to Dec. 31, 2024"
REGION 4A,CALABARZON,LAGUNA,Calamba City,"Unit 7, LGC Bldg., Parian, Calamba City, Laguna",PVT,"MEGA HEALTH DIALYSIS CENTER, INC.",9,Dr. Eric Jude M. Cariano,049-5218082,"Jan. 1, 2022 to Dec. 31, 2024"
REGION 4A,CALABARZON,LAGUNA,Calamba City,"Dr. Jose P. Rizal Memorial Dist. Hospital, Bucal, Calamba City, Laguna",PVT,"NEPHRO SYNERGIES, INC.",9,Dr. Norman C. Constantino,049-5217759,"Jan. 1, 2022 to Dec. 31, 2024"
REGION 4A,CALABARZON,LAGUNA,Calamba City,"G/F Milan Prestige Bldg., National Highway, Brgy. Halang, Calamba City, Laguna",PVT,"NEPHROLOGY CENTER OF CALAMBA, LAGUNA, INC.",15,Dr. Hana Marie Biagtan,049-5308189 / 5309819,"Jan. 1, 2020 to Dec. 31, 2022"
REGION 4A,CALABARZON,LAGUNA,Calamba City,"Penthouse Makiling Medical Clinic and Diagnostic Center, Lot 5, Block 3, Pan Philippines Highway, Brgy. Milagrosa, Calamba City, Laguna",PVT,OUR LADY OF LOURDES DIALYSIS CENTER ,8,Dr. Marilyn Vinluan -Olveda,0919-0985221,"Aug. 16, 2021 to Dec. 31, 2023"
REGION 4A,CALABARZON,LAGUNA,San Pablo City,"Km. 81 Maharlika Hiway San Roque, San Pablo City, Laguna",PVT,KOLFF DIALYSIS INC.,10,Dr. Keneth Lim,0927-6255544,"Dec. 15, 2020 to Dec. 31, 2022"
REGION 4A,CALABARZON,LAGUNA,San Pablo City,"M. Brion St., Brgy. 4-C, San Pablo City, Laguna",PVT,NEPHRO PLUS DIALYSIS CENTER,11,Dr. Rica S. Carpio,049-5212453/09193136836/09088859295 /,"Jan. 1, 2021 to Dec. 31, 2023"
REGION 4A,CALABARZON,LAGUNA,San Pablo City,"General Antonio Luna Road, Brgy. IV-A, San Pablo City, Laguna",PVT,"RENAL HUB AND MANAGEMENT, INC. ",8,Dr. Edgal Palacol,0917-1848706,"Dec. 20, 2021 to Dec. 31, 2023"
REGION 4A,CALABARZON,LAGUNA,San Pedro City,"Km. 31, National Highway, Brgy. Nueva, San Pedro, Laguna",PVT,"ROYAL CARE DIALYSIS CENTER, INC.",16,Dr. Dan Michael Dones,8010995 / 0922-8153076,"Jan. 1, 2022 to Dec. 31, 2024"
REGION 4A,CALABARZON,LAGUNA,San Pedro City,"Building 2, Centro Pacita, Pacita Complex, San Vicente, Phase II, San Pedro City, Laguna",PVT,TMS DIALYSIS CENTER - SAN PEDRO,29,Dr. Maria Angeline Ledesma-Gumba,02-85538259,"Jan. 1, 2022 to Dec. 31, 2024"
REGION 4A,CALABARZON,LAGUNA,Sta. Rosa City,"2nd Floor, Robinsons Santa Rosa, National Highway,Brgy. Tagapo, Sta. Rosa City, Laguna",PVT,"NEPHROASIA DIALYSIS CENTER, INC.",13,Dr. Vincent Paul Filio,049-5454792,"Jan. 1, 2021 to Dec. 31, 2023"
REGION 4A,CALABARZON,LAGUNA,Sta. Rosa City,"3rd Floor, PMP DiagnosticsCenter Bldg., 1241-A-1 National Highway, Brgy. Dita, Sta. Rosa City, Laguna",PVT,KIDNEYCARE DIALYSIS CENTER,4,Dr. Jose Maria Allessandro Libo-on,0917-8733451,"Oct. 23, 2020 to Dec. 31, 2022"
REGION 4A,CALABARZON,LAGUNA,Sta. Rosa City,"RSBS Boulevard, San Lorenzo South, Barangay Balibago, Sta. Rosa, Laguna",PVT,"THERAPY MANAGEMENT SERVICES PHILS., INC.",24,Dr. Christian Sigfried T. Estanislao,0917-5681564,"Jan. 1, 2021 to Dec. 31, 2023"
REGION 4A,CALABARZON,QUEZON,,"Maharlika Highway, Brgy. Masin Sur, Candelaria, Quezon",PVT,"CANDELARIA KIDNEY CARE, INC.",10,Dr. Christina Erika L. Basilan,5852300,"July 21, 2020 to Dec. 31, 2022"
REGION 4A,CALABARZON,QUEZON,Lucena City,"Unit 1D-1E, G/F LIC Bldg., #1080 Doña Aurora Blvd., Brgy. Gulang Gulang, Lucena City, Quezon",PVT,"KOLFF DIALYSIS, INC.",12,Dr. Rose Marie Ho Yu,042-3220267,"Jan. 1, 2022 to Dec. 31, 2024"
REGION 4A,CALABARZON,QUEZON,Lucena City,"No. 13 Quezon Ave., Lucena City, Quezon",PVT,QUEZON MMG DIALYSIS CENTER,11,Dr. Cesar Villamayor,042-7102288 / 710-8050,"Jan.1, 2022 to Dec.31, 2024"
REGION 4A,CALABARZON,QUEZON,Lucena City,"Lot 9, Blk 7, Pleasant Village Subd., A. Boni Drive, Ilayang Iyam, Lucena City, Quezon",PVT,TRINITY DIALYSIS CENTER ,12,Dr. Melody A. Peña,042-7884383/0927-8558954,"Jan. 12, 2021 to Dec. 31, 2023"
REGION 4A,CALABARZON,RIZAL,,"138 M.L. Quezon , Angono, Rizal",PVT,"GLOBAL BIOTECH HEALTHCARE, INC.",10,Dr. Marie Stella L. Navarro,6637366 / 0917-8588080 / 0998-5763858,"Jan. 1, 2022 to Dec. 31, 2024"
REGION 4A,CALABARZON,RIZAL,,"490 M.L. Quezon St., Brgy. San Isidro, Angono, Rizal",PVT,RIZAL DIALYSIS AND WELLNESS CENTER OPC ,12,Dr. Alwyn Johanna S. Santos,0921-7473308,"Nov. 29, 2021 to Dec. 31, 2023"
REGION 4A,CALABARZON,RIZAL,,"Manila East Road, Brgy. Pag-Asa, Binangonan, Rizal",PVT,"ANGONO-BINANGONAN CENTER OF DIALYSIS, INC. ",15,Dr. Jason Paul Medina,02-85631538 / 0995-1052080,"May 14, 2021 to Dec. 31, 2023"
REGION 4A,CALABARZON,RIZAL,,"3rd Floor, Rublou Business Center, Ortigas Ave. Ext., Brgy. Sto. Domingo, Cainta, Rizal",PVT,ASIA KIDNEY CARE CENTER,11,Dr. Joselito A. Mora,0921-9932626,"Jan. 1, 2020 to Dec. 31, 2022"
REGION 4A,CALABARZON,RIZAL,,"Unit A, G/F Alpha Square Bldg., 19 A. Bonifacio Ave., Brgy. Santo Domingo, Cainta, Rizal",PVT,"CLAREMONT DIALYSIS CENTER, INC. ",15,Dr. J. Meinard Nepomuceno,0977-8198340,"Aug. 23, 2021 to Dec. 31, 2023"
REGION 4A,CALABARZON,RIZAL,,"2nd Floor, Cainta Municipal Hospital, Municipal Compound, Brgy. Sto. Domingo, Cainta, Rizal",PVT,JORTIZ DIALYSIS CENTER ,5,Dr. Zarah Marie Zamaora-Tan,0945-9629336/ 0917-71364313,"Oct. 29, 2021 to Dec. 31, 2023"
REGION 4A,CALABARZON,RIZAL,,"Km. 18, Ortigas Ave. Ext., Brgy. Sto. Niño, Cainta, Rizal",PVT,"PADRE PIO KIDNEY CARE CENTER, INC.",15,Dr. Glennis Fiona J. Javelosa-Tan,02-7213-4707 / 0917-3280245,"Jan. 1, 2022 to Dec. 31, 2024"
REGION 4A,CALABARZON,RIZAL,,"1 GS National Road, Looc, Cardona, Rizal",PVT,CARLOS MEDICAL AND MATERNITY CLINIC,11,Dr. Carmel M. Carlos,84015360 / 87272731,"Nov. 11, 2020 to Dec. 31, 2022"
REGION 4A,CALABARZON,RIZAL,,"Tomas Claudio St., Sitio Paglabas, Barangay San Pedro, Morong, Rizal",PVT,"MORONG MEDICAL AND HEMODIALYSIS CENTER, INC.",28,Dr. Ana Maricon A. Gabas,9778571588,"Jan. 1, 2021 to Dec. 31, 2023"
REGION 4A,CALABARZON,RIZAL,,"102-105 SM BPO Bldg., Manila East Road, Brgy. Dolores, Taytay, Rizal",PVT,THE MEDICAL CITY CLINIC @ SM TAYTAY ,11,Dr. Jocelyn Paragas-Javier,0995-4793125,"Dec. 22, 2021 to Dec. 31, 2023"
REGION 4A,CALABARZON,RIZAL,,"Ground Floor, St. Therese De Lima Medical Hospital, National Highway, Bagumbayan, Teresa, Rizal",PVT,"ANGONO-BINANGONAN CENTER OF DIALYSIS, INC.",15,Dr. Jason Paul T. Medina,0917-1071680 /,"Jan. 1, 2022 to Dec. 31, 2024"
REGION 4A,CALABARZON,RIZAL,,"Gen. Luna St. cor. Mabini St., Brgy. Sta. Ana, San Mateo, Rizal",PVT,FRANCYN DIALYSIS CENTER,5,Dr. Cynthia Quiring-Pua,8534-1200/0933-1334541,"Jan. 1, 2022 to Dec. 31, 2024"
REGION 4A,CALABARZON,RIZAL,Antipolo City,"4th Floor, Dionisio M. Cornel Medical Center, Inc., Masinag, Marcos Highway, Mayamot, Antipolo City",PVT,"GC HEMODYNAMIX, INC.",21,Dr. Gjay L. Ordinal,8645-0411,"May 28, 2020 to Dec. 31, 2022"
REGION 4A,CALABARZON,RIZAL,Antipolo City,"#45 Marcos Highway, Brgy. Mayamot, Antipolo City, Rizal",PVT,"NEPHROLOGY CENTER OF PASIG CITY, INC.",15,Dr. Ma. Czarlota A. Valdenor,0999-3731018 / 0933-0714076 / 02-3767148,"Jan. 1, 2020 to Dec. 31, 2022"
REGION 4A,CALABARZON,RIZAL,Antipolo City,"Sen. Lorenzo Sumulong Memorial Circle, San Roque, Antipolo City, Rizal",PVT,PADRE PIO KIDNEY CARE CENTER CO.,19,Dr. `Bea Barbara Carrascal,02-8727-0939/09778571588,"Jan. 1, 2022 to Dec. 31, 2024"
REGION 4A,CALABARZON,RIZAL,Antipolo City,"Amio Race Bldg., Circumferential Road, Brgy. Dalig, Antipolo City",PVT,"THERAPY MANAGEMENT SERVICES PHILS, INC.",11,Dr. Kristian Anteolin Punzalan,0917-5973887 / 0998-3917771,"Jan. 1, 2021 to Dec. 31, 2023"
REGION 4B,MIMAROPA,OCCIDENTAL MINDORO,,"No. 4 J.P. Rizal St., Barangay 4, Mamburao Occidental Mindoro",PVT,"B. BRAUN AVITUM PHILIPPINES, INC.",8,Dr. Tennille Tan,0917-653-6602,"Jan.1, 2022 to Dec.31, 2024"
REGION 4B,MIMAROPA,OCCIDENTAL MINDORO,,"National Highway, Barangay Bubog, San Jose, Occidental Mindoro",PVT,"B. BRAUN AVITUM PHILIPPINES, INC. ",14,Dr. Tennile Tan,0917 597 2887,"July 2, 2021 to Dec. 31, 2023"
REGION 4B,MIMAROPA,OCCIDENTAL MINDORO,,"Balmas Bldg., Diego Silang St., Brgy. 5, San Jose, Occidental Mindoro",PVT,MINDORO OCCIDENTAL MEDICAL MISSION GROUP HEALTH SERVICE COOPERATIVE (MOMMGHSC),9,Dr. Anna Monica R. Bracamonte,(043) 742 6268,"Jan. 1, 2021 to Dec. 31, 2023"
REGION 4B,MIMAROPA,PALAWAN,Puerto Princesa City,"Sea Road 1, Ponce De Leon, Brgy. San Pedro, Puerto Princesa City, Palawan",PVT,"PADRE PIO MEDICAL AND SURGICAL ASSOCIATES, INC.",14,Dr. Ruth S. Miraflores,048-4330890 / 048-4330259 / 0917-7219439,"Feb. 16, 2021 to Dec. 31, 2023"
REGION 4B,MIMAROPA,PALAWAN,Puerto Princesa City,"corner Burgos & Mabini Sts., Puerto Princesa City, Palawan",PVT,PALAWAN MEDICAL MISSION GROUP MULTIPURPOSE COOPERATIVE (PMMGMPC),12,Dr. Paul S. Castillo,048-4345580/3255 / 4336137 fax /,"Jan. 1, 2020 to Dec. 31, 2022"
REGION 4B,MIMAROPA,PALAWAN,Puerto Princesa City,"Solid Road, Brgy. San Manuel, Puerto Princesa City, Palawan",PVT,TRUECARE DIALYSIS CENTER ,15,Dr. Ruth Miraflores,09335174023/0905794461,"Sept. 14, 2021 to Dec. 31, 2023"
REGION 5,BICOL,ALBAY,,"2F Samar Bldg. Gabon, Polangui, Albay",PVT,MEDICAL MISSION GROUP MULTIPURPOSE COOPERATIVE-ALBAY(MMG-ALBAY),4,Dr. Marilou B. Cmpuesto,0945 3729827,"Jan.1, 2022 to Dec.31, 2024"
REGION 5,BICOL,ALBAY,,"130 Centro Oriental Polangui, Albay",PVT,OUR LADY OF PERPETUAL HELP DIAGNOSTIC AND DIALYSIS CENTER,6,Dr. Myrna de Leon Najar,9175052381,"Feb. 8, 2021 to Dec. 31, 2023"
REGION 5,BICOL,ALBAY,Legaspi City,"2/F Estevez Memorial Hospital, Annex Bldg., guevarra Subd., Legaspi City, Albay",PVT,BICOL HEMODIALYSIS CENTER CORP.,18,Dr/ Lorna Yap-Wong,052-7426592 / 7426756,"Jan. 1, 2020 to Dec. 31, 2022"
REGION 5,BICOL,ALBAY,Legazpi City,"Miranda Plaza Bldg., Rizal St. Sagpon Legazpi, Albay",PVT,"NEPHROLOGY CENTER OF BICOL, INC.",6,Dr. Arnel C. Villanueva,3767800 / 3767149,"Jan.1, 2022 to Dec.31, 2024"
REGION 5,BICOL,ALBAY,Legazpi CIty,"Purok 2, Peñaranda St. Brgy. 33 Legazpi City, Albay Bicol",PVT,"SAINT MARY KIDNEY CARE, INC.",6,Dr. Melissa Tita Luna Antonio,0977-630-0151,"Jan.1, 2022 to Dec.31, 2024"
REGION 5,BICOL,CAMARINES SUR,Iriga City,"Iriga City Health Office Extension Sta. Cruz Sur, Iriga City",PVT,NEPHRO SYNERGIES INC. ,15,Dr. Kristine June Barba,0961 8777267,"June 9, 2021 to Dec. 31, 2023"
REGION 5,BICOL,CAMARINES SUR,Naga City,"3B M. Plaza, Roxas Ave., Diversion Road, Triangulo, Naga City, Camarines Sur",PVT,BICOL RENAL CARE ASSOCIATES CORP.,14,Dr. Leslie A. Yap,(054) 4708112,"Jan. 1, 2020 to Dec. 31, 2022"
REGION 5,BICOL,CAMARINES SUR,Naga City,"BAHC-Pedro Olivan Medical Arts Bldg., CBD II, Brgy. Triangulo II, Naga City",PVT,"NAGA HEMODIALYSIS CENTER, INC.",10,Dr. Rizalina Rosales-Ramos,(054) 472 5542,"Jan. 1, 2020 to Dec. 31, 2022"
REGION 5,BICOL,CAMARINES SUR,Naga City,"Naga City Health Bldg., Concepcion Pequeña, Naga City, Camarines Sur",PVT,"NEPHRO SYNERGIES, INC.",14,Dr. Josephine V. Bonos,0971 5731694,"Jan. 1, 2020 to Dec. 31, 2022"
REGION 5,BICOL,CAMARINES SUR,Naga City,"#18 Magsaysay Avenue, Concepcion Pequeña, Naga City, Camarines Sur",PVT,OPTIMUM KIDNEY CARE SOLUTIONS INC.,8,Dr. Josephine V. Bonos,(054) 871 3971,"Jan. 1, 2021 to Dec. 31, 2023"
REGION 5,BICOL,CAMARINES SUR,Naga City,"Nolo Priceton St., City Heights Subd., Concepcion Pequeña. Naga City, Camarines Sur",PVT,THE JESUS HERNANDEZ DIALYSIS CENTER (TJHDC),6,Dr. Cherie Villamora,054-2050542,"Jan. 1, 2021 to Dec. 31, 2023"
REGION 5,BICOL,MASBATE,,"National Road, Brgy. Tugbo, Masbate",PVT,RENAL HEALTH AND DIALYSIS CARE CENTER,7,Dr. Chona Tagayuna-Dela Pena,(056) 333 0370,"Jan. 1, 2020 to Dec. 31, 2022"
REGION 5,BICOL,SORSOGON,,"Bonifacio St., Luna Candol, Gubat, Sorsogon",PVT,SORSOGON MEDICAL MISSION GROUP HOSPITAL AND HEALTH SERVICE COOPERATIVE.,4,Dr. Irwyn Francis R. Mortel,0915 2327789,"Jan. 1, 2020 to Dec. 31, 2022"
REGION 5,BICOL,SORSOGON,,"Gerona St., Zone 3, Bulan, Sorsogon",PVT,SORSOGON MEDICAL MISSION GROUP HOSPITAL AND HEALTH COOPERATIVE,5,Dr. Joy Galino-Lacerna,0956-820-1078,"Feb. 5, 2020 to Dec. 31, 2022"
REGION 5,BICOL,SORSOGON,Sorsogon City,"501 Alegre St., Balogo, Sorsogon City. Sorsogon",PVT,"METRO HEALTH LABORATORY AND MEDICAL SERVICES, INC.",9,Dr. Dorothea Farah Dorion-Jarabo,(056) 421 5123,"Jan. 1, 2021 to Dec. 31, 2023"
REGION 5,BICOL,SORSOGON,Sorsogon City,"Garcia St., Bgy. Sulucan, Sorsogon City",PVT,SORSOGON MEDICAL MISSION GROUP HOSPITAL AND HEALTH COOPERATIVE,5,Dr. Joy Galino-Lacerna,0915-218-2098,"Feb. 5, 2020 to Dec. 31, 2022"
REGION 6,WESTERN VISAYAS,ILOILO,Iloilo City,"Unit 2,4 & 27 G/F City Time Square Benigno Aquino Ave., Brgy. San Rafael Mandurriao, Iloilo City, Iloilo",PVT,"CENTER FOR RENAL REPLACEMENT THERAPY, INC. ",16,Dr. Annia Rae Nicolasora,9171704266,"Aug. 15, 2021 to Dec. 31, 2023"
REGION 6,WESTERN VISAYAS,ILOILO,Iloilo City,"78 Hechanova St., Brgy. Nabitasan, Lapaz, Iloilo City",PVT,FREMONT RENAL CARE AND MEDICAL CLINIC,16,Dr. Ethel D. Cordero,033-5094164,"Jan. 1, 2021 to Dec. 31, 2023"
REGION 6,WESTERN VISAYAS,ILOILO,Iloilo City,"Uy-Bico Bldg., Yulo St.B191:D194, Iloilo City",PVT,"HARTMAN DIALYSIS CENTER, INC.",23,Dr. Rey A. Isidro,033-3275767/09989598003,"Jan. 1, 2021 to Dec. 31, 2023"
REGION 6,WESTERN VISAYAS,ILOILO,Iloilo City,"Brgy. San Agustin, Iloilo City",PVT,"M-3 DIALYSIS CENTER, INC",20,Dr. Agnes Jean M. Villafor,033-5099760,"Jan. 1, 2022 to Dec. 31, 2024"
REGION 6,WESTERN VISAYAS,ILOILO,Iloilo City,"GF Units A16-A18 Festive Walk Parade 1 - B, Iloilo Business Park, Brgy. Taft North, Mandurriao, Iloilo City",PVT,"MDSS CROSSWAY KIDNEY CARE, INC.",20,Dr. Marie Hazel Ivy Mueno,,"Dec. 6, 2021 to Dec. 2023"
REGION 6,WESTERN VISAYAS,ILOILO,Iloilo City,"Donato Pison Avenue, Brgy. San Rafael, Mandurriao, Iloilo City",PVT,MEDICUS HEALTHCARE PLAZA HEMODIALYSIS CENTER,15,Dr. Maria Kristina G.Almonte,9171825700,"Jan.1, 2022 to Dec.31, 2024"
REGION 6,WESTERN VISAYAS,ILOILO,Iloilo City,"Simeon Aguilar St., Poblacion Ilawod, Passi City, Iloilo City",PVT,NEFRON DIALYSIS CENTER,12,Dr Joel Advincula,033-3115508/09452176611,"Jan.1, 2022 to Dec.31, 2024"
REGION 6,WESTERN VISAYAS,ILOILO,Iloilo City,"The Medical City-Iloilo, Locsin St., Molo, Iloilo City",PVT,"NEPHRO SYNERGIES, INC.",13,Dr. Maria Bernadeth I. Eslaban,033-5001000 loc. 50040,"Jan. 1, 2021 to Dec. 31, 2023"
REGION 6,WESTERN VISAYAS,ILOILO,Iloilo City,"Dungon A Jaro, Iloilo City, Iloilo",PVT,"RENAL SPECIALTY, INC",13,Dr. Ma. Daylinda A. Chung,033-323231,"Jan.1, 2022-Dec. 31, 2024"
REGION 6,WESTERN VISAYAS,ILOILO,Iloilo City,"corner E.Lopez-Javellana St., Bgy San Jose, Iloilo City",PVT,RENAL SPECIALTY INC.,16,Dr. Rey Isidto,9190659747/033-3233820,"Jan. 1, 2022 to Dec. 31, 2024"
REGION 6,WESTERN VISAYAS,ILOILO,Iloilo City,"Lopez Jaenaa, East Baluarte, Iloilo City, Iloilo",PVT,The USWAG ILOILO DIALYSIS CENTER ,3,Dr. Marie Hazel Ivy Mueño,033-3325593,"Dec. 10, 2021 to Dec. 31, 2023"
REGION 6,WESTERN VISAYAS,ILOILO,Passi City,"3rd Floor, R&T Bldg., Corner Commonwealth Drive & Simeon Aguilar St., Poblacion Ilawod, Passi City, Iloilo",PVT,FRONTHUB DIALYSIS CENTER ,10,Dr. Annia Rae Nicolasora,033-5022049 / 09255223396,"July 22, 2021 to Dec. 31, 2023"
REGION 6,WESTERN VISAYAS,CAPIZ,Roxas City,"Tambis St., Brgy. Tiza, Roxas City, Capiz",PVT,D & E DIALYSIS CENTER,6,Marie Hazel Ivy Mirasol Mueño,036-6205639,"Jan. 1, 2021 to Dec. 31, 2023"
REGION 6,WESTERN VISAYAS,CAPIZ,Roxas City,"Arnaldo Boulevard, Brgy. Baybay, Roxas City, Capiz",PVT,PHOENICIAN DIALYSIS CENTERS ,10,Dr. Marianne Diaz-Belonio,036-5201455/09177010090,"May 24, 2021 to Dec. 31, 2023"
REGION 6,WESTERN VISAYAS,NEGROS OCCIDENTAL,Bacolod City,"Tindalo-Lopez Jaena Sts., Brgy. Villamonte, Bacolod City, Negros Occidental",PVT,"M-3 DIALYSIS CENTER, INC",32,Dr. Reynold I. iledan,034-702325,"Jan. 1, 2020 to Dec. 31, 2022"
REGION 6,WESTERN VISAYAS,NEGROS OCCIDENTAL,Bacolod City,"Nord Medical Hub, BS Aquino Drive, Brgy. Villamonte, Bacolod city, Negros Occidental",PVT,"M-3 DIALYSIS CENTER, INC.",21,Dr. Reynold I. Iledan,034-4452729,"Jan. 1, 2021 to Dec. 31, 2023"
REGION 6,WESTERN VISAYAS,NEGROS OCCIDENTAL,Bacolod City,"Door 106-109, 204-207 Vecino Bldg., Lacson St., Bacolod City",PVT,"NEPHRO GROUP DIALYSIS CENTER, INC ",15,Dr. Maricris B. Araneta,9619062724,"May 5, 2021 to Dec. 31, 2023"
REGION 6,WESTERN VISAYAS,NEGROS OCCIDENTAL,Bacolod City,"3rd St. Lacson, Brgy. 17, Bacolod City, Negros Occidental",PVT,"PREMIER NEPHRO CARE SYSTEM, INC.",20,"Dr. Gil N. Octaviano, Jr., CEO",9950741374,"Oct. 7, 2020 to Dec. 31, 2022"
REGION 6,WESTERN VISAYAS,NEGROS OCCIDENTAL,Bacolod City,"3rd- Lacson St., Brgy. 17, Bacolod City, Negros Occidental",PVT,"RENAL THERAPY SOLUTIONS, INC. ",20,"Dr. Ma. Clarideth O. Guanzon, Head",0928-502-6294 / 0928-502-6294,"Nov. 18, 2021 to Dec. 31, 2023"
REGION 6,WESTERN VISAYAS,NEGROS OCCIDENTAL,Bacolod City,"SM City (South Wing), Luzuriaga St., Brgy. 12, Bacolod City, Negros Occidental",PVT,"THE RIVERSIDE MEDICAL CENTER, INC.",11,"Dr, Alvin JayD. Parreno",034-4354052/5532,"Jan 1, 2020 to Dec. 31, 2022"
REGION 6,WESTERN VISAYAS,NEGROS OCCIDENTAL,Cadiz City,"Magsaysay St, Zone 3, Cadiz City, Negros Occidental",PVT,"CADIZ DIALYSIS HUB, INC.",12,Dr. Myla Antonette King,9398958390/09082321617,"Jan.1, 2022 to Dec.31, 2024"
REGION 6,WESTERN VISAYAS,NEGROS OCCIDENTAL,Kabankalan City,"National Highway, 2014 JC, Sitio Mohon, Brgy. Binicuil, Kabankalan City, Negros Occidental",PVT,"ARCHANGEL RAPHAEL DIALYSIS CENTER, INC",6,"Dr. Jeffty Castillon, FPCP",4715007/09236328531,"Jan. 1, 2020 to Dec. 31, 2022"
REGION 6,WESTERN VISAYAS,NEGROS OCCIDENTAL,Silay City,"Unit 8, Mallery Bldg., Jalandoni, brgy. Lantad, Silay City, Negros Occidental",PVT,SILAY KIDNEY AND DIALYSIS CENTER CORP. ,12,"Dr. Ma. Estrella Ledesma, MBA",0960-8584941,"Dec. 1, 2021 to Dec. 31, 2023"
REGION 6,WESTERN VISAYAS,NEGROS OCCIDENTAL,Talisay City,"Lot 6 Nlk. 3, Miramar Subd., Zone 15, Talisay City, Negros Occidental",PVT,HMOM MEDICAL SPECIALTY CENTER,22,Mr. Reynold Wong,034-4359362/9123395867,"Jan. 1, 2021 to Dec. 31, 2023"
REGION 6,WESTERN VISAYAS,NEGROS OCCIDENTAL,Victorias City,"Montinola St., Brgy. IV, Victorias City, Negros Occidental",PVT,VICTORIAS CITY HEALTH HEMODIALYSIS CENTER ,4,Dr. Richard P. Garlitos,082-227-4422,"Nov. 18, 2021 to Dec. 31, 2023"
REGION 7,CENTRAL VISAYAS,CEBU,Cebu City,"Central Nautical Highway Jubay Liloan, Cebu",PVT,NEPHRO SPECIALIST OF LILOAN INCORPORATED ,15,Dr. Hariett Porsuelo-Torres,0927-5378901/4103427,"Mar. 31, 2021 to Dec. 31, 2023"
REGION 7,CENTRAL VISAYAS,Cebu,,"Ward 1, Poblacion, Minglanilla, Cebu",PVT,SAN LUCAS MEDICAL,16,Dr. Alvin R. Arenajo,032-2313898 / 0998-9672400,"Jan.1, 2022 to Dec.31, 2024"
REGION 7,CENTRAL VISAYAS,CEBU,Cebu City,"3rd Floor EFG Bldg., Capitol Compound, Capitol Site, Cebu City, Cebu",PVT,CEBU CFI COMMUNITY COOPERATIVE,5,Dr. Rolland Matthew L. Escoben,032-2538103,"Mar. 13, 2020 to Dec. 31, 2022"
REGION 7,CENTRAL VISAYAS,CEBU,Cebu City,"G/F CKU Bldg., J. Llorente St., Capitol Site, Cebu City",PVT,FRESENIUS KIDNEY CARE,11,"Dr. Alexander U. Tan, Jr.",032-255112,"Jan. 1, 2020 to Dec. 31, 2022"
REGION 7,CENTRAL VISAYAS,CEBU,Cebu City,"174 M.P. Yap St. Cor. M. Roa St., Capitol, Cebu City",PVT,FRESENIUS KIDNEY CARE,14,Dr. Ophelia C. Buot,032-3452857,"Jan. 1, 2020 to Dec. 31, 2022"
REGION 7,CENTRAL VISAYAS,CEBU,Cebu City,"979 V. Rama Ave., Guadalupe, Cebu City",PVT,"METRO CEBU KIDNEY DIALYSIS CENTER, INC.",15,Dr. Karen Rosario Chan-Licuanan,032-2544715/4029469,"Jan. 1, 2021 to Dec. 31, 2023"
REGION 7,CENTRAL VISAYAS,CEBU,Cebu City,"366 Orchid St., Capitol Site, Cebu City",PVT,"NEPHRO SPECIALIST OF CEBU, INC.",11,Dt. John Li,032-4154779 . 0917-3218321 /,"Jan. 1, 2020 to Dec. 31, 2022"
REGION 7,CENTRAL VISAYAS,CEBU,Cebu City,"Gen. Maxillom Ave. cor. S. Osmeña St., Cebu City",PVT,WEI RENAL CARE CLINIC,12,Dr. Alexander V. Tan,,"May 20, 2020 to Dec. 31, 2022"
REGION 7,CENTRAL VISAYAS,CEBU,Cebu City,"Gate 3 USC-Seminary School, Pope John Paul II Ave., Brgy. Luz, Cebu City",PVT,RICARDO CARDINAL VIDAL RENAL CENTER ,5,Dr. Hariett B. Porsuelo-Torres,032-2382103/09999696102,"Oct. 4, 2021 to Dec. 31, 2023"
REGION 7,CENTRAL VISAYAS,CEBU,Cebu City,"11 Gov. M. Cuenco, Kasambagan, Cebu City, Cebu",PVT,DIACARE DIALYSIS CENTER ,15,"Dr. German M. Mayo, Jr.",032-3463044,"Dec. 3, 2021 to Dec. 31, 2023"
REGION 7,CENTRAL VISAYAS,CEBU,Cebu City,"88 Gorordo Ave., Lahug, Cebu City",PVT,"STO. NIÑO DIALYSIS CENTER, INC.",24,"Dr. German M. Mayo, Jr.",032-3190354 / 0917-7002072,"Jan. 1, 2020 to Dec. 31, 2022"
REGION 7,CENTRAL VISAYAS,CEBU,Cebu City,"Unit 2, Upper Ground Floor, Leyte Loop, Cebu Business Park, Brgy. Hipodromo, Cebu City, Cebu",PVT,TDC THE DIALYSIS CO.,20,"Dr. Catherine Rose Ti, FPCP, FPSN",0917-6260909,"Jan. 1, 2022 to Dec. 31, 2024"
REGION 7,CENTRAL VISAYAS,CEBU,Lapu-Lapu City,"Nephro Specialist of Mactan Building, Marigondon, Lapu-Lapu City, Cebu",PVT,"NEPHRO SPECIALIST OF MACTAN, INC.",12,Dr. Marc Evan P. Dominguez,09063129022/ 09176220009,"Jan. 1, 2021 to Dec. 31, 2023"
REGION 7,CENTRAL VISAYAS,CEBU,Mandaue City,"Unit 102-106 G/F Arcada 5 HI-way, Tipolo, Mandaue City, Cebu",PVT,"NEPHROLOGY CENTER OF MANDAUE CITY DIALYSIS, INC.",15,DR. Minnie H. Monteclaro,032-3493998,"Jan. 1, 2022 to Dec. 31, 2024"
REGION 7,CENTRAL VISAYAS,Cebu,"Naga City, Cebu","Vicente Mendiola Center for Health, Brgy. East, Poblacion, City of Naga, Cebu",PVT,"NEPHRO SYNERGIES, INC.",15,Dr. Julius John A. Serrano,032-3451784,"Jan. 1, 2022 to Dec. 31, 2024"
REGION 7,CENTRAL VISAYAS,CEBU,Talisay City,"4th Floor, Building A, South Coast Center, South Cebu, National Highway, City of Talisay, Cebu",PVT,"CEBU KIDNEY DIALYSIS DOCTORS AND SPECIALIST, INC.",10,Dr. Julius John Serrano,032-2735156,"Jan. 1, 2020 to Dec. 31, 2022"
REGION 7,CENTRAL VISAYAS,CEBU,Talisay City,"One Stop Lagtang, Brgy. Lagtang, Talisay City`",,"RENO CARE HEMODIALYSIS CENTER OF CEBU, INC.",12,Dr. Jeanne Margaret,9752218507,"Aug. 3, 2022 to Dec. 31, 2024"
REGION 7,CENTRAL VISAYAS,BOHOL,,"CPG, Brgy. Balintawak, Talibon, Bohol",PVT,BOHOL RENAL CARE AND DIAGNOSTIC CENTER ,10,Dr. Uriel Baclayon,0995-4743977/ 0927-1522139,"April 8, 2021 to Dec. 31, 2023"
REGION 7,CENTRAL VISAYAS,BOHOL,Tagbilaran City,"117 Miguel Parras St., Poblacion III, Tagbilaran City, Bohol",PVT,TAGCOM DIALYSIS CENTER CORPORATION,4,Dr. Iris I. Gonzales,038-4112886/ 4124815,"Jan. 1, 2021 to Dec. 31, 2023"
REGION 7,CENTRAL VISAYAS,BOHOL,Tagbilaran City,"Lim Hong Kho Medical Arts & Wellness Center, 151 Celestino Gallares St., Brgy. Poblacion, Tagbilaran City, Bohol",PVT,TAN CHAY DUAN RENAL CENTER,15,Dr. Valerie Marie Sepe,0917-6570443,"Jan. 1, 2021 to Dec. 31, 2023"
REGION 7,CENTRAL VISAYAS,BOHOL,Tagbilaran City,"100-A CPG East Avenue, Poblacion 1, Tagbilaran City, Bohol",PVT,"CROSS RENAL HEALTH, INC. ",11,Dr. Maricel B. Cabagnot,0916-4503024 / 0918-6664310,"April 26, 2021 to Dec. 31, 2023"
REGION 7,CENTRAL VISAYAS,BOHOL,Tagbilaran City,"0079 Benigno Aquino Ave., Brgy. Booy, Tagbilaran City, Bohol",PVT,HEMOCARE DIALYSIS CENTER ,10,Dr. Ronald B. Sales,0912-4302934,"Sept. 24, 2021 to Dec. 31, 2023"
REGION 7,CENTRAL VISAYAS,NEGROS ORIENTAL,Dumaguete City,"The Market Place, Dumaguete Business Park, Calindagan Road, Dumaguete City, Negros Oriental",PVT,"NEPHROLOGY CENTER OF DUMAGUETE CITY DIALYSIS, INC.",15,Dr. Kenneth T. Coo,02-3767148 / 02-3767860,"Jan. 1, 2022 to Dec. 31, 2024"
REGION 8,EASTERN VISAYAS,Southern Leyte,,"Concepcion St. Zone 1, Sogod, Southern Leyte",PVT,DIVINE MERCY DIALYSIS CENTER ,8,Dr.. Garnet John D. Quirong,0917-7050097,"April 16, 2021 to Dec. 31, 2023"
REGION 8,EASTERN VISAYAS,Southern Leyte,Maasin City,"E. Cabrera Street, Tunga-tunga, Maasin City, Southern Leyte",PVT,DIOCESE OF MAASIN DIALYSIS CENTER WITH LABORATORY,8,Dr. Romina R. Sajulga,535700922/0935638944,"Jan.1, 2022 to Dec.31, 2024"
REGION 8,EASTERN VISAYAS,LEYTE,Ormoc City,"Osmeña St. cor. San Pablo, Ormoc City",PVT,FRESENIUS KIDNEY CARE,14,Dr. Mercedita V. Piamonte,053-5613023/09178094197,"Jan. 1, 2021 to Dec. 31, 2023"
REGION 8,EASTERN VISAYAS,LEYTE,Tacloban City,"Purok 4, Maharlika Highway, Brgy. 91, Abucay Road, Tacloban, Leyte",PVT,NEPHROLINE DIALYSIS CENTER,8,Dr. Joyce Rosario A. Matoza-Serna,053-8323526,"Jan. 1, 2021 to Dec. 31, 2023"
REGION 8,EASTERN VISAYAS,LEYTE,Tacloban City,"Ninoy Aquino Ave., Brgy. 92, Apitong Road, Tacloban City, Leyte",PVT,R8 H.I. DIALYSIS CENTER,10,Dr. Belen C. Diamante,53-8883318/09052198188,"Jan.1, 2022 to Dec.31, 2024"
REGION 8,EASTERN VISAYAS,LEYTE,Tacloban City,"306 Real Street, Brgy. #31, Pampango District,TAcloban City, Leyte",PVT,TACLOBAN DIALYSIS CARE INC.,15,Dr. Catherine A. Chu,053-8303386,"Jan. 1, 2020 to Dec. 31, 2022"
REGION 8,EASTERN VISAYAS,LEYTE,Tacloban City,"UCCP Compound, Real St., Brgy. 54, Tacloban City, Leyte",PVT,UNITED CHURCH OF CHRIST IN THE PHILIPPINES,5,Dr. Catherine A. Chu,053-8321169,"Jan. 1, 2022 to Dec. 31, 2024"
REGION 8,EASTERN VISAYAS,NORTHERN SAMAR,,"846 G.H. Del Pilar, Brgy. Mabolo, Catarman, Northern Samar",PVT,SUREMED DIALYSIS & URGENT CARE CENTER,10,Dr. Mel-hatra I. Arakama,9062808977,"Jan. 1, 2020 to Dec. 31, 2022"
REGION 8,EASTERN VISAYAS,EAST SAMAR,Borongan City,"Brgy. Balud, Borongan City, Eastern Samar",PVT,SAINT FRANCIS DE ASSISSI DIALYSIS CENTER,5,Dr. Johann Roselo A. Jaya,,"Jan. 22, 2021 to Dec. 31, 2023"
REGION 9,ZAMBOANGA PENINSULA,BASILAN,Isabela City,"East Side Brgy. Veterans Isabela City, Basilan",PVT,BASILAN KIDNEY CARE CENTER INC.,9,Dr. Adamier P. Abdulla,0917 2007605,"Mar. 24, 2021 to Dec. 31, 2023"
REGION 9,ZAMBOANGA PENINSULA,ZAMBOANGA DEL NORTE,Dipolog City,"Padre Ramon corner Malvar St., Brgy. Miputak Dipolog City",PVT,"DIPOLOG CITY DIALYSIS CENTER, INC.",10,Dr. Genievieve A. Doble,09484523262 / 09550564118,"Jan.1, 2022 to Dec.31, 2024"
REGION 9,ZAMBOANGA PENINSULA,ZAMBOANGA DEL SUR,Zamboanga City,"Gov. Lim Avenue Poblacion, Zamboanga City, Zamboanga del Sur",PVT,"NEPHRO ALLIANCE VENTURES, INC.",20,Dr. Adamier P. Abdulla,9177998039,"Dec. 16, 2020 to Dec. 31, 2022"
REGION 9,ZAMBOANGA PENINSULA,ZAMBOANGA DEL SUR,Pagadian City,"2/F BMD Bldg., F.S. Pajares Ave. cor. Samson St., Pagadian City, Zamboanga del Sur",PVT,"NEPHROLOGY CENTER OF PAGADIAN CITY DIALYSIS, INC.",15,Dr. Marites Dimaano-Racuya,062 2158257,"Jan. 1, 2020 to Dec. 31, 2022"
REGION 9,ZAMBOANGA PENINSULA,ZAMBOANGA DEL SUR,Zamboanga del Sur,"2/F LHB Bldg. II, Veterans Ave., Zamboanga City, Zamboanga del Sur",PVT,ZAMBOANGA DIALYSIS CENTER (BRENT) ,15,Dr. Ryan Andrew Alfonso,062-9820770/09173033029,"June 21, 2021 to Dec. 31, 2023"
REGION 9,ZAMBOANGA PENINSULA,Zamboanga del sur,Zamboanga City,"Veterance Avenue Extension, Sta. Maria Zamboanga City, Zamboanga del Sur",PVT,WEST METRO MEDICAL CENTER,12,Mr. Ramon H Diaz,(062) 991-2506,"Jan. 3, 2022 to Dec. 31, 2024"
REGION 9,ZAMBOANGA PENINSULA,ZAMBOANGA SIBUGAY,,"Magsaysay St. Poblacion Ipil, Zamboanga Sibugay",PVT,PAG-ASA DIALYSIS AND DIAGNOSTIC CENTER,3,Dr. Said J. Sahi,975403948,"Jan. 20, 2022 to Dec. 31, 2024"
REGION 9,ZAMBOANGA PENINSULA,ZAMBOANGA SIBUGAY,,"Door 10-12 Toho Center, Purok Tambis, Brgy. Zanito, Ipil, Zamboanga Sibugay",PVT,PAG-ASA DIALYSIS AND DIAGNOSTIC CENTER,10,Dr. Said J. Sahi,9178096129,"Jan. 20, 2022 to Dec. 31, 2024"
REGION 10,NORTHERN MINDANAO,BUKIDNON,Valencia City,"Purok 17-A, Sayre Highway, Hagkol Poblacion, Valencia City, Bukidnon",PVT,"NEPHROLOGY CENTER OF VALENCIA BUKIDNON DIALYSIS, INC.",10,Dr. Evelyn B. Ravelo,088-8285054,"Jan. 1, 2020 to Dec. 31, 2022"
REGION 10,NORTHERN MINDANAO,MISAMIS ORIENTAL,Cagayan de Oro City,"Zone 7, Kauswagan Highway, Carmen, Cagayan de Oro City",PVT,ARC MEDCARE SOLUTIONS AND SERVICES INC.,8,Dr. Karen G. Gonzales,09178206522/088-8593859,"Jan. 1, 2021 to Dec. 31, 2023"
REGION 10,NORTHERN MINDANAO,MISAMIS ORIENTAL,Cagayan de Oro City,"Blessed Mother College Bldg., Tiano Bros., corner Kalambaguhan St., Brgy. 14, Cagayan de Oro City, Misamis Oriental",PVT,GOLDEN KIDNEY SPECIALISTS DIALYSIS CORPORATION,27,Dr. Antonio R. Carpio,08822-8817918/09177019752/09177004390/08822-8592134,"Jan. 1, 2020 to Dec. 31, 2022"
REGION 10,NORTHERN MINDANAO,MISAMIS ORIENTAL,Cagayan de Oro City,"Militante Bldg., Lapasan Highway, Cagayan de Oro City, Misamis Oriental",PVT,NEPHROLOGY CENTER OF CAGAYAN DE ORO DIALYSIS INC.,15,Dr. Sandra P. Oliveros,8822520,"Jan. 1, 2022 to Dec. 31, 2024"
REGION 10,NORTHERN MINDANAO,MISAMIS ORIENTAL,Cagayan de Oro City,"# 88 J. Ebarle, Brgy. 30, Cagayan de Oro City, Misamis Oriental",PVT,"NORTHERN MINDANAO DIALYSIS CLINIC, INC.",9,Dr. Philip Neri O. Lazo,088-8561596/09067980959/09368225715,"Jan.1, 2022 to Dec.31, 2024"
REGION 10,NORTHERN MINDANAO,MISAMIS ORIENTAL,Cagayan d Oro City,"D9 Priderock Business Park, Gusa, Cagayan De Oro City, Misamis Oriental",PVT,SAN RAPHAEL DIALYSIS CENTER INCORPORATED,15,Dr. Murshida Alonto-Panolo,9062869839,"July 27, 2020 to Dec. 31, 2022"
REGION 10,NORTHERN MINDANAO,MISAMIS OCCIDENTAL,Ozamiz City,"2/F Graceland Regency Developers Bldg., Capistrano St., 50th Brgy., Ozamiz City, Misamis Occidental",PVT,KIDNEY CARE CENTER,10,Dr. Joemer B. Balaoro,09175268870/09173210784/088-5462384,"Jan. 1, 2022 to Dec. 31, 2024"
REGION 10,NORTHERN MINDANAO,MISAMIS OCCIDENTAL,Oroquieta City,"G/F D' Fortune Commercial Center, Independence St., Lower Lamac, Oroquieta City, Misamis Occidental",PVT,ST. THERESE DIALYSIS CENTER,12,Dr. Sheena Rose I. Buaquiña,09177270326/088-5450881/09101198584/09173208145/088-5212381/09178004981/09452250685,"Jan.1, 2022 to Dec.31, 2024"
REGION 10,NORTHERN MINDANAO,LANAO DEL NORTE,Iligan City,"CM Building, San Miguel cor. Burgos St., Brgy. Poblacion, Iligan City, Lanao del Norte",PVT,ILIGAN HEMODIALYSIS CENTER INC.,15,Dr. Nur-Hannah B. Burungawan,0917-1071680,"Mar. 13, 2020 to Dec. 31, 2022"
REGION 10,NORTHERN MINDANAO,LANAO DEL NORTE,Iligan City,"2002 G/F Frewill Bldg., Tibanga Highway, San Miguel, Iligan City, Lanao del Norte",PVT,"NEPHROLOGY CENTER OF ILIGAN DIALYSIS, INC.",15,Dr. Kathleen Joy G. Garingarao,09426500725/09273023056/2282219,"Jan. 1, 2020 to Dec. 31, 2022"
REGION 11,SOUTHERN MINDANAO,DAVAO DEL SUR,Davao City,"RAQ Bldg., Marang Rd. cor. J.P. Laurel Ave., Davao City",PVT,"DAVAO DIALYSIS CENTER, INC. ",22,"Dr. Trisha Michelle V. Manalaysay, FPCP, FPSN",0917-7002072/0917-6202570,"Aug. 17, 2021 to Dec. 31, 2023"
REGION 11,SOUTHERN MINDANAO,DAVAO DEL SUR,Davao City,"Mcarthur Highway Dumoy, Davao City, Davao Del Sur",PVT,DAVAO DOCTORS HOSPITAL (CLINICA HILARIO) INC.,14,"Mark Anthony A. Tom, MD",822264770,"Feb. 18, 2021 to Dec. 31, 2023"
REGION 11,SOUTHERN MINDANAO,DAVAO DEL SUR,Davao City,"Door 2-5 Juliana Arcade, San Pedro Extension cor. Marfori, Davao City, Davao del Sur",PVT,FRESENIUS KIDNEY CARE,11,"Dr. Jeanette Romano Ybiernas, FPCP, FPSN",222974/2917819/09156359391/09178572390,"Jan.1, 2022 to Dec.31, 2024"
REGION 11,SOUTHERN MINDANAO,DAVAO DEL SUR,Davao City,"4th Floor, Metro Davao Medicaland Research Center, Km 4. 4, J.P. Laurel Avenue, Bajada, Davao City",PVT,FRESENIUS KIDNEY CARE,21,Maria Theresa L. Bad-Ang,082-2877777 local 5500,"Feb. 18, 2020 to Dec. 31, 2022"
REGION 11,SOUTHERN MINDANAO,DAVAO DEL SUR,Davao City,"4/F Metro Davao Medical & Research Center, Km. 4, J.P. Laurel Ave., Davao Ciity",PVT,NEPHROCARE,16,Dr. Maria Theresa L. Bad-ang,0917-5174073,"Jan. 1, 2020 to Dec. 31, 2022"
REGION 11,SOUTHERN MINDANAO,DAVAO DEL SUR,Davao City,"Door No. 6, P.I. Carriedo Bldg., J. P. Laurel Avenue, Davao City",PVT,"NEPHROLOGY CENTER OF DAVAO, INC.",15,Dr. Gemma B. Tiu,082-2226802,"Jan. 1, 2022 to Dec. 31, 2024"
REGION 11,SOUTHERN MINDANAO,DAVAO DEL SUR,Davao City,"3rd Floor Beghard Bldg., Alexian Brothers Health & Wellness Center, McArthur Highway, Matina, Davao City",PVT,"NEPHROLOGY CENTER OF ALEXIUS, INC.",30,Dr. Franklin B. Guillano,082-2974355/2939605,"Jan. 1, 2021 to Dec. 31, 2023"
REGION 11,SOUTHERN MINDANAO,DAVAO DEL SUR,Davao City,"Lot 6, Blk. 14, Km. 6, C.P. Garcia Avenue, Buhangin, Davao City",PVT,"NEPHROLOGY CENTER OF BUHANGIN DAVAO, INC.",15,Dr. Mark Anthony A. Tom,082-2959193/2872036,"Jan. 1, 2021 to Dec. 31, 2023"
REGION 11,SOUTHERN MINDANAO,DAVAO DEL SUR,Davao City,"JL Building, Mintal Highway Tugbok, Davao City, Davao del Sur",PVT,NEPHROMED ASIA-DAVAO CITY MINTAL ,7,Dr. Vida Rose Danielle K. Acosta Villanueva,96772461965,"Nov. 17, 2021 to Dec. 31, 2023"
REGION 11,SOUTHERN MINDANAO,DAVAO DEL SUR,Davao City,"Ground Floor FTC Tower #1034 Mt. Apo St. Davao City, Davao Del Sur",PVT,"RENAISSANCE DIALYSIS CENTER, INC.",67,Dr. Shannon Bradley L. Co,082-2249249/0959991645,"Jan. 1, 2022 to Dec. 31, 2024"
REGION 11,SOUTHERN MINDANAO,DAVAO DEL SUR,Davao City,"RDL Bldg., F. Torres St., Davao City",PVT,VIDA DIALYSIS CENTER PHILS.,23,Dr. Maria Theresa G. Bañes,02-5550311/09258678600,"Jan. 1, 2020 to Dec. 31, 2022"
REGION 11,SOUTHERN MINDANAO,DAVAO DEL SUR,Digos City,"C & T Complex, Purok Tangigue, Doña Aurora St., Digos City, Davao Del Sur",PVT,FRSENIUS KIDNEY CARE,20,Dr. Chito Cornejo,09178228411/09213182378,"Sept. 21, 2020 to Dec. 31, 2022"
REGION 11,SOUTHERN MINDANAO,DAVAO DEL SUR,Digos City,"8002 Lapu-lapu St,Zone 1, South Digos, Digos City, Davao Del Sur",PVT,"IR3 HOSPITAL SOLUTION CONSULTANCY & PHARMACEUTICALS, INC.",20,Dr. Frank Guillano,6322676326/6321902/09079716324,"Jan. 20, 2022 to Dec. 31, 2024"
REGION 11,SOUTHERN MINDANAO,DAVAO DEL NORTE,Panabo City,"Rivera Medical Center, #7302 Brgy. San Francisco, Panabo City, Davao del Norte",PVT,"NEPHROLOGY CENTER OF PANABO CITY, INC.",15,Dr. Franklin B. Guillano,084-3092835,"Jan. 1, 2021 to Dec. 31, 2023"
REGION 11,SOUTHERN MINDANAO,DAVAO DEL NORTE,Tagum City,"Unit 1-8 CT North Commercial Building, Brgy. Apokon, Tagum City, Davao Del Norte",PVT,FRESENIUS KIDNEY CARE,20,Dr. Karen Ann B. Querequincia,084-2167926,"Jan. 1, 2020 to Dec. 31, 2022"
REGION 11,SOUTHERN MINDANAO,DAVAO DEL NORTE,Tagum City,"Apokon Road, Tagum City, Davao del Norte",PVT,K CLINIC DIALYSIS AND LABORATORY CENTER,14,Dr. Mark Anthony A. Tom,9666812280,"Jan. 1, 2021 to Dec. 31, 2023"
REGION 11,SOUTHERN MINDANAO,DAVAO DEL NORTE,Tagum City,Davao Del Norte,PVT,"NEPHROLOGY CENTER OF TAGUM CITY, INC",15,Dr. Aileen Herceda,084-6556941,"Jan.1, 2022 to Dec.31, 2024"
REGION 12,SOCCSKSARGEN,COTABATO,,"G/F CLAR Building, Caballero St., Poblacion 3, Midsayap, Cotabato",PVT,FRESENIUS KIDNEY CARE,19,Dr. Pamela B. Mamaluba,09178225838/09173216574/064-5210048/09178592883,"Jan.1, 2022 to Dec.31, 2024"
REGION 12,SOCCSKSARGEN,,Cotabato City,"2/F La Patria Bldg., Quezon Avenue, Rosary Heights 2, Cotabato City",PVT,"NEPHROTECH DIALYSIS & DIAGNOSTIC CENTER, INC.",4,Dr. Pamela B. Mamaluba,5520093/09177203693,"Jan.1, 2022 to Dec.31, 2024"
REGION 12,SOCCSKSARGEN,SULTAN KUDARAT,,"National Highway, Kolambog, Isulan Sultan Kudarat",PVT,JUAN NEPHRO DIALYSIS CENTER ,12,Dr. Demi Suzanne Dy Ong,9172007605,"June 29, 2021 to Dec. 31, 2023"
REGION 12,SOCCSKSARGEN,SULTAN KUDARAT,Tacurong City,"National Highway, Purok Rosas, Brgy. Buenaflor, Tacurong City, Sultan Kudarat",PVT,"NURSIA DIALYSIS TACURONG, INC.",18,Dr. Nenia May B. Batulayan,9988683083,"Jan. 1, 2021 to Dec. 31, 2023"
REGION 12,SOCCSKSARGEN,SOUTH COTABATO,Koronadal City,"1st Floor, UGA Bldg., General Santos Drive, Brgy. Zone 4, Koronadal City, South Cotabato",PVT,"NURSIA DIALYSIS, INC.",16,Dr. Floherna F. Diccion,083-8780448/2287618/09177227230,"Jan. 1, 2020 to Dec. 31, 2022"
REGION 12,SOCCSKSARGEN,SOUTH COTABATO,General Santos City,"Brgy. Obrero, Dadiangas North, National Highway, General Santos City",PVT,"NURSIA DIALYSIS, INC.",20,Dr. Maria Socorro Dequito-Santican,09297914589/083-5523760/083-3058047,"Jan.10, 2022 to Dec.31, 2024"
REGION 12,SOCCSKSARGEN,SOUTH COTABATO,General Santos City,"Door No. A22 ECA Bldg., National Highway, General Santos City",PVT,TUFAMATO DIALYSIS AND WELLNESS CENTER,6,Dr. Arnelia Bersales-Masendo,083-5522268/09232708394,"Jan. 1, 2021 to Dec. 31, 2023"
REGION 12,SOCCSKSARGEN,SOUTH COTABATO,General Santos City,"Quirino Avenue, Brgy. Dadiangas South, General Santos City",PVT,VIDA DIALYSIS CENTER PHILS.,20,Dr. Nenia May B. Batulayan,09258644322/083-5530561/09257990711,"Jan. 25, 2022-Dec. 31, 2024"
REGION 13,CARAGA,SURIGAO DEL NORTE,Surigao City,"Km. 4, Brgy. Luna, Surigao City, Surigao del Norte",PVT,"CARAGA RENAL CARE, INC.",13,Dr. Romina Rusillon-Sajulga,086-8260440/09305363111/09173268871/8273358/09508536424,"Jan. 1, 2022 to Dec. 31, 2024"
REGION 13,CARAGA,SURIGAO DEL SUR,,"Cantilan, Surigao Del Sur",PVT,AVITUS KIDNEY CARE AND DIALYSIS CENTER CORP. -CANTILAN ,15,Dr. Andrea Loise Gorgolon Licuan,0917 534 5111,"June 23, 2021 to Dec. 31, 2023"
REGION 13,CARAGA,AGUSAN DEL NORTE,Butuan City,"R. Calo St., Diego Silang, Butuan City, Agusan del Norte",PVT,MANUEL J. SANTOS HOSPITAL,18,Dr. Rafael B. Sy,085-3414133/2255621/3412222 loc 375,"Jan. 1, 2020 to Dec. 31, 2022"
REGION 13,CARAGA,AGUSAN DEL NORTE,Butuan City,"Butuan Medical Center, Km. 5, Purok 6, Brgy. Tiniwisan, Butuan City, Agusan del Norte",PVT,"NEPHRO SYNERGIES, INC.",8,Dr. Deanna Rae Libarios,8600-8161426,"Jan. 1, 2021 to Dec. 31, 2023"
REGION 13,CARAGA,AGUSAN DEL NORTE,Butuan City,"Units 10-15 R.C. Intino Bldg., Pareja Subd. Cor. J.C. Aquino Ave., Butuan City",PVT,"NEPHROLOGY CENTER OF CARAGA, INC.",12,Dr. Rafael Sy,085-3414488/3418488/091087112889/09559975915/09102278812,"Jan. 1, 2022 to Dec. 31, 2024"
REGION 13,CARAGA,AGUSAN DEL NORTE,Butuan City,"Km 3 Hidalgo Village, JC Aquino Ave., Libertad, Butuan City, Agusan del Norte",PVT,VIDA DIALYSIS CENTER PHILS.,18,Dr. Odilio Uy Yu,9256385050,"Jan. 1, 2020 to Dec. 31, 2022"
REGION 13,CARAGA,AGUSAN DEL SUR,,"Purok 2, Hubang, San Francisco, Agusan del Sur",PVT,VIDA DIALYSIS CENTER PHILS.,11,Dr. Floravil M. Mabras,09774307441/09258644322,"June 9, 2020 to Dec. 31, 2022"
CORDILLERA,CAR,BENGUET,,"Street Mae Bahong, Brgy. Camp Dangwa, La Trinidad, Benguet",PVT,AVITUS KIDNEY CARE AND DIALYSIS CENTER CORPORATION ,26,Dr. Kristine R. Claridad,9176537821,"Nov. 19, 2021 to Dec. 31, 2023"
CORDILLERA,CAR,BENGUET,,"Rm. 8 Benguet General Hospital, Km. 5, Pico, La Trinidad, Benguet",PVT,"BENGUET PREMIUM KIDNEY CARE CENTER, INC.",7,Dr. Josefina L. Luspian,074-6190842/09175071184,"Jan. 1, 2022 to Dec. 31, 2024"
CORDILLERA,CAR,BENGUET,,"First Floor, PHO Bldg., La Trinidada, Benguet",PVT,"BENGUET RENAL CENTER, INC.",9,Dr. Virginia G. Biteng,074-4227290/09175642230,"Jan. 1, 2020 to Dec. 31, 2022"
CORDILLERA,CAR,BENGUET,,"Lutheran Hospital Compound, Abatan, Buguias, Benguet",PVT,"ST. THERESA DIALYSIS CENTER, INC.",10,Dr. Ian Feb G. Alquiza,9778198340,"Dec. 3, 2020 to Dec. 31, 2022"
CORDILLERA,CAR,BENGUET,Baguio City,"28 Lower P. Burgos St., Sto. Niño Jesus Medical Center, Baguio City, Benguet",PVT,"ASIA NEPHROLOGY CARE, INC.",16,Dr. Josefina L. Luspian,074-4224571/09183470057,"Jan. 1, 2021 to Dec. 31, 2023"
CORDILLERA,CAR,BENGUET,Baguio City,"Unit 5, 6 & 7 Casa Vallejo, Bldg. II, Upper Session Road, Baguio City",PVT,AVITUS KIDNEY CARE AND DIALYSIS CENTER CORPORATION,13,Dr. Virginia Mangati,9176537821,"Feb. 18, 2020 to Dec. 31, 2022"
CORDILLERA,CAR,BENGUET,Baguio City,"4F CYA Centrum, Military Cut-Off, Baguio City",PVT,"B. BRAUN AVITUM PHILIPPINES, INC.",18,Dr. Ria Baby M. Requiero,632-5885668/5885600/09175153649,"Jan. 1, 2021 to Dec. 31, 2023"
CORDILLERA,CAR,BENGUET,Baguio City,"Ground Floor, Midland Courier Building, 16 Kisad Road, Baguio City",PVT,"CORDILLERA KIDNEY SPECIALISTS, INC.",15,Dr. Vivianne Untalan,074-4243484/09178680060/074-2481204/09264377485,"Jan. 1, 2022 to Dec. 31, 2024"
CORDILLERA,CAR,BENGUET,Baguio City,"Lower Ground Floor, Leonard Wood Terraces Road, Baguio City, Benguet",PVT,SAINT MARINA KIDNEY CENTER INC.,15,Dr. Rochelle marie R. Turqueza,0977-8198340,"Jan. 2, 2020 to Dec. 31, 2022"
CORDILLERA,CAR,IFUGAO,,"National Highway, Mabatobato, Lamut, Ifugao",PVT,KIANGAN MEDICAL CARE,8,Dr. Ruby Cheryl Menia,09171059360/09158436823/09667458070,"Jan. 1, 2020 to Dec. 31, 2022"
CORDILLERA,CAR,KALINGA,Tabuk City,"Kalinga Provincial Hospital, Bulanao, Tabuk City, Kalinga",PVT,"SAINT MARY KIDNEY CARE, INC.",10,Dr. Ian Feb G. Alquiza,9778298340,"Dec. 28, 2020 to Dec. 31, 2022"
CORDILLERA,CAR,ABRA,,"Capitulacion, Brgy. Calaba, Bangued, Abra",PVT,THE SHEPHERD'S PILLAR KIDNEY CARE AND DIALYSIS UNIT,14,Dr. Amor Rhea C. Quilala,074-7525863/09175023527/6146216,"Jan. 1, 2020 to Dec. 31, 2022"
NCR,METRO MANILA,,Manila,"1221 Juan Nolasco St., Tondo, Manila",PVT,"B. BRAUN AVITUM PHILS., INC.",10,Dr. Ma. Asuncion Contreras Turgano,02-2435451/5885600,"Jan.1, 2020 to Dec. 31, 2022"
NCR,METRO MANILA,,Manila,"Gat Andres Bonifacio Memorial Medical Center, #8001 Delpan St., Tondo, Manila",PVT,"B. BRAUN AVITUM PHILS., INC.",55,Dr. Florante Tuazon,09175153647/5885600/2476270,"Jan.1, 2020 to Dec. 31, 2022"
NCR,METRO MANILA,,Manila,"463 Remedios St., Malate, Manila",PVT,"HEMOTEK RENAL CENTER, INC.",16,Dr. Charito P. Malang-Consolacion,5361091 / 0917-9270114,"Jan. 1, 2021 to Dec. 31, 2023"
NCR,METRO MANILA,,Manila,"2015 Herrera St. cor. J.P. Rizal Ave., Sta. Cruz, Manila",PVT,"I.M. HEALTH MEDICAL SERVCIES AND WELLNESS CENTER, INC.",18,Dr. Ma. Lourdes Chua-Garcia,3546600/7429762/09988551748 /,"Jan. 1, 2021 to Dec. 31, 2023"
NCR,METRO MANILA,,Manila,"2355 Legarda cor. Manrique Sts., Brgy. 416, Zone 42, Sampaloc, Manila",PVT,KIDNEY LIFE SPECIALTY CLINIC AND DIALYSIS CENTER,11,Dr. Florencio T. Ong,09178016555/5863346/2304174,"Jan. 1, 2021 to Dec. 31, 2023"
NCR,METRO MANILA,,Manila,"1428 Joshua Bldg., Taft Ave., Ermita, Manila",PVT,"KIDNEYPRO DIALYSIS CENTER, INC.",12,Dr. Rachelle Reyleigh Geronimo-Duruin,85222515,"Nov. 4, 2020 to Dec. 31, 2022"
NCR,METRO MANILA,,Manila,"1567 Leon Guinto, 628 Malate, Manila",PVT,LIVEWELL DIALYSIS CENTER OF MANILA INC. ,10,Dr. Alsun Cabarles,02-4159869656/09163241371,"Dec. 7, 2021 to Dec. 31, 2023"
NCR,METRO MANILA,,Manila,"1963 Taft Avenue, Malate, Manila",PVT,"NEPHROLOGY CENTER OF MANILA, INC.",15,Dr. Christine Joy M. Aguatis,5365108-10,"Jan. 1, 2021 to Dec. 31, 2023"
NCR,METRO MANILA,,Manila,"3343 Ramon Magsaysay Boulevard, Sta. Mesa, Manila",PVT,"NEPHROLOGY CENTER OF MANILA, INC.",15,Dr. Stephanie Andres,87131166,"Jan. 1, 2022 to Dec. 31, 2024"
NCR,METRO MANILA,,Manila,"Radial Road 10, Bonifacio Drive, Port Area, Manila",PVT,PHILIPPINE RED CROSS,15,Dr. Janice Kristine D. Refe-Friolo,09165141006/ 09175019926 /,"Feb. 26, 2021 to Dec. 31, 2023"
NCR,METRO MANILA,,Manila,"1457 A. Leon Guinto St., Ermita, Manila",PVT,RENAL FRIENDLY DIALYSIS CENTER INC.,7,Dr. Myra L. Ngo,2512898/09178998331/82512198,"Jan. 8, 2020 to Dec. 31, 2022"
NCR,METRO MANILA,,Manila,"1415 M.H. Del Pilar, Brgy. 668, Zone 072, Ermita, Manila",PVT,ST. JANUARIUS RENAL HEALTHCARE CORP.,5,Dr. Rosella M. Noche,09065760309/09399059013/2311483/09154628230/82311483,"Feb. 4, 2020 to Dec. 31, 2022"
NCR,METRO MANILA,,Manila,"#975 A. Maceda St., Sampaloc, Manila",PVT,"THERAPY MANAGEMENT SERVICES PHILS., INC.",10,Dr. Michelle T. Yan-Otayco,02-5885600/09176281400/5169223/09175152631,"Jan. 1 2022 to Dec. 31, 2024"
NCR,METRO MANILA,,Caloocan City,"3rd Flr., Bldg. C, Dr. Jose N. Rodriguez Memorial Hospital, St. Joseph Ave., Tala, Caloocan City",PVT,BRIDGES DIALYSIS CENTER OF ASIA AND THE PACIFIC,12,Dr. Aina Bautista Duque,09175034838/09175034838/9861250,"Jan.1, 2020 to Dec. 31, 2022"
NCR,METRO MANILA,,Caloocan City,"522 EDSA cor. Urbano and Biglang-awa Sts., Caloocan City",PVT,"NEPHROLOGY CENTER OF CALOOCAN DIALYSIS CENTER, INC.",19,Dr. Alberto Frederick M. Celestial,02-3618484/3618283,"Jan. 1, 2022 to Dec. 31, 2024"
NCR,METRO MANILA,,Caloocan City,"G/F Leticia Bldg., 555 Gov. Recio Garcia St., Bankers Village, Quirino Highway, Caloocan City",PVT,"NEPHROLOGY CENTER OF CALOOCAN DIALYSIS CENTER, INC.",15,Dr. Nemma Neron-Evangelista,02-9618974/9618980/3512311/3767148,"Jan. 1, 2022 to Dec. 31, 2024"
NCR,METRO MANILA,,Caloocan City,"468 EDSA, Grace Park East, Brgy. 87 Caloocan City",PVT,"RENAL THERAPY SOLUTIONS, INC.",26,Dr. Ma. Angeline Ledesma Gugumba,0928-5026294,"Feb. 9, 2020 to Dec. 31, 2022"
NCR,METRO MANILA,,Caloocan City,"570 EDSA, Brgy. 95, Balintawak, Caloocan City",PVT,"ROYAL CARE DIALYSIS CENTER, INC.",18,Dr. Juliet Kaw-Navarro,9901825/8012897,"Jan. 1, 2021 to Dec. 31, 2023"
NCR,METRO MANILA,,Caloocan City,"4th Floor Araneta Square, Samson Road cor. Rizal Ave., Caloocan City",PVT,"ST. JOHN BIOCARE AND DIALYSIS CENTER FOUNDATION, INC.",25,Dr. Vimar Cruz,5683401/9620011/09279069670/0933396925,"Jan. 1, 2021 to Dec. 31, 2023"
NCR,METRO MANILA,,Caloocan City,"2nd Floor, 544 Biglang Awa St., Brgy. 95 corner EDSA, Caloocan City",PVT,"THE KIDNEYSPACE, INC.",16,Dr. Karen Ann Hernandez-Lim,09255201389/84264355,"May 26, 2020 to Dec. 31, 2022"
NCR,METRO MANILA,,Quezon City,"4th Floor GMA 7, GEMPC Bldg., 132 Timog Avenue, Brgy. Sacred Heart, Quezon City",PVT,A+ DIALYSIS CENTER,30,Dr. Josephine Go-Yap,02-922774/09178735212/632-9220779,"Jan. 1, 2021 to Dec. 31, 2023"
NCR,METRO MANILA,,Quezon City,"3rd Floor NorthRidge Plaza, 12 Congressional Ave., Proj. 8, Brgy. Toro, Tandang Sora, Quezon City",PVT,ALMAZAN RENAL CARE CENTER INC.,10,Dr. Ma. Czarlota Valdenor,3598246/09228420820/4543904,"Jan. 1, 2020 to Dec. 31, 2022"
NCR,METRO MANILA,,Quezon City,"360 Quezon Avenue, Quezon City",PVT,"B. BRAUN AVITUM PHILIPPINES, INC.",19,Dr. Melo Jane O. Paz,09175993943/5885600,"Jan. 1, 2020 to Dec. 31, 2022"
NCR,METRO MANILA,,Quezon City,"79 Scout Gandia, Brgy. Laging Handa, Quezon City",PVT,"B. BRAUN AVITUM PHILIPPINES, INC.",29,Dr. Mildred A. Tayag,83735357,"Mar. 8, 2021 to Dec. 31, 2023"
NCR,METRO MANILA,,Quezon City,"#18 Betty Go-Belmonte Drive, Kaunlaran, Cubao, Quezon City",PVT,"B. BRAUN AVITUM PHILIPPINES, INC.",15,Dr. Cher Alaine Luna-Carolino,9175093957,"Dec. 17, 2021 to Dec. 31, 2023"
NCR,METRO MANILA,,Quezon City,"77 Congressional Ave. Ext., Pasong Tamo, Quezon City",PVT,LIFEBRIDGE DIALYSIS CENTER,12,Dr. Ronald Perez,02-86359081,"Sept. 11, 2020 to Dec. 31, 2022"
NCR,METRO MANILA,,Quezon City,"1140 Quezon Ave., Paligsahan, Quezon City",PVT,CAPITOL MEDICAL CENTER,15,Dr. Ronald S. Perez,3767320/ 09175772468,"Jan. 1, 2021 to Dec. 31, 2023"
NCR,METRO MANILA,,Quezon City,"#49 Timog Avenue, South Triangle 4, Quezon City",PVT,CAREWINDS DIALYSIS CENTER CORPORATION,25,Dr. Cher Alaine Luna-Carolino,0919999899/09495031974/82552272/09175924999,"Jan. 1, 2022 to Dec. 31, 2024"
NCR,METRO MANILA,,Quezon City,"# 33 V. Luna Avenue, Pinyahan, Quezon City",PVT,"CLEARBRIDGE MEDICAL PHILIPPINES, INC.",15,Dr. Rainer Mazo,4364407/4352735/09285046969/09178616474/2833398,"Jan.1, 2020 to Dec. 31, 2022"
NCR,METRO MANILA,,Quezon City,"216 General Luis St., Novaliches Proper, Novaliches, Quezon City",PVT,D FAMILYCARE NOVALICHES INC.,12,Dr. Leda Villapando,09258197465/7517606/09209735099/09150998329/5517978,"Jan. 1, 2022 to Dec. 31, 2024"
NCR,METRO MANILA,,Quezon City,"223 Marmico Building, Katipunan Road, Quezon City",PVT,"DOLCON HEALTH CARE SERVICES, INC.",11,Dr. Roderic H. Ng,9130629/9112536/9132330/9130625/09257422268,"Jan. 1, 2022 to Dec. 31, 2024"
NCR,METRO MANILA,,Quezon City,"21 Zabarte Rd., Brgy. Kaligayahan, Novaliches, Quezon City",PVT,EASE DIALYSIS AND WELLNESS CENTER CORP.,15,Dr. Anne Rhea Selga Dacayanan,4001689,"Jan. 1, 2021 to Dec. 31, 2023"
NCR,METRO MANILA,,Quezon City,"Lower Ground Shopking By Xentromall, 170 Doña Carmen Ave., Commonwealth, Quezon City",PVT,"FMA PR1ME CARE, INC.",8,"Dr. Vicente Tanseco, III",9175643615,"Aug. 3, 2020 to Dec. 31, 2022"
NCR,METRO MANILA,,Quezon City,"Unit 028-029 & 048 A, Lower Ground Floor, New Annex Bldg., SM City, Fairview, Quezon City",PVT,FRESENIUS KIDNEY CARE,14,"Dr. Vicente Tanseco, Jr.",02-7099791/02-8919575/5882669 /,"Jan. 1, 2021 to Dec. 31, 2023"
NCR,METRO MANILA,,Quezon City,"#1026 G/F HPI Building, North EDSA, Quezon City",PVT,FRESENIUS KIDNEY CARE,14,Dr. Ian Henrick P. Cabading,9261069/9296759/8919579/86936562/09175927925/09178146022,"Jan. 1, 2022 to Dec. 31, 2024"
NCR,METRO MANILA,,Quezon City,"Diamond Arcade Building, 873 Aurora Blvd. cor. St. Mary Street, Cubao, Quezon City",PVT,FRESENIUS KIDNEY CARE,20,Dr. Layla Marie Paraiso,82933684/09175933853,"Mar. 6, 2020 to Dec. 31, 2022"
NCR,METRO MANILA,,Quezon City,"1054 E. Rodriguez Sr. Ave., Quezon City",PVT,FRESENIUS KIDNEY CARE,13,Dr. Ramon R. Mora,7213869,"Jan. 1, 2021 to Dec. 31, 2023"
NCR,METRO MANILA,,Quezon City,"118 EIP Bldg., Malakas St., Brgy. Central, Diliman, Quezon City",PVT,GP-GENESIS DIALYSIS CLINIC DIAGNOSTIC CENTER,35,Dr. Susan Añonuevo-Dela Rama,2886342 loc. 103 0917-5214941,renewal LTO (DC add-on to ASC)
NCR,METRO MANILA,,"Quezon, City","1231 Quezon Ave. cor. Jose Abad Santos St., Diliman, Quezon, City",PVT,"HEMOTEK RENAL CENTER, INC.",30,Dr. Rodellen Consignado,3328858/3328859/5240091/09088807025,"Jan. 1, 2022 to Dec. 31, 2024"
NCR,METRO MANILA,,Quezon City,"Brittany Square, Belfast Street corner Mindanao Avenue, Brgy. Pasong Putik, Fairview, Quezon City",PVT,"HEMOTEK RENAL CENTER, INC.",20,Dr. Yoradyl D. Sunga,09179270114/ 5361091 /,"Jan. 1, 2021 to Dec. 31, 2023"
NCR,METRO MANILA,,Quezon City,"2nd Flr. Left Wing, 1465 Seneca Bldg., E. Rodriguez Sr. Ave., Brgy. Kristong Hari, Quezon City",PVT,IKIDNEY CORP. ,18,Dr. Ramona Nerissa E. Lobaton,77170595/09178908654,"Jan. 1, 2022 to Dec. 31, 2024"
NCR,METRO MANILA,,Quezon City,"79 Kamagong St., Duyan-Duyan, Project 3, Quezon City",PVT,INOCENTES DIALYSIS CLINIC,8,Dr. Leona Aguilar-Agustin,4342810/7753349/2567577,"Jan.1, 2020 to Dec. 31, 2022"
NCR,METRO MANILA,,Quezon City,"Block 21 Lot 2, Don Mariano Marcos Ave., Fairview, Quezon City",PVT,JCTM KIDNEY CARE DIALYSIS CENTER,11,Dr. Catherine P. Ang,0917-16877769/ 0917-8116841 /,"Jan. 1, 2021 to Dec. 31, 2023"
NCR,METRO MANILA,,Quezon City,"3/F MC Square Bldg., 735 Mindanao Avenue, Brgy. Tandang Sora, Quezon City",PVT,MED LINE DIALYSIS CENTER,8,Dr. Ronald S. Perez,2934679/09178492407/09178908654,"Jan. 1, 2022 to Dec. 31, 2024"
NCR,METRO MANILA,,Quezon City,"AVM Bldg., 75 Regalado Ave. cor. Ipil St., North Fairview, Quezon City",PVT,MED LINE DIALYSIS CENTER,5,Dr. Janice Kristine Friolo,9178954968,"Dec. 11, 2020 to Dec. 31, 2022"
NCR,METRO MANILA,,Quezon City,"44 Holy Spirit Drive, Don Antonio Heights, 2nd District, Quezon City",PVT,NEPHROLAB CORP. ,8,Dr. Jehan Jill Llave,9178833090,"Sept. 6, 2021 to Dec. 31, 2023"
NCR,METRO MANILA,,Quezon City,"Block 87 Lot 1 Regalado Avenue, Brgy. Pasong Putik, North Fairview, Quezon City",PVT,"NEPHROLOGY CENTER OF FAIRVIEW DIALYSIS, INC.",15,Dr. Anna Lesslie C. Santamaria,09178324653/09330760236/8995621/3588144,"Jan.1, 2020 to Dec. 31, 2022"
NCR,METRO MANILA,,Quezon City,"G/F A & M Building, #9 Commonwealth Avenue, Quezon City",PVT,"NEPHROLOGY CENTER OF FAIRVIEW DIALYSIS, INC.",15,Dr. Hazel Daphine R. Niñalga,02-4424101-02,"Jan. 1, 2022 to Dec. 31, 2024"
NCR,METRO MANILA,,Quezon City,"G/F Bencom Bldg., 146 West Avenue, Brgy. Philam Homes, Quezon City",PVT,"NEPHROLOGY SERVICES PHILS., INC.",19,Dr. Alberto Frederick M. Celestial,02-9262821/4122521/3512311/3767148,"Jan. 1, 2022 to Dec. 31, 2024"
NCR,METRO MANILA,,Quezon City,"Lot 29 Blk 40 Regalado Ave., Fairview Park, Quezon City",PVT,OCTARINE DIALYSIS CENTER,8,Dr. Cherry Sevilla-Areñas,2960315/2887592/09178856285,"Jan. 1, 2022 to Dec. 31, 2024"
NCR,METRO MANILA,,Quezon City,"174 D. Tuazon St., Brgy. Maharlika, Quezon City",PVT,PENTAGON DIALYSIS CENTER CORP.,6,Dr. Mel Haltra I. Arakama,9687637/ 2116448/ 09178104842,"Jan. 1, 2021 to Dec. 31, 2023"
NCR,METRO MANILA,,Quezon City,"1163 Evamin Complex, Quirino Highway, Brgy. Kaligayahan, Novaliches, Quezon City",PVT,"PEOPLE'S CENTER FOR HEMODIALYSIS CARE, INC.",10,Dr. Vimar A. Luz,4613108,"Jan. 1, 2021 to Dec. 31, 2023"
NCR,METRO MANILA,,Quezon City,"G/F No. 99 Don Manuel Agregado St., Bgry. St. Peter, Quezon City",PVT,PROVIDENT MEDICAL HEALTH CARE & SERVICES INC.,19,Dr. Ermalyn M. Romance,02-7324557/7413408 loc 151 & 203/09338113383,"Jan. 4, 2021 to Dec. 31, 2023"
NCR,METRO MANILA,,Quezon City,"Lot 20 Block 92 Regalado Highway, Brgy. Greater Lagro, Novaliches, Quezon City",PVT,REGALADO KIDNEY CARE CENTER INC.,17,Dr. VIMAR LUZ,3767361/3727355/09369608080/09190848055,"Jan. 1, 2022 to Dec. 31, 2024"
NCR,METRO MANILA,,Quezon City,"Blk. 57 No. 150 Reynaldo St., Josefina Subdivision, Nagkaisang Nayon, Quezon City",PVT,"RENAL THERAPY SOLUTIONS, INC. ",12,Dr. Janice Kristine Refe - Friolo,0928 5026294 / 0917 3268172,"June 21, 2021 to Dec. 31, 2023"
NCR,METRO MANILA,,Quezon City,"Suite 201 Pasda Commercial Bldg., #9 cor. P. Florentino St., G. Araneta Ave., Quezon City",PVT,"ROYAL CARE DIALYSIS CENTER, INC.",10,Dr. Juliet Kaw-Navarro,02-8010995/5880200,"Jan. 3, 2020 to Dec. 31, 2022"
NCR,METRO MANILA,,Quezon City,"#5 Matulungin St., Patricia Bldg., Brgy. Central, Quezon City",PVT,SAINT MARGARET DIALYSIS AND DIAGNOSTIC CENTER ,11,Dr. Pamela Marie Imperial,0927-6269260,"Jan. 20, 2021 to Dec. 31, 2023"
NCR,METRO MANILA,,Quezon City,"22 East Ave., Biliman, Quezon City",PVT,"ST. BENEDICT DIALYSIS CENTER, INC.",24,Dr. Donna De Leon,02-3667898/09055697146,"Jan. 1, 2021 to Dec. 31, 2023"
NCR,METRO MANILA,,Quezon City,"1198 Casman Bldg., Brgy. Paligsahan, Quezon Ave., Quezon City",PVT,"ST. JOHN BIOCARE AND DIALYSIS CENTER FOUNDATION, INC.",34,Dr. Willian Gregory Rivero,9218921/5683401,"Jan. 1, 2021 to Dec. 31, 2023"
NCR,METRO MANILA,,Quezon City,"# 14 Visayas Avenue, Brgy. Vasra, Quezon City",PVT,"ST. THERESA DIALYSIS CENTER, INC.",34,Dr. J. Meinard J. Nepomuceno,02-4565160/09207090/4562255/09778198340/9214718,"Jan.1, 2020 to Dec. 31, 2022"
NCR,METRO MANILA,,Quezon City,"Blk. 83 Lot 32, Regalado Highway, North Fairview, Quezon City",PVT,"THERAPY MANAGEMENT SERVICES PHILS., INC.",21,Dr. Marie Angeline Ledesma-Gumba,02-4171297/09176281429/09185127079/82754299,"Jan.1, 2020 to Dec. 31, 2022"
NCR,METRO MANILA,,Las Piñas City,"Hi Precision Diagnostic Bldg., R3/F L2 D1, Alabang Zapote Road, Talon 2, Las Piñas City",PVT,BEST NEPHRO SPECIALIST CORPORATION,15,Dr. Margrette Ruth Bernardo,84001617,"Jan.1, 2020 to Dec. 31, 2022"
NCR,METRO MANILA,,Las Piñas City,"172 Alabang-Zapote Road, Pamplona Dos, Las Piñas City",PVT,MEDLINE DIALYSIS CENTER,5,Dr. Jose Maria P. Libo-On,09189915064/09189105689/82529601/09774269525,"Jan. 1, 2022 to Dec. 31, 2024"
NCR,METRO MANILA,,Las Piñas City,"440 Alabang Zapote Road, Talon Uno, Las Piñas City",PVT,NEPHROLOGY CENTER OF LAS PIÑAS DIALYSIS INC.,12,Dr. Vincent Paul Filio,02-8003775/8004579,"Jan. 1, 2022 to Dec. 31, 2024"
NCR,METRO MANILA,,Makati City,"8900 P. Victor St. cor. Sampaguita St., Guadalupe Nuevo, Makati City",PVT,"B. BRAUN AVITUM PHILIPPINES, INC.",21,Dr. Jose Protacio D. Marcia,5885600/8952221,"Jan.1, 2020 to Dec. 31, 2022"
NCR,METRO MANILA,,Makati City,"#10 Alfonso St. Brgy. Poblacion, Makati City",PVT,"B. BRAUN AVITUM PHILIPPINES, INC. ",15,Dr. Mildred A. Tayag,9178369676,"June 29, 2021 to Dec. 31, 2023"
NCR,METRO MANILA,,Makati City,"G/F EMF Bldg., 7426-7426 M. Santillan St. Pio del Pilar, Makati City",PVT,"CORE RENAL CENTER, INC.",21,Dr. Jose Protacio D. Marcia,8442686/9218921/8442693/7728350/09176272464,"Jan. 1, 2021 to Dec. 31, 2023"
NCR,METRO MANILA,,Makati City,"G/F, 13B Dahlia Street, Barangay Pembo, Makati City",PVT,ELITE DIALYSIS AND DIAGNOSTIC CORP.,14,Dr. Catherine P. Ang,0917-5857050 / 0942-3066837,"Jan. 3, 2020 to Dec. 31, 2022"
NCR,METRO MANILA,,Makati City,"2257 Don Chino Roces Ave. Ext., Brgy. Magallanes, Makati City",PVT,FRESENIUS KIDNEY CARE,16,Dr. Jose Maria Anson,8175791/09178029254/09178162921,"Jan. 1, 2022 to Dec. 31, 2024"
NCR,METRO MANILA,,Makati City,"2113 Dela Rosa St. Cor. Amorsolo St., Brgy. Pio del Pilar, Makati City",PVT,"HEALTHPROTECT, INC.",6,Dr. Romeo M. Cruz,02-2252468/09258604055,"Jan. 1, 2021 to Dec. 31, 2023"
NCR,METRO MANILA,,Makati City,"3rd Floor Atrium, Guadalupe Commercial Complex, EDSA, Makati City",PVT,LTA DIALYSIS CENTER,10,Dr. Jeanne Bayaca,8006301/09178152332/09976086475/8006261/09171227575,"Jan. 1, 2022 to Dec. 31, 2024"
NCR,METRO MANILA,,Makati City,"1105 Chino Roces Ave., Sta. Cruz, Makati City",PVT,"ROYAL CARE DIALYSIS CENTER, INC.",9,Dr. Renato M. Recio,8010995/8012074/8096603 /,"Jan. 1, 2021 to Dec. 31, 2023"
NCR,METRO MANILA,,Makati City,"2/F - 3/F Christine Bldg., Blk 26, Lot 12, Sampaguita St., Pembo, Makati City",PVT,VIDA DIALYSIS CENTER PHILS.,7,Dr. Jeanne B. Bayaca,87160966/09453488504/09989068061,"Jan. 1, 2022 to Dec. 31, 2024"
NCR,METRO MANILA,,Malabon City,"Cenel Place Building G/F, 239 Gen. Luna St. cor. Burgos Concepcion, District 1, Malabon City",PVT,AXCESS HEALTH CARE INC. ,14,Dr. Aurelio Pantaleon S. Reyes,9155038351,"Mar. 9, 2021 to Dec. 31, 2023"
NCR,METRO MANILA,,Malabon City,"No. 69 MCArthur Highway, Potrero, Malabon",PVT,"MEDLINE DIALYSIS AND DIAGNOSTICS, INC.",14,Dr. Rusell Villanueva,2949139/3557362/09228196428/09064867763/09433892308/3557362,"Jan. 1, 2021 to Dec. 31, 2023"
NCR,METRO MANILA,,Mandaluyong City,"SM Cherry Shaw, Shaw Blvd., Brgy. Pleasant Hills, Mandaluyong City",PVT,CARDINAL SANTOS KIDNEY CARE CENTER,13,Dr. Ofelia P. Javellana,7270001 loc 3020/7217280/6363679/7217280,"Jan.1, 2020 to Dec. 31, 2022"
NCR,METRO MANILA,,Mandaluyong City,"3rd Flr., Shaw Center Mall, 360 Shaw Blvd., corner Nueve de Febrero, Mandaluyong City",PVT,GRACE DIALYSIS CENTER,14,Dr. Maria Kristina Alolod,09228197465/5326815/5326815/86411396/09392371840/09260657370,"Jan. 1, 2022 to Dec. 31, 2024"
NCR,METRO MANILA,,Mandaluyong City,"Unit L2 201 SOHO Bldg., #748 Shaw Blvd., Greenfield District, Mandaluyong City",PVT,"HEALTH DELIVERY SYSTEM, INC. ",12,Dr. Ma. Antonieta D. Dial,9175049205,"Aug. 16, 2021 to Dec. 31, 2023"
NCR,METRO MANILA,,Mandaluyong City,"High Pointe Medical Hub, 241 Shaw Blvd., Brgy. Bagong Silang, Mandaluyong City",PVT,"HEMOTEK RENAL CENTER, INC.",14,Dr. Charito Malong-Consolacion,5361091 / 0917-9270114,"Jan. 1, 2021 to Dec. 31, 2023"
NCR,METRO MANILA,,Mandaluyong City,"G/F Eastgate Center, 169 EDSA, Highway Hills, Mandaluyong City",PVT,"NEPHRO SYSTEMS PHILS., INC.",18,Dr. Ma. Antonieta O. Dial,02-5315344/5343226,"Jan. 1, 2022 to Dec. 31, 2024"
NCR,METRO MANILA,,Mandaluyong City,"G/F Liftman Building, Jaime Cardinal Sin Ave. cor. E. dela Paz St., Brgy. Pleasant Hills, Mandaluyong City",PVT,NEPHROCARE,18,Dr. Ma. Remedios R. Caballero,8919575-79/6962659 / 8179615 fax,"Jan. 1, 2021 to Dec. 31, 2023"
NCR,METRO MANILA,,Mandaluyong City,"F. Martines St., Addition Hills, Mandaluyong City",PVT,"NEPHROLOGY BASICS DIALYSIS CENTER, INC.",11,Dr. Alwyn Johanna Calleja-Santos,6173530 / 0917-3073689 / 0917-8130342 /,"Feb. 18, 2021 to Dec. 31, 2023"
NCR,METRO MANILA,,Mandaluyong City,"1st Floor Unique International Building, 1 Cordillera Street, Brgy. Highway Hills, Mandaluyong City",PVT,NOVUS-RENALCARE ,12,Dr. Catherine P. Ang,09174085301/09778116841,"June 9, 2021 to Dec. 31, 2023"
NCR,METRO MANILA,,Mandaluyong City,"Unit 08A, G/F 500 Shaw Zentrum Mall, Shaw Boulevard, Mandaluyong City",PVT,THERAPY MANAGEMENT SERVICES PHILS. INC.,15,"Dr. Pompeyo Bautista, Jr.",02-5885698/09175152631/8952221,"Jan.1, 2020 to Dec. 31, 2022"
NCR,METRO MANILA,,Marikina City,"Unit # 101, Nodison Centre, Marcos Highway, Brgy. San Roque, Marikina City",PVT,EASTERN MARIKINA DIALYSIS CENTER,22,Dr. Rommel P. Tolentino,02-5716457,"Jan.1, 2020 to Dec. 31, 2022"
NCR,METRO MANILA,,Marikina City,"712 J.P. Rizal, Tumana, Marikina City",PVT,"KIDNEY HEALTHCARE DIALYSIS CENTER, INC.",14,Dr. Gelen Vestalez C. Umali-Sunga,09985648663 /,"Jan. 1, 2021 to Dec. 31, 2023"
NCR,METRO MANILA,,Marikina City,"182 UBM Bldg. A Bonifacio Ave., Brgy. Tañong, Marikina City",PVT,MEDFIX CARE MEDICAL HEALTH SERVICES ,8,Dr. Bienvenido Manlutac,0939 7435741,"June 10, 2021 to Dec. 31, 2023"
NCR,METRO MANILA,,Marikina City,"#33 Dragon St., San Roque, Marikina City",PVT,"ST. JOHN BIOCARE AND DIALYSIS CENTER FOUNDATION, INC.",15,Dr. Romina Jasmin Laguesma-Navarro,5716090/9218933/6335404/7234609/0927954460,"Jan. 1, 2022 to Dec. 31, 2024"
NCR,METRO MANILA,,Marikina City,"24 Bayan Bayanan Ave., Conception Uno, Marikina City",PVT,ST. JOSEF RENAL CARE FOUNDATION INC.,10,Dr. Madelaine R. Cosing,09157180547/09174732795/2535790,"Jan. 1, 2022 to Dec. 31, 2024"
NCR,METRO MANILA,,Marikina City,"Lot 2 Blk 5 JP Rizal Cor. F. Josef II St., Concepcion Uno, Marikina City",PVT,UNITED DIALYSIS AND KIDNEY CARE INC.,16,Dr. Agnes Cruz,5326871,"Jan. 1, 2022 to Dec. 31, 2024"
NCR,METRO MANILA,,Marikina City,"#6 F. Josef Araneta Subdivision, Concepcion Uno, Marikina City",PVT,UNITED DIALYSIS AND KIDNEY CARE INC.,30,Dr. Agnes T. Cruz,2413469/09463313470/09979424190,"Jan. 1, 2022 to Dec. 31, 2024"
NCR,METRO MANILA,,Muntinlupa City,"3/F South Station, Green Bldg., Filinvest Corporate City, Alabang, Muntinlupa City",PVT,"B. BRAUN AVITUM PHILIPPINES, INC.",10,Dr. Ma. Isabel De Leon Duavit,8175791/09178029254,"Jan. 1, 2022 to Dec. 31, 2024"
NCR,METRO MANILA,,Muntinlupa City,"Space # 0031 B Lower Ground Floor, Alabang Town Center, Zapote Road, Alabang, Muntinlupa City( formerly 2nd Floor)",PVT,FRESENIUS KIDNEY CARE,28,Dr. Lynn Almazan-Gomez,7723283/09778393452/87725310/88073449,"Jan. 1, 2022 to Dec. 31, 2024"
NCR,METRO MANILA,,Muntinlupa City,"2nd Level, Festival Mall, Filinvest, Alabang, Muntinlupa City",PVT,"HEMOTEK RENAL CENTER, INC.",20,Dr. Dabbie Que-Wong Hin,6593508-09/09179270114/5361091 /,"Jan. 1, 2021 to Dec. 31, 2023"
NCR,METRO MANILA,,Muntinlupa City,"Unit 4057-62 Ayala Malls, South Park, National Road, Brgy. Alabang, Muntinlupa City",PVT,MED LINE DIALYSIS CENTER,12,Dr. Ma. Melmar Anicoche,83590879/79890231/73738863/09176252049,"Jan. 1, 2022 to Dec. 31, 2024"
NCR,METRO MANILA,,Muntinlupa City,"7 Estanislao St., Lakeview Homes, Putatan, Muntinlupa City",PVT,ST. MARGARETH DIALYSIS AND BIOCARE CENTER INC.,9,Dr. Rolando Macalalag,02-8624466/09209180222/09228974574/02-8624466/09455238445,"Jan.1, 2020 to Dec. 31, 2022"
NCR,METRO MANILA,,Parañaque City,"8165 Dr. A. Santos Avenue., Barangay San Dionisio, Sucat, Parañaque City",PVT,BRIDGES DIALYSIS CENTER OF ASIA AND THE PACIFIC,12,Dr. Gingerlta Alla-Samonte,4785143/09328925058/6689278/09178255921/85671933/09173271886/85671933,"Jan. 1, 2022 to Dec. 31, 2024"
NCR,METRO MANILA,,Parañaque City,"Foundation of Our Lady of Peace Mission, Inc., Brgy. San Dionisio, Parañaque",PVT,FRESENIUS KIDNEY CARE,14,Dr. Lynn C. Almazan-Gomez,02-8919575/09179219529/09178118614/6322694,"Jan.1, 2020 to Dec. 31, 2022"
NCR,METRO MANILA,,Parañaque City,"Park & Shop Center, 8300 Dr. A. Santos Avenue cor. Sta. Rita St., BF Sucat, Parañaque City",PVT,"HEMOTEK RENAL CENTER, INC.",22,Dr. Rodellan Consignado,5361091/09157347826/8024661/8024669/09088807027,"Jan. 1, 2022 to Dec. 31, 2024"
NCR,METRO MANILA,,Parañaque City,"Unit 103 Cocolife Building, Dr. A. Santos Avenue cor. N. Lopez St., San Isidro City of Parañaque",PVT,MED LINE DIALYSIS CENTER,12,Dr. Josephine D. Sorilla,09175380231/77509745/09176273188,"Jan. 1, 2022 to Dec. 31, 2024"
NCR,METRO MANILA,,Parañaque City,"8422 Dr. A. Santos Avenue, Block 1, Lot 19, Sucat, B.F. Homes, Parañaque City",PVT,NEPHROLINK KIDNEY CARE CENTER INC.,19,Dr. Michelle T. Yan-Otayco,09177002072/09297940524/2869876,"Jan. 1, 2022 to Dec. 31, 2024"
NCR,METRO MANILA,,Parañaque City,"G/F Asiavest Bldg., Doña Soledad Ave., Better Living, Parañaque City",PVT,"NEPHROLOGY SERVICES PHILS., INC.",15,Dr. Ma. Melmar Anicoche,02-8468817/7766391/3512311/3767148/88666349,"Jan. 1, 2022 to Dec. 31, 2024"
NCR,METRO MANILA,,Parañaque City,"The Premier Medical Center, Lor 2 Amvel Business Park, Dr. A Santos Ave., Brgy. San Dionisio, Sucat Road, Parañaque City",PVT,"THE PREMIER DIALYSIS CENTER, INC.",6,"Dr. Antonio A. Carlos, Jr.",8652200 loc 321,"Jan. 1, 2021 to Dec. 31, 2023"
NCR,METRO MANILA,,Parañaque City,"Lot 3 & 7 South Luzon Expressway, Service Road, Bicutan, Parañaque City",PVT,VIDA DIALYSIS CENTER PHILS.,9,Dr. Glenn Kay V. Guce,02-5550311/8104640/09950022793,"Jan. 2, 2020 to Dec. 31, 2022"
NCR,METRO MANILA,,Parañaque City,"8206 APMC Bldg., Dr. A. Santos Ave., Brgy. San Isidro, Parañaque City",PVT,VIDA DIALYSIS CENTER PHILS.,16,Dr. Glen Rey Guce,02-5550311,"Jan. 1, 2021 to Dec. 31, 2023"
NCR,METRO MANILA,,Pasay City,"2nd Floor, Empire Center Mall, EDSA, Pasay",PVT,"I.M. HEALTH MEDICAL SERVICES AND WELLNESS CENTER, INC.",5,Dr. Pamela Marie B. Imperial,7429762/84261510/09128351331/09178713252/09989460718,"Jan. 1, 2022 to Dec. 31, 2024"
NCR,METRO MANILA,,Pasay City,"Roxas Strip Bldg., Ground Floor, Roxas Blvd. corner Derham St., Pasay City",PVT,NEPHROLOGY CENTER OF PASAY CITY DIALYSIS INC.,15,Dr. Anna Liessle Santamaria,5657240/8104990,"Jan.1, 2020 to Dec. 31, 2022"
NCR,METRO MANILA,,Pasig City,"0027 Shaw Blvd. cor. Saint Jose Maria Escriva Drive, Brgy. San Antonio, Pasig City",PVT,"HEMOTEK RENAL CENTER, INC.",20,Dr. Arlene Crosostomo,6963976/6963977/5361091 /,"Jan. 1, 2021 to Dec. 31, 2023"
NCR,METRO MANILA,,Pasig City,"Rizal Medical Center Compound, Pasig Blvd., Pasig City",PVT,"KIDNEY FOUNDATION OF THE PHILS., INC.",25,Dr. Paolo Miguel A. David,02-5714175-76 / 5713983 fax /,"Jan. 1, 2021 to Dec. 31, 2023"
NCR,METRO MANILA,,Pasig City,"2/F Armal Plaza Building, C. Raymundo, Maybunga, Pasig City",PVT,MED LINE DIALYSIS CENTER,7,Dr. Jocelyn P. Javier,0956-0780424,"Jan. 6, 2020 to Dec. 31, 2022"
NCR,METRO MANILA,,Pasig City,"58 Ortigas Avenue Extension, Rosario, Pasig City",PVT,NEPHRO ACCESS DIALYSIS CENTER,20,Dr. Karen Ann Hernandez-Lim,09175188292/09173070110/77585372,"Jan. 1, 2022 to Dec. 31, 2024"
NCR,METRO MANILA,,Pasig City,"53 Dr. Sixto Antonio Avenue, Barangay Kapasigan, Pasig City",PVT,"NEPHROLOGY CENTER OF PASIG CITY, INC.",15,Dr. Noel M. Castillo,02-6502129/3512311/3767148/85708951,"Jan. 1, 2022 to Dec. 31, 2024"
NCR,METRO MANILA,,Pasig City,"2/F Champ Bldg., Caruncho Avenue, Brgy. San Nicolas, Pasig City",PVT,PASIG CITY HEMODIALYSIS CENTER,10,Dr. Donnah Franceska G. De Leon,6427379/09153265500/09055117105,"Jan.1, 2020 to Dec. 31, 2022"
NCR,METRO MANILA,,Pasig City,"Mission Hospital 2, Km. 17, Ortigas Ave. Ext., Rosario, Pasig City",PVT,"THERAPY MANAGEMENT SERVICES PHILS., INC.",19,Dr. Kristian Anteolin Punzalan,02-5885600/6378128/09176281522,"Jan. 1, 2022 to Dec. 31, 2024"
NCR,METRO MANILA,,San Juan City,"2nd Floor, One Roxas Square F. Roxas cor. F. Blumentritt, San Juan City",PVT,MED LINE DIALYSIS CENTER,5,Dr. Josephine Dela Ysla-Sorilla,9175131451,"Oct. 22, 2020 to Dec. 31, 2022"
NCR,METRO MANILA,,Taguig City,"3rd Floor Gate 3 Plaza Mall, Juliano St. corner Lawton Avenue, Brgy. AFPOVAI, Western Bicutan, Taguig City",PVT,DIALYSIS ASIA AND PATIENT CARE CENTER INC.,14,Dr. Frederick H. Verano,87767470/09955604394/09429699912/7767470/09179636000/09179636060,"Jan. 1, 2022 to Dec. 31, 2024"
NCR,METRO MANILA,,Taguig City,"Unit 4 & 5, Hei-san Building, Bayani Road, Bonifacio Global City, Taguig",PVT,K-MATTERS TAGUIG DIALYSIS AND DIAGNOSTIC CENTER CO.,10,Dr. Agnes M. Baston,02-8446469/09062373402/09177756832/88447577/09474431322/09282940667,"Jan. 1, 2022 to Dec. 31, 2024"
NCR,METRO MANILA,,Taguig City,"#7 General A. Luna St., Brgy. Tuktukan, Taguig City",PVT,"STA. ANA DE TAGUIG DIALYSIS CENTER, INC,",15,Dr. Gjay L. Ordinal,0917-1051726 / 0917-9621163,"Jan. 1, 2021 to Dec. 31, 2023"
NCR,METRO MANILA,,Valenzuela City,"#70 MH del Pilar, Malanday, Valenzuela City",PVT,DIALYCARE HEMODIALYSIS CENTER ,12,Dr. Kristine Mae Vega-Alava,9057944561,"July 15, 2021 to Dec. 31, 2023"
NCR,METRO MANILA,,Valenzuela City,"Valenzuela City Emergency Hospital, G. Lazaro St., Dalandanan, Valenzuela City",PVT,"PREMIER 101 HEALTHCARE MANAGEMENT, INC.",15,Dr. Aurelio Pantaleon S. Reyes,02-5870551/83526000,"Jan. 1, 2021 to Dec. 31, 2023"