REGION,CHD,PROVINCE,CITY/ MUNICIPALITY,COMPLETE ADDRESS,OWNERSHIP,NAME OF FACILITY,SERVICES,CONTACT NO.,EMAIL ADDRESS,MEDICAL DIRECTOR,VALIDITY
REGION 1,ILOCOS,ILOCOS NORTE,San Nicolas,"National Highway, Brgy. 19, San Lorenzo, San Nicolas, Ilocos Norte",PVT,ILOCOS MEDICAL & HEALTH MULTI-PURPOSE COOPERATIVE,Ophthalmologic,077-7720287 / 0998-5301987,,Dr. Bienvenido D. Romero,"Jan. 1, 2023 to Dec. 31, 2025"
REGION 1,ILOCOS,LA UNION,San Fernando City,"2nd Floor Lorma Medical Center, Km. 261, North Road, Carlatan, City of San Fernando, La Union",PVT,LA UNION KIDNEY STONE AND PROSTATE CENTER INC. ,Urologic,072-7000000 loc 614 /0915-6658705,lormaluks@gmail.com,Dr. Reynaldo A. Aguinaldo,"April 6, 2021 to Dec. 31, 2023"
REGION 1,ILOCOS,LA UNION,San Fernando City,"Bethany Hospital, Inc., Widdoes ST., San Fernando City, La Union",PVT,PHILIPPINE ONCOLOGY CENTER CORPORATION,General Surgery,072-8881803,,Dr. Michelle G. Melendez,"Jan. 1, 2021 to Dec. 31, 2023"
REGION 1,ILOCOS,PANGASINAN,Alaminos City,"Quezon Avenue, Poblacion Alaminos City, Pangasinan",PVT,PANGASINAN EYE CENTER ALAMINOS,Ophthalmologic,0917-5052020,,Dr. Cheryll C. de Jesus,"Jan. 1, 2023 to Dec. 31, 2025"
REGION 1,ILOCOS,PANGASINAN,Urdaneta City,"McArthur Highway, Poblacion, Urdaneta City, Pangasinan",PVT,PANGASINAN EYE CENTER URDANETA,Ophthalmologic,075-5926155 / 0917-5052020,peec_eyecenter@yahoo.com,Dr. Junn R. Pajarillo,"Jan. 1, 2022 to Dec. 31, 2024"
REGION 1,ILOCOS,PANGASINAN,San Carlos City,"#86 Rizal Ave., San Carlos City, Pangasinan",PVT,SAN CARLOS EYE CENTER,Ophthalmologic,0925-7262439,sanchezeyecliic@yahoo.com/sancarloseyeclinic@yahoo.com,Dr. Aurio Trancy C. Sanchez,"Dec. 29, 2021 to Dec. 31, 2023"
REGION 1,ILOCOS,PANGASINAN,Malasiqui,"133 2/F Doria Bldg., Gomez, Malasiqui, Pangasinan",PVT,SINAIYAH EYE CENTER INC.,Ophthalmologic,9488283343,dblueyondered@gmail.com,Dr. Joselito Espinosa,"Jan. 1, 2022 to Dec. 31, 2024"
REGION 1,ILOCOS,PANGASINAN,Natividad,"Canarem, Natividad, Pangasinan",PVT,DR. LEO S. MANUEL EYE CARE CENTER,Ophthalmologic,,,,"Mar. 17, 2023 to Dec. 31, 2025"
REGION 1,ILOCOS,PANGASINAN,Binmaley,"Naguilayan, Binmaley, Pangasinan",PVT,ST. LUCY'S CATARACT AND LASER EYE CENTER,Ophthalmologic,(075) 543-4484 / 632-3593,,Dr. Aurora Urmaza,"Jan. 1, 2023 to Dec. 31, 2025"
REGION 1,ILOCOS,PANGASINAN,San Fabian,"Brgy. Bolasi, San Fabian, Pangasinan",PVT,"THE GUILLERMO B. DE VENECIA EYE CENTER, INC.",Ophthalmologic,075-6328763 / 0925-5217827,gigi@deseretoptical.com,Dr. Joshua Elmer Dungca,"Jan. 1, 2022 to Dec. 31, 2024"
REGION 2,CAGAYAN VALLEY,CAGAYAN,Abulung,"Calag Sur, Abulug, Cagayan",PVT,BUTALA OPHTHALMOLOGY CLINIC,Ophthalmologic,0906-2881586,alban.aloy@gmail.com / juanitabutala@yahoo.com,Dr. Juanita Aloy-Butala,"Jan. 1, 2021 to Dec. 31, 2023"
REGION 2,CAGAYAN VALLEY,CAGAYAN,Tuguegarao City,"#23 Rizal St., Centro 8, Tuguegarao City, Cagayan",PVT,EYECAN CATARACT SURGERY CENTER AND EYE CARE CLINIC,Ophthalmologic,078-3960881,eyecanthuguegarao@yahoo.com.ph,"Dr. Jose V. Corpus, Jr.","Jan. 1, 2021 to Dec. 31, 2023"
REGION 2,CAGAYAN VALLEY,CAGAYAN,Tuguegarao City,"Del Rosario St., Centro 6, Tuguegarao City, Cagayan",PVT,FAMILY EYE WELLNESS CENTER,Ophthalmologic,,,,"Jan. 1, 2023 to Dec. 31, 2025"
REGION 2,CAGAYAN VALLEY,CAGAYAN,Tuguegarao City,"Andrews Bldg., Blumentritt St., Centro 07, Tuguegarao City",PVT,NORTHWESTERN EYE CENTER,Ophthalmologic,078-8445028 / 0926-4266878,northwestern.eye@yahoo.com,Dr. David Harold Gosiengfiao,"Jan. 1, 2022 to Dec. 31, 2024"
REGION 2,CAGAYAN VALLEY,ISABELA,San Mateo,"National Highway, Brgy. 03, San Mateo, Isabela",PVT,"ISABELA EYE CENTER, INC.",Ophthalmologic,078-3232221/0917-8412592,isabelaeyecenter@gmail.com,Dr. George V. Aczon,"Nov. 16, 2021 to Dec. 31, 2023"
REGION 2,CAGAYAN VALLEY,ISABELA,Cauayan City,"National Highway, Cabatuan Rd., Brgy. San Fermin, Cauayan City, Isabela",PVT,"GLOBAL PRIME EYE CENTER, INC.",Ophthalmologic,078-3234688/ 0917-8412592,gpeceyecenter@gmail.com,Dr. Ma. Lorena Ruth G. Capinpin,"Feb. 7, 2022 to Dec. 31, 2024"
REGION 2,CAGAYAN VALLEY,ISABELA,Cauayan City,"P. Burgos St., Dist. 2, Cauayan City, Isabela",PVT,HIMACARE UROLOGY CENTER OF CAGAYAN VALLEY,Urologic (ESWL),0915-6786723 / 260-0938,uccv_online@yahoo.com,Dr. Manuel c. Hipolito,"Jan. 1, 2023 to Dec. 31, 2025"
REGION 2,CAGAYAN VALLEY,NUEVA VIZCAYA,,"Danguilan St., Brgy. Osmeña, Solano, Nueva Vizcaya",PVT,"ST. LUCY'S CATARACT & LASER EYE CENTER, INC.",Ophthalmologic,078-3920655,eyecenter98@yahoo.com,"Dr. Santiago G. Urmaza, Jr.","Jan. 1, 2021 to Dec. 31, 2023"
REGION 3,CENTRAL LUZON,BATAAN,,"27 Rizal St., Brgy. Rizal, Dinalupihan, Bataan",PVT,DINALUPIHAN AMBULATORY EYE SURGICAL CLINIC,Ophthalmologic,4814236/09064623350,daesc_siocon@yahoo.com,Dr. Jose Joel Dy. Eclarinal,"Jan. 4, 2021 to Dec. 31, 2023"
REGION 3,CENTRAL LUZON,BATAAN,Balanga City,"J.P. Rizal St., Poblacion, Balanga City, Bataan",PVT,BATAAN EYE REFERRAL CENTER,Ophthalmologic,(047) 2371693,bataaneyereferralcenter@yahoo.com,Dr. Niño Rey Flores,"Jan. 1, 2023 to Dec. 31, 2025"
REGION 3,CENTRAL LUZON,BATAAN,Balanga City,"Unit 2 & 3 RCSL Bdlg., Roman Highway, Brgy. Bagong Silang, Balanga, Bataan",PVT,BAUTISTA EYE CENTER CORP.,Ophthalmologic,,,,"Jun. 9, 2023 to Dec. 31, 2025"
REGION 3,CENTRAL LUZON,BULACAN,Malolos City,"ECO Commercial Bldg., Felipe Peralta St., McArthur Highway, Brgy. Guinhawa, Malolos City, Bulacan",PVT,"BARTIMAEUS EYE CENTER, INC.",Ophthalmologic,09209328010/09328682278/09228876587,bartimaeuseycenter@yahoo.com,Dr. Angelina B. Joson,"Jan. 1, 2022 to Dec. 31, 2024"
REGION 3,CENTRAL LUZON,BULACAN,Baliuag,"2nd floor Castro Multispecialty, Dr. Gonzales St., Tibag, Baliuag, Bulacan",PVT,BALIWAG EYE CLINIC ,Ophthalmologic,7677453/0917-3163045,baleyeclinic@gmail.com/ jonmanmd@gmail.com,"Dr. Jonathan Joseph Manue, DPBO","Feb. 16, 2021 to Dec. 31, 2023"
REGION 3,CENTRAL LUZON,BULACAN,Baliuag,"Benigno Aquino St. Ave., Bagong Nayon, Baliuag, Bulacan",PVT,HI-PRECISION DIAGNOSTICS,"General Surgery, Colorectal, Ophthalmologic, Otorhinolaryngology, Reproductive Health, Urologic Surgery",8639999 LOC 232,bdev@hi-precision.com.ph,Dr. Edhel Santiago-Tripon,"Jan. 1, 2022 to Dec. 31, 2024"
REGION 3,CENTRAL LUZON,BULACAN,Bustos,"430 Sto. Niño St., Poblacion, Bustos, Bulacan",PVT,"ST, VINCENT EYE EAR NOSE THROAT HOSPITAL, INC.","Ophthalmologic, Otorhinolaryngologic",044-7618310,stvincenteent@yahoo.com,Dr. Debbie C. Bautista,"Jan. 1, 2021 to Dec. 31, 2023"
REGION 3,CENTRAL LUZON,BULACAN,Malolos City,"McArthur Highway, Brgy. Guinhawa, Malolos City, Bulacan",PVT,"SANTOS CLINIC (MALOLOS), INC.",Opthalmologic,(044)791-1101 / 7917133 fax,santosclinic@yahoo.com,"Dr. Sabino A. Santos, Jr.","Jan. 1, 2021 to Dec. 31, 2023"
REGION 3,CENTRAL LUZON,BULACAN,Marilao,"C. Santiago St., Poblacion II, Marilao, Bulacan",PVT,MARILAO EYE CARE CENTER,"Ophthalmologic, Otorhinolaryngologic",,,,"Apr. 20, 2023 to Dec. 31, 2025"
REGION 3,CENTRAL LUZON,BULACAN,San Jose del Monte City,"SMNE AXI 101-1, The Annex SM City North EDSA, Quezon City",PVT,THE MEDICAL CITY CLINIC @ SM SAN JOSE DEL MONTE,"General Surgery, Ophthalmologic, Otorhinolaryngologic, Urologic",441-2284 441-2919 709-8175,tmccsmsjdm@themedicalcity,"Dr. Eli Florendo, MBAH, FPSO-HNS, FPSCS","Apr. 18, 2022 to Dec. 31, 2024"
REGION 3,CENTRAL LUZON,BULACAN,Sta. Maria,"546 E6 Dulong Bayan Poblacion, Sta. Maria, Bulacan",PVT,EYE CAN CATARACT SURGERY CENTER AND EYE CARE CLINIC,Ophthalmologic,,,,"Mar. 29, 2023 to Dec. 31, 2025"
REGION 3,CENTRAL LUZON,NUEVA ECIJA,Gapan,"Purok Dakong Bayan, Sto. Cristo, Gapan, Nueva Ecija",PVT,"COMMUNITY ASSISTANCE RESOURCE OUTREACH FOR LIFE (C.A.R.O.L.) FOUNDATION EYE CENTER, INC.",Ophthalmologic,0917 302 2779,caroleyecenter@gmail.com,Dr. Roel Cabigting,"Jan. 24, 2022 to Dec. 31, 2024"
REGION 3,CENTRAL LUZON,NUEVA ECIJA,Cabanatuan City,"Block 4 Lot 12 Lakewood Phase 2, Sumacab Este, Cabanatuan City, Nueva Ecija",PVT,DRS SAVE EYE CARE CENTER,Ophthalmologic,-,DrsSaveEyeCareCenter@gmail.com,Dr. Danilo A. Acuavera,"Jan. 1, 2023 to Dec. 31, 2025"
REGION 3,CENTRAL LUZON,PAMPANGA,Bacolor,"Jesus A. Datu Medical Center, Don Pablo St., San Vicente, Bacolor, Pampanga",PVT,"KAPAMPANGAN DEVELOPMENT FOUNDATION, INC., AMBULATORY SURGICAL CLINIC","General Surgery ,Ophthalmologic, Otorhinolaryngologic, Plastic & Reconstructive",(045) 4580027 0999-8847059,kdf.kapampangan@gmail.com,Dr. Michael Sison,"Jan. 1, 2023 to Dec. 31, 2025"
REGION 3,CENTRAL LUZON,PAMPANGA,Angeles City,"Accumed Building 2442 Sto. Entierro St. Sta. Cristo Angeles City, Pampanga",PVT,"ACCUMED ADVANCED REPRODUCTIVE TECHNOLOGY (ACCU-ART), INC.",Reproductive,0917-1329442,accuartangeles@gmail.com,Maria Victoria R. Tan,"Jan. 1, 2023 to Dec. 31, 2025"
REGION 3,CENTRAL LUZON,PAMPANGA,Angeles City,"066 Mac Arthur, Virgen Delos Remedios Angeles City, Pampanga",PVT,"CLINICA HENSON EYE EAR NOSE THROAT FOUNDATION, INC.","Oral-Maxillo-Facial,",0943-4339679,clinicahenzon_eent@yahoo.com,Dr. Ruben Emil Henson,"Jan. 10, 2022 to Dec. 31, 2024"
,,,,,,,"Ophthalmologic,",,,,
,,,,,,,Otorhinolaryngologic,,,,
REGION 3,CENTRAL LUZON,PAMPANGA,Angeles City,"Lot 67, Block 37, T. Claudio St., Cor. McArthur Highway Lourdes Sur East, Angeles City, Pampanga",PVT,COSY ASSISTED REPRODUCTIVE TECH. CENTER CORPORATION ,Reproductive Health,0925-8167179,csfcandivfcenter@gmail. Com,Dr. George Sy,"Dec. 15, 2021 to Dec. 31, 2023"
REGION 3,CENTRAL LUZON,PAMPANGA,Angeles City,"Joy Luck Bldg. I, McArthur Hhighway, Balibago, Angeles City",PVT,MH CHUA EYE CENTER,Ophthalmologic,9175251476,chuaeyecenter@gmail.com,Dr. Jocel L. Chua,"Jan. 10, 2022 to Dec. 31, 2024"
REGION 3,CENTRAL LUZON,PAMPANGA,City of San Fernando,"Km. McArthur Highway, Greenfield Square, Brgy. Sindalan, City of San Fernando, Pampanga",PVT,"CENTER FOR UROLOGIC HEALTH, INC.",Urologic,(045) 8603795 / 0905-4085483,,Dr. Anthony Dexter G. Griño,"Jan. 1, 2023 to Dec. 31, 2025"
REGION 3,CENTRAL LUZON,PAMPANGA,City of San Fernando,"Mother Teresa of Calcutta Medical Center, McArthur Highway, Brgy. Maimpis, City of San Fernando, Pampanga",PVT,"CENTRAL LUZON INTEGRATED ONCOLOGY CENTER, INC.",General Surgery,917 899 6626,,Dr. Jerome R. Maule,"Jan. 1, 2021 to Dec. 31, 2023"
REGION 3,CENTRAL LUZON,PAMPANGA,City of San Fernando,"2nd Level Starmill Pampanga, San Jose, City of San Fernando, Pampanga",PVT,I.E.C. EYE CENTER,Ophthalmologic,(045) 6360023,internationaleyecenter@yahoo.com,Dr. Joel Y. Carreon,"Jan. 1, 2023 to Dec. 31, 2025"
REGION 3,CENTRAL LUZON,PAMPANGA,City of San Fernando,"Gemsville Subd., Olongapo-Gapan Road, Brgy. Dolores, City of San Fernando, Pampanga",PVT,"KAPAMPANGAN DEVELOPMENT FOUNDATION, INC.","Ophthalmologic, Plastic & Reconstructive",(045) 4580027 / 0917-5628673,,Dr. Michael Dominic Sison,"Jan. 1, 2021 to Dec. 31, 2023"
REGION 3,CENTRAL LUZON,TARLAC,Paniqui,"# 167 M.H. Del PIlar St. Poblacion Norte, Paniqui Tarlac",PVT,CHU EYE CARE CENTER ,Ophthallologic,045-4708260,chueyecarecenter@gmail.com,Dr. Cesar M. Chu,"July 16, 2021 to Dec. 31, 2023"
REGION 3,CENTRAL LUZON,TARLAC,Concepcion,"F. Timbol, San Nicoals. Poblacion, Concepcion, Tarlac",PVT,STA. LUCIA EYE CENTER AND MULTI-SPECIALTY CLINIC,"General Surgery, Ophthalmologic, Otolryngologc",0917 5426178,stalucia2011@yahoo.com,Dr. Darwin Castro Suarez,"Jan. 1, 2022 to Dec. 31, 2024"
REGION 3,CENTRAL LUZON,TARLAC,Concepcion,"L. Cortes cor. Plaridel St., San Nicolas, Concepcion, Tarlac",PVT,"DR. ZEN HEALTHCARE, INC.","General Surgery, Ophthalmologic",0950-024 4360,mhctarlac@gmail.com,Dr. Ma. Teresa Loja,"Jan. 1, 2022 to Dec. 31, 2024"
REGION 3,CENTRAL LUZON,ZAMBALES,Olongapo City,"2nd floor AVJI Bldg. 74A 20th Street East Bajac Bajac, Olongapo City, Zambales",PVT,OLONGAPO AMBULATORY CARE MULTI-SPECIALTY CLINIC ,"General Surgery, Otorhinolaryngologic, Plastic and Reconstructive, Reproductive Health, Urologic",0917-82222877,olongapoambulatory@gmail.com,Dr. Maellen Joye A. Saldua,"July 22, 2021 to Dec. 31, 2023"
REGION 3,CENTRAL LUZON,ZAMBALES,Olongapo City,"#15154 Rizal Ave., West Tapinac, Olongapo City, Zambales",PVT,SEE ECLARINAL EYE CENTER,Opthalmologic,047-2233493,seecenter20@gmail.com,Dr. Jose Joel O. Eclarinal,"Jan. 1, 2021 to Dec. 31, 2023"
REGION 4A,CALABARZON,BATANGAS,,"National Road, Brgy, San Roque, Rosario, Batangas",PVT,"MEDICAL HEALTH EXPERTS AND ASSOCIATES, INC.","General Surgery, Orthopedic",043-7408825,medicalexperts_rrosario@yahoo.com,Dr. Aris Antonino Peña,"Jan. 1, 2021 to Dec. 31, 2023"
REGION 4A,CALABARZON,BATANGAS,Sto. Tomas,"Sierra Makiling Bldg., Km 61, Maharlika Highway, San Antonio, Sto. Tomas, Batangas",PVT,SIERRA MAKILING HEALTH CORPORATION,Ophthalmologic,043-4305583,smhcorp@yahoo.com,Dr. Arniflyn Marasigan-Aguirre,"Jan. 1, 2021 to Dec. 31, 2023"
REGION 4A,CALABARZON,CAVITE,Bacoor,"Alfante Bldg., Tirona Highway, Brgy. Habay I, Bacoor, Cavite",PVT,FORSIGHT EYE CENTER,Ophthalmologic,,,,"Apr. 19, 2023 to Dec. 31, 2025"
REGION 4A,CALABARZON,CAVITE,Tanza,"20/20 Bldg., #240 Soriano Highway, Daang Amaya 3, Tanza, Cavite",PVT,IDOC AMBULATORY EYE CARE CLINIC ,Ophthalmologic,0917-5514207/ 0975-3003728,idocaec2020@gmail.com,Dr. Philip Cesar A. Arayata,"Jan. 30, 2021 to Dec. 31, 2023"
REGION 4A,CALABARZON,CAVITE,Dasmariñas City,"De La Salle University Medical Center (DLSUMC) Compound, Gov. D. Mangubat Ave., Dasmariñas City, Cavite",PVT,PHILIPPINE ONCOLOGY CENTER CORPORATION,General Surgery,02-2832232,info.RT.lasalle@gmail.com,Dr. Vicente Francisco R. Hizon,"Jan. 1, 2021 to Dec. 31, 2023"
REGION 4A,CALABARZON,CAVITE,Dasmariñas City,"Erja Bldg., Burol 1, Congressional Road, Dasmariñas City, Cavite",PVT,"WELLCARE CLINIC & LABORATORY, INC.","General Surgery, Ophthalmologic",(046) 416-6529 / 4166530,mechelleminas@wellcareclinics.com,Dr. Inocencia Dioquino,"Jan. 1, 2021 to Dec. 31, 2023"
REGION 4A,CALABARZON,CAVITE,Imus City,"NIA Road, Brgy, Alapan 1-C, Imus City, Cavite",PVT,DIVINE GRACE MEDICAL CENTER,General Surgery,046-4584675,dgmcimus@gmail.com,Dr. Jose Ronaldo delos Santos,"Jan. 1, 2021 to Dec. 31, 2023"
REGION 4A,CALABARZON,LAGUNA,Alaminos,"360 M.H. Del Pilar St., Brgy. Poblacion, Alaminos, Laguna",PVT,SAINT ODILE SURGICENTER,"General Surgery, Ophthalmologic, Otorhinolaryngologic",049-5210764,st.odilesurgicenter@gmail.com,Dr. Jonathan G. Soriano,"Jan. 1, 2021 to Dec. 31, 2023"
REGION 4A,CALABARZON,LAGUNA,Bay,"National Highway, Brgy. Maitim, Bay, Laguna",PVT,"GLOBAL CARE CANCER INSTITUTE, INC. ","General Surgery, Thoracic",049-5028527 / 0919-0656172,compliance.gcci@outlook.com,Dr. Necy S. Juat,"Dec. 14, 2021 to Dec. 31, 2023"
REGION 4A,CALABARZON,LAGUNA,Biñan City,"3/F APMWC Tower One Asia bus, Center Jubilation Loop, Sto. Niño, Biñan City, Laguna",PVT,"ASPAC EYE LASER AND SURGICENTER, INC.",Ophthalmologic,049-5135411 / 0919-0626787,Info.aspaceyelaser@gmail.com,Dr. Noel S. Cariño,"Jan. 1, 2022 to Dec. 31, 2024"
REGION 4A,CALABARZON,LAGUNA,Biñan City,"79 Gen. Malvar St., San Vicente, City of Biñan, Laguna",PVT,CORNERSTONE AMBULATORY CLINIC ,"General Surgery, Reproductive Health",049-5116068 / 0917-8374677,avalanche77ph@yahoo.com,Dr. Adrigel Ancheta,"May 4, 2021 to Dec. 31, 2023"
REGION 4A,CALABARZON,LAGUNA,Sta. Rosa City,"1898 Provincial Road, Brgy. Dita, Sta. Rosa City, Laguna",PVT,SY MEDICAL CLINIC ,Orthopedic,0917-5291262,symedicalclinic@gmail.com,Dr. Sarah Bernadette S. Sy,"July 26, 2021 to Dec. 31, 2023"
REGION 4A,CALABARZON,QUEZON,Unisan,"Ibabang Kalilangan, Unisan, Quezon",PVT,BONPEN AMBULATORY SURGICAL AND DIAGNOSTIC CENTER,"General Surgery, Ophthalmologic",042-5498547,bonpenasc@yahoo.com,Dr. Leandro E. Carillo,"Jan. 1, 2023 to Dec. 31, 2025"
REGION 4A,CALABARZON,QUEZON,Catanauan,"M.H. del Pilar St., Brgy. 08, Catanauan, Quezon",PVT,CATANAUAN EYE CARE CENTER ,Ophthalmologic,0998-5544613 / 0968-8520701,catanauaneyecenter@gmail.com,Dr. Josefina R. Calingasan,"Nov. 11, 2021 to Dec. 31, 2023"
REGION 4A,CALABARZON,QUEZON,Lucena City,"Quezon Ave. Ext., Brgy. XI, Lucena City",PVT,LUCENA EYE CENTER,Ophthalmologic,042-7105775,eyecenterlucena@gmail.com,Dr. Rolando Tomas A. Correa,"Jan. 1, 2022 to Dec. 31, 2024"
REGION 4A,CALABARZON,RIZAL,Cainta,"Basement Level, Phase II, Sta. Lucia East Grand Mall, Marcos Highway cor. Felix Ave., Cainta, Rizal",PVT,STA. LUCIA HEALTH CARE CENTRE,"General Surgery, Ophthalmologic, Orthopedic, Otorhinolaryngologic, Reproductive Health",86472870/2546,staluciacares_hr@yahoo.com,Dr. Irish Cecile D. Perez,"Jan. 1, 2021 to Dec. 31, 2023"
REGION 4A,CALABARZON,RIZAL,Cainta,"G/F Sta. Lucia East Grand Mall, Marcos Highway cor. Felix Ave., Cainta, Rizal",PVT,THE MEDICAL CITY CLINIC @ MARIKINA,"General Surgery, Ophthalmologic, Orthopedic, Otolaryngologic, Pediatric, Plastic & Reconstructive, Reproductive Health, Urologic",6825239/8356862 loc. 7121-7125,tmcstalucia@themedicalcity.com,Dr. Melani H. Sionzon,"Jan. 1, 2023 to Dec. 31, 2025"
REGION 4A,CALABARZON,RIZAL,San Mateo,"#76 Gen. Luna St., Ampid II, San Mateo, Rizal",PVT,CLINICA CRISTI-CATALUÑA,"General Surgery, Ophthalmologic, Otorhinolaryngologic",7971-1510/ 0917-8651510,clinicacristi@yahoo.com,Dr. Maria Isabel C. Cataluña,"Jan. 1, 2022 to Dec. 31, 2024"
REGION 4A,CALABARZON,RIZAL,San Mateo,"Unit 311-312 SM City San Mateo, Brgy. Ampid I, San Mateo, Rizal",PVT,NOVAGEN EYE CENTER CO.,Ophthalmologic,02-86560730,info@afordablecataract.com,Dr. Erwin D. Palisoc,"Jan. 1, 2021 to Dec. 31, 2023"
REGION 4A,CALABARZON,RIZAL,Antipolo City,"A-212 Upper Ground Al Fresco Robinsons Place Antipolo, Sumulong Highway, Antipolo City, Rizal",PVT,UNITED GLOBAL SPECIALTY CENTER CORPORATION,"General Surgery, Ophthalmologic, Otorhinolaryngologic",02-76225504 / 0917-8290507,unitedglobalspecialty@yahoo.com,Dr. Elmer S. Espino,"Jan. 1, 2021 to Dec. 31, 2023"
REGION 4B,MIMAROPA,,San Jose,"P. Burgos St., Pag-asa, San Jose, Occidental Mindoro",PVT,SALCEDO MEDICAL - SURGICAL CLINIC,"Colorectal, General Surgery",(043) 457-0108,,Dr. Levilester B. Salcedo,"Jan. 1, 2022 to Dec. 31, 2025"
REGION 4B,MIMAROPA,,Puerto Prinsesa City,"A.T.O. Plaza Bldg., National Highway, San Pedro, Puerto Princesa City, Palawan",PVT,PALAWAN EYE CENTER,"General Surgery, Ophthalmologic, Reproductive Health, Urologic",0906 346 8475,palawaneye@gmail.com,Dr. Jesus N. Ong,"Jan. 1, 2022 to Dec. 31, 2024"
REGION 5,BICOL,ALBAY,Legaspi City,"Landco Business Park, Capantawan, Legaspi City, Albay",PVT,"LECEYEMED, INC.",Ophthalmologic,0908-8981200,legazpieye@gmail.com,Dr. Rollo Milante,"Jan. 1, 2022 to Dec. 31, 2024"
REGION 5,BICOL,CAMARINES SUR,Naga City,"Unit 1, NICC Bldg., Roxas Ave., Diversion road, Triangulo, Naga City",PVT,"BICOL STONE CENTER, INC.",Urologic - Lithotripsy (ESWL),(054) 871 3046,bicolstonecenter@gmail.com,Dr. Rosito T. Bascuña,"Jan. 1, 2022 to Dec. 31, 2025"
REGION 5,BICOL,CAMARINES SUR,Naga City,"Door C. Yorktown Panganiban Drive Tinago Naga City, Camarines Sur",PVT,BICOL WOUND CARE AND AMBULATORY SURGERY,General Surgery,9955102426,,Dr. Giovanni Getulio Zanarosa,"Dec. 7, 2022 to Dec. 31, 2024"
REGION 5,BICOL,CATANDUANES,Virac,"Rizal Ave., Gogon, Sirangan, Virac, Catanduanes",PVT,CATANDUANES EYE CENTER,Ophthalmologic,0999-4347370,catanduanesayecenter97@gmail.com,Dr. Joselito D.C. Urgel,"Jan. 1, 2022 to Dec. 31, 2024"
REGION 6,WESTERN VISAYAS,CAPIZ,Roxas City,"G/F Adame Bldg., Arnaldo Blvd., Roxas City, Capiz",PVT,AGUIRRE EYE & ENT SPECIALIST,Ophthalmologic,036-5206415/09176543042,aguirreeent@yahoo.com,Dr. Dennis T. Aguirre,"Jan. 1, 2022 to Dec. 31, 2024"
REGION 6,WESTERN VISAYAS,ILOILO,Iloilo City,"Unit 827 Second floor, Festive Walk Mall, iloilo City, Iloilo",PVT,BOROUGH LASIK CENTER,Ophthalmologic,9177916914,may.cagulada@boroughsight.com,Dr. Nathaniel Chan,"Jan. 1, 2022 to Dec. 31, 2025"
REGION 6,WESTERN VISAYAS,ILOILO,Iloilo City,"8/F Health Partners Condo. Clinics, Benigno Aquino Ave., San Rafael, Mandurriao, Iloilo City",PVT,MEDICUS AMBULATORY HEALTHCARE CENTER,"Colorectal, General Surgery, Ophthalmologic, Oral & Maxillo Facial, Orthopedic, Otolaryngologic, Pediatric, Plastic & Reconstructive, Reproductive Health, Thoracic, Urologic",(033) 508-5488,,Dr. Jaime M. Manila,"Jan. 1, 2022 to Dec. 31, 2025"
REGION 6,WESTERN VISAYAS,ILOILO,Iloilo City,"G/F EFB Block, Jalandoni St., Jaro, Iloilo City",PVT,MIDWEST UROLOGY AND STONE CENTER,Urologic,033-3301756,midwesturologycenter@yahoo.com,Dr. Pedro Tingson,"Jan. 1, 2023 to Dec. 31, 2025"
REGION 6,WESTERN VISAYAS,ILOILO,Iloilo City,"YGQ Bldg., Pacencia Pison Avenue, San Rafael, Mandurriao, Iloilo City",PVT,SKINETICS MEDICAL DAY SPA & SKIN CENTER,Oral & Maxillo Facial,033-3208726,skinetics_iloilo@yahoo.com,Dr. Yule G. Quiampang,"Jan. 1, 2021 to Dec. 31, 2023"
REGION 6,WESTERN VISAYAS,NEGROS OCCIDENTAL,Pulupandan,"Barrio Mabini, Crossing Pulupandan, Negros Occidental",PVT,HOLY TRINITY MEDICAL SURGICAL CLINIC,General Surgery,(034) 4761235 / 0921-6628282,drtogle@yahoo.com,Dr. Jose Tabang,"Jan. 1, 2021 to Dec. 31, 2023"
REGION 7,CENTRAL VISAYAS,CEBU,Cebu City,"10th floor, Velez Medical Arts Building, V. Ranudo St., Cogon Ramos, Cebu City",PVT,ACES LASER AND SURGICENTER,Ophthalmologic,(032) 2539327,licensecomplianceofficer@aceseye.com,Dr. Vitorio N. Cajita,"Jan. 6, 2021 to Dec. 31, 2023"
REGION 7,CENTRAL VISAYAS,CEBU,Cebu City,"Level 4, Rm 401 Robinsons Cybergate Cebu, J.Llorente St. cor. Don Gil Garcia Street, Brgy. Capitol, Cebu City, Cebu",PVT,CEBU ORTHOPAEDIC INSTITUTE COMPANY,Orthopedic,032-2392211,cebuorthoinst@gmail.com,Dr. Jose Z. Flordeliz,"Jan. 1, 2023 to Dec. 31, 2025"
REGION 7,CENTRAL VISAYAS,CEBU,Cebu City,"E. Miñosa St., Zion Center, Tigbao, Talamban, Cebu City, Cebu",PVT,"HEALTH AND LIFESTYLE TRANSFORMATION HUB (HEALTH), INC.","Colorectal, General Surgery, Ophthalmologic, Pediatric, Reproductive Health, Thoracic, Urologic",0932-3425809,health.33@gmail.com,Dr. Shawn Euclid Gandhi P. Espina,"Jan. 1, 2022 to Dec. 31, 2024"
REGION 7,CENTRAL VISAYAS,CEBU,Cebu City,"G/F JRDC Bldg., Osmena Blvd., Capitol Site, Cebu City, Cebu",PVT,"REPRO OPTIMA CENTER FOR REPRODUCTIVE HEALTH, INC.",Reproductive Health,(32) 254-6965 / 2562433 fax,info@repro-optima.com,Dr. Ma. Victoria R. Tan,"Jan. 1, 2021 to Dec. 31, 2023"
REGION 7,CENTRAL VISAYAS,CEBU,Mandaue City,"North Park, U.N. Ave. cor. Plaridel St., Alang-Alang, Mandaue City, Cebu",PVT,MAAYO MEDICAL CLINIC CORPORATION,"General Surgery, Ophthalmologic, Otorhinolaryngologic, Orthopedic, Plastic & Reconstructive, Reproductive Health, Urologic",032-8882662,QMN@maayomedical.com,Dr. Maria Carmina Joyce C. Alferez,"Jan. 1, 2021 to Dec. 31, 2023"
REGION 7,CENTRAL VISAYAS,NEGROS ORIENTAL,Dumaguete City,"Beside LP Hypermart Square, Valencia Road, Bagacay, Dumaguete City, Negros Oriental",PVT,ACES EYE REFERRAL CLINICS,Ophthalmologic,035-4222237,licensecomplianceofficer@aceeye.com,Dr. Ronald Anthony R. Medalle,"Jan. 1, 2022 to Dec. 31, 2024"
REGION 8,EASTERN VISAYAS,LEYTE,Tacloban City,"G/F WI Center, Fatima Village, Brgy. 77, Tacloban City",PVT,OUR LADY OF FATIMA EYE EAR NOSE THROAT CENTER,"Ophthalmologic, Otorhinolaryngologic",053-5231124/0276813738,,Dr. Amelia C. Reyes,"Jan. 1, 2022 to Dec. 31, 2024"
REGION 8,EASTERN VISAYAS,SOUTHERN LEYTE,Sogod,"Brgy. San Miguel, Sogod, Southern Leyte",PVT,DR. JADOC ADULT AND CHILD EYE CENTER,Ophthalmologic,0995-9143104,doc_maruja88@yahoo.com,Dr. Catalino S. Jadoc,"Feb. 26, 2021 to Dec. 31, 2023"
REGION 9,ZAMBOANGA PENINSULA,ZAMBOANGA DEL SUR,Zamboanga City,"101 San Jose Road, Zamboanga City",PVT,CASES EYE SURGI CENTER,Ophthalmologic,(062)9916790,,Dr. Ma. Antonette Cases,"Jan. 1, 2023 to Dec. 31, 2025"
REGION 9,ZAMBOANGA PENINSULA,ZAMBOANGA DEL SUR,Zamboanga City,"78 T. Claudio St., Zamboanga City",PVT,CLINICA DE ZAMBOANGA,Ophthalmologic,(062)9901405,clinicadezamboanga@yahoo.com,Dr. Francis K. Sarau,"Jan. 1, 2023 to Dec. 31, 2025"
REGION 10,NORTHERN MINDANAO,MISAMIS OCCIDENTAL,Ozamis City,"Divine Mercy Bldg., Mamingcol Highway, Ozamis City, Misamis Occidental",PVT,DR. DITCHING EYE CENTER,Ophthalmologic,0906-3375684,,Dr. Jose Gonzalo M. Ditching,"Jan. 1, 2023 to Dec. 31, 2025"
REGION 10,NORTHERN MINDANAO,MISAMIS ORIENTAL,Cagayan de Oro City,"Madonna & Child Hospital Compound., J. Serina St., Carmen, Cagayan de Oro City, Misamis Oriental",PVT,REFRACTIVE LASER AND SURGICENTER OF MINDANAO,Ophthalmologic,088-8800283/09177267098,mendieye@gmail.com,Dr. Rustan A. Hautea,"Jan. 1, 2022 to Dec. 31, 2024"
REGION 10,NORTHERN MINDANAO,MISAMIS ORIENTAL,Cagayan de Oro City,"Block 70, Lot 18, Phase I, Xavier Estates, Upper Balulang, Masterson's Ave., Cagayan de Oro City, Misamis Oriental",PVT,SKYLINE GASTROHEP ENDOSCOPY CENTER ,General Surgery,9177027756,skylinegastrohepEC@gmail.com,Dr. Maria Margaret L. Quiblat,"Dec. 16, 2021 to Dec. 31, 2023"
REGION 11,SOUTHERN MINDANAO,DAVAO DEL NORTE,Tagum City,"GCA Bldg., National Highway 54, Visayan Village, Tagum City, Davao del Norte",PVT,"TAGUM EYE SURGICENTER, INC.",Ophthalmologic,919991322/6565751/09199913522/09173016271,tagumeyesurgicenter@gmail.com,Dr. Widmark Dy,"Jan. 1, 2022 to Dece. 31, 2024"
REGION 11,SOUTHERN MINDANAO,DAVAO DEL SUR,Davao City,"Unit 1 & 2-A Bajada Plaza Building, Brgy. Paciano Bangoy, Agdao Dist, Davao city",PVT,CENTER FOR AMBULATORY SURGERY AND TOTAL MEDICAL CARE OF DAVAO (CAST-MD) INC. ,"General Surgery, Orthopedic, Otorhinolaryngologic, Plastic and Reconstructive, Reproductive Health, Thoracic, Urologic",0905-4076717,castmd.asu2020@gmail.com/darklenekatevic2015@gmail.com,Dr. Jeremiah R. Morales,"Jan. 1, 2021 to Dec. 31, 2023"
REGION 11,SOUTHERN MINDANAO,DAVAO DEL SUR,Davao City,"McArthur Highway, Dumay, Davao City",PVT,"DAVAO DOCTORS HOSPITAL (CLINICA HILARIO), INC.","General Surgery, Plastic & Reconstructive, Reproductive Health",082-2952556 / 2264770 fax,,,"Jan. 1, 2023 to Dec. 31, 2025"
REGION 11,SOUTHERN MINDANAO,DAVAO DEL SUR,Davao City,"Door #20 JJ's Commune A. Loyola St., Obrero, Davao City, Davao del sur",PVT,DAVAO EYEMDS LASER AND SURGERY CENTER,Ophthalmologic,9176223887,davaoeyemds@gmail.com,Dr. Myra Grace Villanueva,"Jan. 1, 2022 to Dece. 31, 2024"
REGION 11,SOUTHERN MINDANAO,DAVAO DEL SUR,Davao City,"Unit 101-B & 103-B, Robinsons Cybergate Davao, J.P. Laurel St., Bajada, Davao City",PVT,FAMILY EYE CARE,Ophthalmologic,287-0066 / 0917-7201685,,Dr. Manolito S. Limalima,"Jan. 1, 2021 to Dec.31, 2023"
REGION 11,SOUTHERN MINDANAO,DAVAO DEL SUR,Davao City,"G/F SPCRD Bldg., Pichon (Magallanes) cor. Ilustre Sts., Brgy. 2-A, Davao Ctiy",PVT,"FRIENDLYCARE FOUNDATION, INC.","General Surgery, Reproductive Health",082-2274247,fcfi.laboratory@gmail.com,Dr. Annabel A. Uy,"Jan. 1, 2021 to Dec. 31, 2023"
REGION 11,SOUTHERN MINDANAO,DAVAO DEL SUR,Davao City,"cor. Quirno Ave & Mayon St., Davao City",PVT,INTEGRATED CLINICS OF OTOLARYNGOLOGY - HEAD & NECK SURGERY,Otorhinolaryngologic,082-227-7343,icohscenter@yahoo.com,Dr. Gil A. Yarra,"Jan. 1, 2021 to Dec. 31, 2023"
REGION 11,SOUTHERN MINDANAO,DAVAO DEL SUR,Davao City,"53 Arellano St., Brgy. 10-A, Davao City",PVT,"LPA AMBULATORY SURGERY AND DIAGNOSTIC CENTER, INC.","General Surgery, Ophthalmologic, Otorhinolaryngologic",082-2224208 / 0922-8925031,,Dr. Luz P. Acosta,"Jan. 1, 2023 to Dec. 31, 2025"
REGION 11,SOUTHERN MINDANAO,DAVAO DEL SUR,Davao City,"Camp Sgt Quintin M Merecido, Brgy. Buhangin, Davao City, Davao Del Sur",PVT,PNP- PRO 11 AMBULATORY SURGICAL CLINIC ,General Surgery,082-2720083/0917-7175099,csqmmhospital@gmail.com,"Dr. Manuel R. Garcia, Jr.","Nov. 11, 2021 to Dec. 31, 2023"
REGION 12,SOCCSKSARGEN,NORTH COTABATO,Kabacan,"Kayaga, Kabacan, North Cotabato",PVT,DESERET AMBULATORY REFERRAL CENTER FOUNDATION INC.,Ophthalmologic,09104454812/09209091094/09266739136,deseretambulatoryrcfi@gmail.com,"Dr. Kadil M. Sinolinding, Jr.","Jan. 1, 2022 to Dec. 31, 2024"
REGION 12,SOCCSKSARGEN,SOUTH COTABATO,Gen. Santos City,"Kadulasan St., Dadiangas East, Gen. Santos City",PVT,BEACON EYE CENTER,Ophthalmologic,083-5538930,,Dr. Kent X. Wee,"Jan. 1, 2021 to Dec.31, 2023"
REGION 12,SOCCSKSARGEN,SOUTH COTABATO,Gen. Santos City,"G/F Santanna Bldg., Sanitago Blvd., Gen. Santos City",PVT,"UROLOGY CENTER OF SOCSKSARGEN, INC.",Urologic,09177064326/09177268274/083-5523489/083-5209535,shockwave_ucsi@yahoo.com.ph,Dr. Ronaldo G. Veneracion,"Jan. 1, 2022 to Dec. 31, 2024"
REGION 12,SOCCSKSARGEN,SULTAN KUDARAT,Tacurong City,"Lapu-Lapu St., Poblacion, Tacurong City, Sultan Kudarat",PVT,CABALUNA SURGICAL CENTER,"General Surgery, Ophthalmologic, Otorhinolaryngologic, Orthopedic, Reproductive Health, Thoracic, Urologic",064-5624090/09175912366/09756106508,vancabaluna@yahoo.com,Dr. Stephen Salvilla,"Jan. 1, 2022 to Dece. 31, 2024"
NCR,METRO MANILA,,Manila,"Rm. 321, GMG Bldg., 1141-1154 Pres. Quirino Ave. Extension, Paco, Manila",PVT,AVERRA MEDICAL CLINIC,Ophthalmologic,0917-8062656 / 0917-4394050,,Dr. Richard Atanis,"Jan. 1, 2023 to Dec. 31, 2025"
NCR,METRO MANILA,,Manila,"1000 Cordillera cor. Lubiran St., Bacood, Sta. Mesa, Manila",PVT,"BUDDHIST TZU CHI MEDICAL FOUNDATION PHILIPPINES, INC.",Ophthalmologic,4529820/09189332893/09190741922/09088994393,tzuchiclinicphils@gmail.com,Dr. Bernardita C. Navarro,"Jan. 1, 2022 to Dec. 31, 2024"
NCR,METRO MANILA,,Manila,"3578 Lingayen St., Brgy 605, Sta. Mesa, Manila",PVT,"CRANIO-FACIAL FOUNDATION OF THE PHILIPPINES, INC.","Plastic & Reconstructive, Oral Maxillo-Facial",714-0611 / 7168526,,Dr. Maria Redencion Bukid-Abella,"Jan. 1, 2021 to Dec. 31, 2023"
NCR,METRO MANILA,,Manila,"3/F & 4/F Ramon Magsaysay Blvd., Sta. Mesa, Manila",PVT,CVMC CLINIC AND SURGICENTER,"General Surgery, Ophthalmologic, Otorhinolaryngologic, Orthopedic",02-3106822/09065907592,cvmc.clinicsurgicenter@gmail.com,Dr. Rene Luis F. Filarca,"Jan. 1, 2022 to Dec. 31, 2024"
NCR,METRO MANILA,,Manila,"2/F BMCI Bldg., 1142 Hermosa St., Brgy. 201-A, Zone 18, Tondo, Manila",PVT,"HERMOSA SURGICAL CARE CENTER, INC.",Ophthalmologic,5541267/09454876530/0932576594/09178074611/02-86215496/09951548159,lorraine@descretoptical.com/hermosa@deseretoptical.com,Dr. Victoria Madduma,"Jan. 1, 2022 to Dec. 31, 2024"
NCR,METRO MANILA,,Manila,"1575-A Lorenzo Jr. St. cor. Rizal Ave., Sta. Cruz, Manila",PVT,"I.M. HEALTH MEDICAL SERVICES AND WELLNESS CENTER, INC.","General, Pediatric & Thoracic Surgery",7429762/85294720/09171021259,imhealthratex1@gmail.com/ascimhealth@gmail.com,Dr. Arlene C. Duque,"Jan. 1, 2022 to Dec. 31, 2024"
NCR,METRO MANILA,,Manila,"Unit 2 & 3 GKK Bldg., 1420 Sto. Sepulcro St., Paco, Manila",PVT,"LASER AESTHETICS AND VISION INSTITUTE, INC.",Ophthalmologic,02-85213303,laseraesthetic@yahoo.com,Dr. William Olalia,"Jan. 1, 2021 to Dec.31, 2023"
NCR,METRO MANILA,,Manila,"Endriga Bldg., 2270 Taft Ave., Malate, Manila",PVT,"MANILA EYE AND SURGICAL CENTER, INC.",Ophthalmologic,5221144,,Dr. Rogelio Catapang,"Jan. 1, 2023 to Dec. 31, 2025"
NCR,METRO MANILA,,Manila,"3rd Level, Pedro Gil Wing, Robinsons Plaza, Ermita, Manila",PVT,MY HEALTH CLINIC - MANILA,"Colorectal, General Surgery, Ophthalmologic, Oral Maxillo-Facial, Orthopedic, Otolaryngologic, Plastic & Reconstructive, Reproductive Health, Thoracic, Urologic",0917-8165941,,Dr. Edward Sare,"Jan. 1, 2023 to Dec. 31, 2025"
NCR,METRO MANILA,,Manila,"Unit 025 LGF SM City Manila, Concepcion cor. Arroceros & San Marcelino Sts., Manila",PVT,NOVAGEN EYE CENTER CO.,Ophthalmologic,0998-5542020 / 2443811,,Dr. Ferdinand E. Tan,"Jan. 1, 2023 to Dec. 31, 2025"
NCR,METRO MANILA,,Manila,"c/o Medical Center Manila (ManilaMed) #880 United Nations Avenue corner General Luna Street, Ermita, Manila",PVT,PHILIPPINE ONCOLOGY CENTER CORPORATION,General Surgery,02-85238131 loc 2547,info.st.manilamed@gmail.com,Dr. Vicente Francisco R. Hizon,"Jan. 1, 2021 to Dec. 31, 2023"
NCR,METRO MANILA,,Manila,"Unit A, B, C & D 2nd Floor, YKM Center, United Nations Avenue corner Alhambra Street, Brgy. 667 Zone 072, Ermita, Manila",PVT,"PREMIERE EYE DIAGNOSTIC AND TREATMENT CENTER, CORP.",Ophthalmologic,09192431592/09166492787/82828099/09283664325,eqbuagas@yahoo.com/humanresource.perc@gmail.com,Dr. Patricia M. Khu,"Jan. 1, 2022 to Dec. 31, 2024"
NCR,METRO MANILA,,Manila,"UPM-PGH Faculty Medical Arts Bldg., UP-PGH Compound, Taft Ave., Manila",PVT,HEALTHWAY QUALIMED MANILA,"Colorectal, General Surgery, Ophthalmologic, Oral Maxillo-Facial, Orthopedic, Otolaryngologic, Pediatric, Plastic & Reconstructive, Reproductive Health, Thoracic, Urologic",7080000 loc. 192 / 5754620 / fax-5161637,,,"Jan. 1, 2023 to Dec. 31, 2025"
NCR,METRO MANILA,,Manila,"2081 Pres. Quirino Ave., Pandacan, Manila",PVT,"YGEIA MEDICAL CENTER, INC.","Colorectal, General Surgery, Orthopedic, Thoracic, Urologic",562-7465 562-7464 5635456 5218777,,Dr. Roberto de Leon,"Jan. 1, 2021 to Dec. 31, 2023"
NCR,METRO MANILA,,Quezon City,"Rms. 3208 & 3219, 3/F Dialysis Center & Doctors Clinics, NKTI East Ave., Quezon City",PVT,"ASIA PACIFIC EYE CARE SPECIALISTS, INC.",Ophthalmologic,898269910,apecsmd2007@gmail.com,Dr. Daniel N. Ong,"Jan. 1, 2021 to Dec. 31, 2023"
NCR,METRO MANILA,,Quezon City,"3rd Level TF-RT-02 Paragon Place, Brgy. Batasan Hills, Quezon City",PVT,GENOVA SURGICAL CARE CO.,"General Surgery, Ophthalmologic, Otorhinolaryngologic",84423479/09989959952,,Dr. Ma. Lorena Ruth G. Capinpin,"Jan. 1, 2021 to Dec. 31, 2023"
NCR,METRO MANILA,,Quezon City,"118 Malakas, Central IV, Quezon City",PVT,GP GENESIS DIALYSIS CLINIC DIAGNOSTIC CENTER,"General Surgery, Plastic & Reconstructive",84411409,,Dr. Susan Añonuevo-Dela Rama,"Jan. 1, 2021 to Dec. 31, 2023"
NCR,METRO MANILA,,Quezon City,"5th Level, SM The Block, North EDSA, Quezon City",PVT,"HMC, INC.","Colorectal, General Surgery, Ophthalmologic, Oral & Maxillo-Facial, Orthopedic, Otorhinolaryngologic, Pediatric, Reproductive Health, Urologic, Thoracic",7206107,,Dr. Francisco Marconi Mangonon,"Jan. 1, 2023 to Dec. 31, 2025"
NCR,METRO MANILA,,Quezon City,"G/F Anita Bldg., 1300 Timog Ave. cor. Quezon Ave., South Triangle, Quezon City",PVT,"I-SIGHT VISION CENTER, INC.",Ophthalmologic,4166701/09178135190/02-77540750,admin@isight.ph,Dr. Alfred H. Tengonciang,"Jan. 1, 2022 to Dec. 31, 2024"
NCR,METRO MANILA,,Quezon City,"305 Tomas Morato cor. Sct. Madriñan Sts., South Traingle, Quezon City",PVT,"INTELLIGENT BEAUTY SKIN SOLUTIONS, INC.",Plastic & Reconstructive,736-3266 loc. 209,,Dr. Ronaldo Cayetano,"Jan. 1, 2023 to Dec. 31, 2025"
NCR,METRO MANILA,,Quezon City,"Level 2, Gateway Mall, Gen. Aguinaldo Ave., Socorro 3, Araneta City, Quezon City",PVT,KERALTY CLINIC ,"Colorectal, General Surgery, Oral Facial-Maxillo, Orthopedic, Reproductive Health, Urologic",9164596022,paouline.pena@keralty.com.ph,Jonathan Leh Dy,"Nov. 29, 2021 to Dec. 31, 2023"
NCR,METRO MANILA,,Quezon City,"11th Floor, 1616 Triumph Square Bldg., South Triangle, Quezon City",PVT,"LUMINA AESTHETIC SCIENCE, INC.",Plastic and Reconstructive Surgery,,,,"Mar. 17, 2023 to Dec. 31, 2025"
NCR,METRO MANILA,,Quezon City,"#10 15th Ave., Murphy, Cubao, Quezon City",PVT,MADRID POLYCLINIC AND DIAGNOSTIC CENTER,"Colorectal, General Surgery, Otolaryngologic, Reproductive Health, Urologic, Thoracic",912-1235 / 913-1002 911-7375 fax,madrid_polyclinic35@yahoo.com,Dr. Romulo L. Madrid,"Jan. 1, 2021 to Dec.31, 2023"
NCR,METRO MANILA,,Quezon City,"2nd Floor, Lemon Tree Inn #18 Scout Magbanua, Barangay Paligsahan, Quezon City",PVT,"MANILA LITHOTRIPTERS, INC.",Urologic,3321939,laserstonecenter@gmail.com,Dr. Julius C. Cajucom,"Mar. 3. 2023 to Dec. 31, 2025"
NCR,METRO MANILA,,Quezon City,"2nd Level Bldg. F, SM City North EDSA, Quezon City",PVT,MY HEALTH CLINIC,"Colorectal, General Surgery, Orthopedic, Otolaryngologic, Plastic & Reconstructive, Reproductive Health, Thoracic, Urologic",4414106,,Dr. Steven N. Pua,"Jan. 1, 2023 to Dec. 31, 2025"
NCR,METRO MANILA,,Quezon City,"Unit 008-009 Lower Ground Floor, New Annex Bldg., SM Fairview, Quirino Highway, Fairview, Quezon City",PVT,NOVAGEN EYE CENTER CO.,Ophthalmologic,788-2020,,Dr. Ferdinand E. Tan,"Jan. 1, 2023 to Dec. 31, 2025"
NCR,METRO MANILA,,Quezon City,"Unit 306-308 Northlink Bldg., SM North EDSA, Quezon City",PVT,"PERFECTSIGHT, INC.",Ophthalmologic,352-1620,,Dr. Marivic T. Vera Cruz,"Jan. 1, 2023 to Dec. 31, 2025"
NCR,METRO MANILA,,Quezon City,"#22 East Ave., Pinyahan, Diliman, Quezon City",PVT,PHILIPPINE BAND OF MERCY,"General Surgery, Colorectal, Ophthalmologic, Orthopedic, Pediatric, Plastic & Reconstructive, Thoracic",9205178/9288566/09328858874/09179624162,philbandofmercy@hotmail.com,Dr. Hector M. Santos,"Jan. 1, 2022 to Dec. 31, 2024"
NCR,METRO MANILA,,Quezon City,"Basement, Marian Medical Arts Bldg., Dahlia St., West Fairview, Quezon City",PVT,PHILIPPINE ONCOLOGY CENTER CORPORATION,General Surgery,3723208/9358947-49/09178566149/84295082/09176261747,infopocc@gmail.com/mye.pocc@gmail.com,Dr. Jose C. Herrera Jr.,"Jan. 1, 2022 to Dec. 31, 2024"
NCR,METRO MANILA,,Quezon City,"Bell Kenz Tower, 127 Malakas St., Brgy. Central, Quezon City",PVT,"PREMIERE ENDOSCOPY CENTER, INC.","Colorectal, General Surgery",09177141951/09178575613/09297970690/4269745/09064741687/9616447,greatathena2@gmail.com/premiereendo@gmail.com,Dr. Danilo S. Santos,"Jan. 1, 2022 to Dec. 31, 2024"
NCR,METRO MANILA,,Quezon City,"AC Bldg., #38 Sct. Ybardolaza St. cor. Sct. Rallos St., Sacred Heart, Quezon City",PVT,"RUBRICS INTERNATIONAL HEALTH SERVICES, INC.",Urologic,480-5040 929-0758,,Dr. Maria Irene Quijano,"Jan. 1, 2023 to Dec. 31, 2025"
NCR,METRO MANILA,,Quezon City,"Shopking Mall, Lower Ground Floor, Xentromed, Commonwealth Ave., Quezon City",PVT,"SPORTS SURGICENTER AND CLINIC, INC. ",General surgery,9950721000,xentromedmultispecialty@gmail.com,Dr. Alberto Ma. V. Molano,"Sept. 20, 2021 to Dec. 31, 2023"
NCR,METRO MANILA,,Quezon City,"22 East Avenue, Brgy. Pinyahan, Diliman, Quezon City",PVT,ST. PEREGRINE SURGICAL AND CANCER CENTER,"General, Opthalmologic, Otorhinolaryngologic, Orthopedic, Plastic & Reconstructive Thoracic Surgery",09177201685/5118507,susan.pagcu@peregrineeye.com/st.peregrinesurgicenter.com,Dr. Mel Anthony Y. Cruz,"Jan. 1, 2022 to Dec. 31, 2024"
NCR,METRO MANILA,,Quezon City,"SMNE AXI 101-1, The Annex SM City North EDSA, Quezon City",PVT,THE MEDICAL CITY CLINIC @ SM NORTH,"General Surgery, Ophthalmologic, Otorhinolaryngologic, Urologic",441-2284 441-2919 709-8175,,Dr. Marianne N. Almojar,"Jan. 1, 2023 to Dec. 31, 2025"
NCR,METRO MANILA,,Quezon City,"G003 Trinoma Mall, EDSA cor. North Ave., Barangay Bagong Pag-asa, Quezon City",PVT,THE MEDICAL CITY CLINIC @ TRINOMA ,"General Surgery, Otorhinolaryngologic, Urologic",79432257/09328537613,tmctrinoma@themedicalcity.com,Dr. Vincent Marcus S. Abadilla,"Dec. 22, 2021 to Dec. 31, 2023"
NCR,METRO MANILA,,Quezon City,"799 EDSA South Bound, Brgy. South Triangle, Quezon City",PVT,"VICTORIA SKIN LASER CARE CENTER, INC.","General Surgery, Ophthalmologic, Plastic & Reconstructive",8333333 loc 102,,Dr. Richard Joseph Cabotaje,"Jan. 1, 2021 to Dec. 31, 2023"
NCR,METRO MANILA,,Quezon City,"Unit 201-202, 886 G. Araneta, Brgy. Tatalon, Quezon City",PVT,WOUND CARE AND VASCULAR CENTER INCORPORATED,General Surgery,09272157970/82838589/09171555393,woundhealingmanila@gmail.com,Dr. Luinio S. Tongson,"Jan. 1, 2022 to Dec. 31, 2024"
NCR,METRO MANILA,,Quezon City,"Corporate 101 Bldg., Unit 208, 101 Mother Ignacia St. cor. Sct. Madriñan, South Triangle, Quezon City",PVT,ZI INSTITUTE OF PLASTIC SURGERY AND DERMAESTHETIC,Plastic & Reconstructive,02-83762881,zi_institute@yahoo.com,"Dr. Lutgardo C. Caparas, Jr.","Jan. 1, 2021 to Dec. 31, 2023"
NCR,METRO MANILA,,Las Piñas City,"0105A Lower Ground Floor, SM Southmall, Almanza I, Las Piñas City",PVT,"CASA MEDICA, INC.","General Surgery, Ophthalmologic, Orthopedic, Otorhinolaryngologic, Plastic & Reconstructive",8067831/8066863/09988972485,casamedicasouthmall@yahoo.com,Dr. Alvin Benjamin De Leon,"Jan. 1, 2022 to Dec. 31, 2024"
NCR,METRO MANILA,,Las Piñas City,"G/F Unimall Bldg., Alabang Zapote Road, Pamplona Tres, Las Piñas City",PVT,PERPETUAL HELP STONE AND PROSTATE CENTER,Urologic Surgery - Extracorporeal Shock Wave Lithotripsy (ESWL),19153479679/88748515 loc 722/09175232205,ishus0921@gmai.com/healthcarebyishuc@gmail.com,Dr. Benadette Marie Tamayo,"Jan. 1, 2022 to Dec. 31, 2024"
NCR,METRO MANILA,,Makati City,"8/F Centuria Medical Makati Kalayaan Ave. cor. Salamanca St. Century City, Brgy. Poblacion, Makati City",PVT,ASIAN BREAST CENTER INC.,"General Surgery, Plastic & Reconstructive",632-8630616/8630617,ask.abc@asianbreastcenter.com,Dr. Norman San Agustin,"Jan. 1, 2023 to Dec. 31, 2025"
NCR,METRO MANILA,,Makati City,"8th & 10th Floor, Phinma Plaza Bldg., Rockwell Center, Makati City",PVT,"ASIAN EYE INSTITUTE, INC.",Ophthalmologic,898-2020,,Dr. Juan R. Nañagas,"Jan. 1, 2023 to Dec. 31, 2025"
NCR,METRO MANILA,,Makati City,"Suite 1401, Medical Plaza, Amorsolo cor. Dela Rosa Sts., Legaspi Village, Makati City",PVT,"BELO MEDICAL GROUP, INC.",Plastic & Reconstructive,8179777/85395913/09178078868,dreyes@belomed.com,Dr. Philip Buñag,"Jan. 1, 2022 to Dec. 31, 2024"
NCR,METRO MANILA,,Makati City,"1 Hercules St. cor. Makati Ave., Bel-air Village, Makati City",PVT,HEALTH HUB CLINIC,"Colorectal, General Surgery, Ophthalmologic, Oral Maxillo-Facial, Orthopedic, Otorhinolaryngologic, Pediatric, Plastic & Reconstructive, Reproductive Health, Urologic",9175041483,,Dr. Judith Cabanela,"Jan. 1, 2021 to Dec. 31, 2023"
NCR,METRO MANILA,,Makati City,"4th Level, Greenbelt 5, Ayala Center, Makati City",PVT,"HMC, INC.","Colorectal, General Surgery, Ophthalmologic, Oral Maxillo-Facial, Orthopedic, Otolaryngologic, Pediatric, Plastic & Reconstructive, Reproductive Health, Urologic, Thoracic",7206109/7514929,,Dr. Marilou C. Lintag,"Jan. 1, 2021 to Dec. 31, 2023"
NCR,METRO MANILA,,Makati City,"8/F Tower I, The Enterprise Center, 6766 Ayala Ave. cor. Paseo de Roxas, Makati City",PVT,KATO REPRO BIOTECH CENTER,Reproductive Health (IVF),822-1209,,Dr. Rudie Frederick B. Mendiola,"Jan. 1, 2021 to Dec. 31, 2023"
NCR,METRO MANILA,,Makati City,"G/F Kings Court Bldg. 2, Don Chino Roces Ave., Makati City",PVT,"MEDICARD PHILIPPINES, INC.","General Surgery, Ophthalmologic, Orthopedic, Otolaryngologic, Pediatric, Plastic & Reconstructive, Reproductive Health, Urologic",02-88110390,,Dr. Catherine B. Jimenez,"Jan. 1, 2021 to Dec. 31, 2023"
NCR,METRO MANILA,,Makati City,"51 Paseo de Roxas cor. Sen. Gil Puyat Ave., Makati City",PVT,"MEDICARD PHILIPPINES, INC.","Colorectal, General Surgery, Ophthalmologic, Otolaryngologic, Plastic & Reconstructive",02-88785101 loc 5187,mboquiron@medicardphils.com,Dr. Nicanor Montoya,"Jan. 1, 2021 to Dec.31, 2023"
NCR,METRO MANILA,,Makati City,"5/F Morning Star Center, 347 Sen. Gil Puyat Ave., Bel-Air, Makati City",PVT,PEREGRINE EYE & LASER INSTITUTE CORP.,Ophthalmologic,88900115,susan.pagcu@peregrineeye.com,Dr. Harvey S. Uy,"Jan. 1, 2023 to Dec. 31, 2025"
NCR,METRO MANILA,,Makati City,"1714 Evangelista St., Bangkal, Makati City",PVT,"RG MEDICAL CLINIC, INC.,",General Surgery,,,,"Feb. 15, 2023 to Dec. 31, 2025"
NCR,METRO MANILA,,Makati City,"Mezzanine Floor, Tower 2, The Enterprise Center, 6766 Ayala Ave. cor. Paseo de Roxas, Makati City",PVT,SHINAGAWA LASIK & AESTHETICS CENTER CORP.,"Ophthalmologic, Plastic & Reconstructive",34910000,viceral@shinagawa.ph,Dr. Michelle P. Rivera-Nuñez,"Jan. 1, 2021 to Dec. 31, 2023"
NCR,METRO MANILA,,Makati City,"7/F Centuria Medical Makati, Century City, Kalayaa Ave. cor. Salamanca St., Brgy. Poblacion, Makati City",PVT,SURGERY CENTER OF CENTURIA MEDICAL MAKATI,"Colorectal, General Surgery, Ophthalmologic, Oral & Maxillo-Facial, Orthopedic, Otorhinolaryngologic, Plastic & Reconstructive, Reproductive Health, Urologic",09178071711/09338230911/7938717,lci.agripa@thesurgery.center,Dr. Farah Margarita Aure,"Jan. 1, 2022 to Dec. 31, 2024"
NCR,METRO MANILA,,Makati City,"Suite 1605 and 1610, 16th Floor, Medical Plaza, Makati Bldg., Amorsolo St., Legazpi Village, Makati City",PVT,XAVIER EYE CENTER,Ophthalmologic,9399279534,,Dr. Paolo Joseph Miguel,"Jan. 1, 2021 to Dec. 31, 2023"
NCR,METRO MANILA,,Malabon City,"Level 02210-02212 Robinsons Tower Mall, # 15 Gov. Pascual Ave. cor. Crispin St., Tinajeros, Malabon",PVT,MEDEXCEL HEALTHCARE + INC.,"General Surgery, Ophthalmologic",77994345,,Dr. Marivic T. Vera Cruz,"Jan. 1, 2021 to Dec.31, 2023"
NCR,METRO MANILA,,Malabon City,"2/F MGC Veranda, #31 Gov. Pascual Ave., Tinajeros, Malabon City",PVT,METRO SPECIALISTS DIAGNOSTIC AND SURGICENTER,"General Surgery, Ophthalmologic, Otorhinolaryngologic, Pediatric, Reproductive Health",3523663/09277911999,metrospecilists@yahoo.com,"Dr. Rolando M. De Leon, Jr.","Jan. 1, 2022 to Dec. 31, 2024"
NCR,METRO MANILA,,Mandaluyong City,"2/F Unit 202 Bldg. A, SM Megamall Complex, J. Vargas Ave., Mandaluyong City",PVT,"AMBULATORY HEALTH CARE INSTITUTE, INC.","General Surgery, Ophthalmologic, Otorhinolaryngologic, Plastic & Reconstructive, Thoracic, Urologic",633-5748 6336597 fax,,Dr. Hernando B. Delizo,"Jan. 1, 2021 to Dec. 31, 2023"
NCR,METRO MANILA,,Mandaluyong City,"G/F Belson House, 271 EDSA, Mandaluyong City",PVT,GALILEO SURGICENTER,Ophthalmologic,721-7135,,Dr. Carlos G. Naval,"Jan. 1, 2023 to Dec. 31, 2025"
NCR,METRO MANILA,,Mandaluyong City,"#241 Shaw Blvd. cor. M. Yulo St., Brgy. Bagong Silang, Mandaluyong City",PVT,HEALTH CUBE MEDICAL CLINICS,"General Surgery, Ophthalmologic, Otorhinolaryngologic, Plastic & Reconstructive, Reproductive Health, Thoracic",02-86521111,,"Dr. Marianito S. Mapute, Jr.","Jan. 1, 2021 to Dec. 31, 2023"
NCR,METRO MANILA,,Mandaluyong City,"Unit L2-201 & L3-302 2nd & 3rd Floor, SOHO Bldg., Greenfield District, 748 Shaw Blvd., Mandaluyong City",PVT,"HEALTH DELIVERY SYSTEM, INC.","Colorectal, General Surgery, Ophthalmologic, Plastic & Reconstructive, Reproductive Health",6572200 loc. 6750,,Dr. Robert Leomark T. Castro,"Jan. 1, 2021 to Dec. 31, 2023"
NCR,METRO MANILA,,Mandaluyong City,"Williams Bldg., Williams St. cor. Mayflower St., Greenfield District, Mandaluyong City",PVT,HEALTHFIRST CLINICS,"Colorectal, General Surgery, Ophthalmologic, Orthopedic, Otorhinolaryngologic, Plastic & Reconstructive, Reproductive Health,",,,,"Feb. 18, 2021 to Dec. 31, 2023"
NCR,METRO MANILA,,Mandaluyong City,"5/F Wellness Zone, Shangrila Plaza Mall, EDSA, Mandaluyong City",PVT,"HMC, INC.","Colorectal, General Surgery, Ophthalmologic, Orthopedic, Otorhinolaryngologic, Plastic & Reconstructive, Urologic",751-4973 to 78,,Dr. Mildred P. Crisostomo,"Jan. 1, 2023 to Dec. 31, 2025"
NCR,METRO MANILA,,Mandaluyong City,"Welfareville Compound, Acacia Lane, Brgy. Addition Hills, Mandaluyong City",PVT,POPCOM FAMILY WELLNESS CLINIC,Reproductive Health (IVF),02-7829284,maylin_vasquez@yahoo.com,Dr. Juan Antonio A. Perez III,"Jan. 1, 2021 to Dec. 31, 2023"
NCR,METRO MANILA,,Mandaluyong City,"Unit 146 G/F, EDSA Shangri-La Plaza, Mandaluyong City",PVT,"SKYWOOD HEALTH SERVICES, INC./ MY HEALTH CLINIC","Colorectal, General Surgery, Ophthalmologic, Orthopedic, Otolaryngologic, Plastic & Reconstructive, Reproductive Health, Thoracic, Urologic",570-4325 470-9469 fax,,Dr. Carissa Lapus,"Jan. 1, 2023 to Dec. 31, 2025"
NCR,METRO MANILA,,Mandaluyong City,"163 EDSA Highway Hills, Mandaluyong City",PVT,STONE & PROSTATE CENTER VRPMC (LASER CENTER),Urologic,4771633/09178678663,stonecentervrpmc@yahoo.com,Dr. Bernardo Cabatingan Jr.,"Jan. 1, 2022 to Dec. 31, 2024"
NCR,METRO MANILA,,Mandaluyong City,"Level 4 The Podium 12, ADB Avenue, Ortigas Center, Mandaluyong",PVT,"THE AMERICAN EYE CORRECTION CENTER, INC.",Ophthalmologic,02-86360762,info@americaneye.com.ph,Dr. Norman M. Aquino,"Jan. 1, 2022 to Dec. 31, 2024"
NCR,METRO MANILA,,Mandaluyong City,"Unit 532 A, Bldg. A, SM Megamall, Ortigas Center, Mandaluyong City",PVT,"THE MEGACLINIC, INC.","Colorectal, General Surgery, Ophthalmologic, Orthopedic, Otorhinolaryngologic, Plastic & Reconstructive, Reproductive Health, Urologic",6739661 loc 101/09992286532/09989802095,info@megaclinic.com.ph/esha.monesit@keralty.com.ph,Dr. Enrique L. Enriquez,"Jan. 1, 2022 to Dec. 31, 2024"
NCR,METRO MANILA,,Mandaluyong City,"#11 St. Francis St., Greenhills, East Wack-Wack, Shaw Blvd., Mandaluyong City",PVT,"TULAY LINGAP IN PADRE PIO, INC.","General Surgery, Ophthalmologic, Otorhinolaryngologic, Plastic & Reconstructive",6366635/6370588/09273328625,gonzales.elizabeth93@gmail.com,Rev. Fr. Rolando B. Briones,"Jan. 1, 2022 to Dec. 31, 2024"
NCR,METRO MANILA,,Marikina City,"C22 Alicante Bldg., Marquintos Condominium, Sumulong Highway cor. Toyota Ave., Sto. Niño, Marikina City",PVT,"EASTERN LITHOTRIPTERS, INC.",Urologic,367-3949 / 9290750,,Dr. Julius Cajucom,"Jan. 1, 2023 to Dec. 31, 2025"
NCR,METRO MANILA,,Marikina City,"4/F Marikina City Health Office Shoe Avenue, Sto. Niño, Marikina City",PVT,"RIVER VALLEY EYE CENTER AND SPECIALTY CLINICS, INC.","Colorectal, General Surgery, Ophthalmologic, Orthopedic, Otorhinolaryngologic",9424706/6631728/85272892/09171641461,rvec_2@yahoo.com,Dr. Michael Ronald D. Alano,"Jan. 1, 2022 to Dec. 31, 2024"
NCR,METRO MANILA,,Marikina City,"Unit 1-B Citicentre, J.P. Rizal cor. Puerto Rico St., Brgy. Nangka, Marikina City",PVT,"VALLEYMED DIAGNOSTIC & AMBULATORY SURGICAL CENTER, INC.","General Surgery, Ophthalmologic",75766622/09156153963/09178998259/2749090,valleymedmultispecialtyclinic@yahoo.com/valleymedmultispecialtyclinic@gmail.com,Dr. Edgardo B. Cabrera,"Jan. 1, 2022 to Dec. 31, 2024"
NCR,METRO MANILA,,Muntinlupa City,"L-302 Home Precinct Westgate, Filinvest, Alabang, Muntinlupa City",PVT,"BELO MEDICAL GROUP, INC.",Plastic & Reconstructive,7712350/09178078868/85395904,alabang@belomed.com/dreyes@belomed.com,Dr. Philip Buñag,"Jan. 1, 2022 to Dec. 31, 2024"
NCR,METRO MANILA,,Muntinlupa City,"Level 2, Pixie Forest Entrance Festival Supermall, Filinvest Corporate City, Alabang, Muntinlupa City",PVT,"HMC, INC.","General Surgery, Opthalmologic, Oral Maxillo-Facial, Orthopedic, Pediatric, Plastic & Reconstructive, Reproductive Health, Urologic",751-4958 / 850-4031 fax,vina.daguio@healthway.com.ph,Dr. Erlinda Sison,"Jan. 1, 2023 to Dec. 31, 2025"
NCR,METRO MANILA,,Muntinlupa City,"2/F Alabang Town Center, Alabang, Muntinlupa City",PVT,"HMC, INC.","Colorectal, General Surgery, Ophthalmologic, Oral Maxillo-Facial, Orthopedic, Otolaryngologic, Pediatric, Plastic & Reconstructive, Reproductive Health, Urologic, Thoracic",9175591356,vina.daguio@healthway.com.ph,Dr. Fidevina Daguio,"Jan. 1, 2022 to Dec. 31, 2024"
NCR,METRO MANILA,,Muntinlupa City,"3rd Floor Wellness Lane, Festival Mall, Filinvest Alabang, Muntinlupa City",PVT,"MEDICARD PHILIPPINES, INC.","Colorectal, General Surgery",8503209/09088864752,sabayhon@medicardphils.com,Dr. Ma. Veronica M. Edades,"Jan. 1, 2022 to Dec. 31, 2024"
NCR,METRO MANILA,,Muntinlupa City,"Level 2 Festival Mall, Brgy. Filinvest, Alabang, Muntinlupa City",PVT,METRO SANITAS CORPORATION,"Colorectal, General Surgery, Plastic & Reconstructive, Reproductive Health",86379661/09225008003/09239414908/09209889880/09192472718,femina.agcopra@keralty.com.ph/camelle.domanais@keralty.com.ph,Dr. Melanie Siapno,"Jan. 1, 2022 to Dec. 31, 2024"
NCR,METRO MANILA,,Muntinlupa City,"G/F Alabang Medical Center, Alabang-Zapote Road, Muntinlupa City",PVT,"METRO SOUTH UROLOGY GROUP, INC.",Urologic (Lithotripsy),87443798,mugincuro1@gmail.com,Dr. Aladin Joseph R. Gamboa,"Jan. 1, 2021 to Dec. 31, 2023"
NCR,METRO MANILA,,Muntinlupa City,"2097 & 2098 Style Blvd., 2/F Festival Supermall, Alabang, Muntinlupa City",PVT,MY HEALTH CLINIC,"Colorectal, General Surgery, Orthopedic, Otorhinolaryngologic, Plastic & Reconstructive, Reproductive Health, Thoracic",02-80998821/09175911508/09175644974,manicete@myhealth.ph/ecruz@myhealth.ph/kcantonjos@myhealth.ph,Dr. Maria Kristina Cantojos,"Jan. 1, 2022 to Dec. 31, 2024"
NCR,METRO MANILA,,Muntinlupa City,"R-2 El Molito Bldg., Madrigal Ave., Ayala Alabang, Muntinlupa City",PVT,"TOKYO HEALTHLINK, INC. MEDICAL DIAGNOSTIC CENTER","General Surgery, Ophthalmologic, Orthopedic, Otolaryngologic, Reproductive Health",772-2678 / 7722679,,Dr. Vinzon Valencia,"Jan. 1, 2021 to Dec. 31, 2023"
NCR,METRO MANILA,,Parañaque City,"B-1 Lot 29 Aguirre Ave., BF Homes, Parañaque City",PVT,MEDSURG EYE CENTER,Ophthalmologic,8934657/09178782020,medsurgeyecenter@gmail.com,"Dr. Manuel Joseph C. Singson, Jr.","Jan. 1, 2022 to Dec. 31, 2024"
NCR,METRO MANILA,,Pasay City,"2/F North Parking Bldg., Wellness Zone, JW Diokno Blvd., Mall of Asia Complex, Pasay City",PVT,BOROUGH MEDICAL CLINIC,"General Surgery, Ophthalmologic, Otorhinolaryngologic",09174592348/5560557-59/09175535612,moa.clinic@boroughmedical.org,Dr. Azalea May C. Heredia,"Jan. 1, 2022 to Dec. 31, 2024"
NCR,METRO MANILA,,Pasay City,"3rd Floor, Unit 306-309, 311 Northlink Bldg., SM North EDSA, Quezon City",PVT,PERFECT SIGHT,Ophthalmologic,,,,"Jan. 1, 2023 to Dec. 31, 2025"
NCR,METRO MANILA,,Pasig City,"248 Mercedes cor. M. Suarez Sts., San Miguel, Pasig City",PVT,"ARDI HEALTH SERVICES, INC.","Colorectal, General Surgery, Ophthalmologic, Orthopedic, Otorhinolaryngologic, Pediatric Plastic & Reconstructive, Thoracic, Urologic",628-4097/628-4108 / 6403679,,Dr. Margarita Luisa A. Alfonso,"Jan. 1, 2021 to Dec. 31, 2023"
NCR,METRO MANILA,,Pasig City,"Suite 1508 Medical Plaza Ortigas, San Miguel Ave., Pasig City",PVT,"ASIAN STEM CELL INSTITUTE, INC.",Plastic & Reconstructive,910-1097 / 0917-3277479,,Dr. Maria Cristina A. Puyat,"Jan. 1, 2023 to Dec. 31, 2025"
NCR,METRO MANILA,,Pasig City,"Unit 158-159 SM Super Center Pasig, Frontera Verde, Brgy. Ugong, Pasig City",PVT,CLINICA MANILA PASIG,"Colorectal, General Surgery, Ophthalmologic, Orthopedic, Otorhinolaryngologic, Plastic & Reconstructive Reproductive Health",86967055-57,clinicamanilapasig@yahoo.com,Dr. Hernando Delizo,"Jan. 1, 2021 to Dec. 31, 2023"
NCR,METRO MANILA,,Pasig City,"#27 Shaw Blvd., Brgy. San Antonio, Pasig City",PVT,"FRIENDLYCARE FOUNDATION, INC.","General Surgery, Ophthalmologic, Reproductive Health",02-6352876/7222966/7225205,mjvenzon@friendlycare.org,"Dr. Eleazar L. Lim, Jr.","Jan. 1, 2022 to Dec. 31, 2024"
NCR,METRO MANILA,,Pasig City,"Unit W-408 West Tower, Philippine Stock Exchange Centre (Tektite Towers) Exchange Road, Ortigas Center, Brgy. San Antonio, Pasig City",PVT,LA NOUVELLE IMAGE DERMATOLOGY & PLASTIC SURGERY CLINIC,Plastic & Reconstructive,637-7841 / 0919-3246371,,Dr. Ma. Corazon Regina Corona,"Jan. 1, 2023 to Dec. 31, 2025"
NCR,METRO MANILA,,Pasig City,"Ortigas Center, Meralco Compound, Pasig City",PVT,MERALCO CORPORATE WELLNESS CENTER,"Colorectal, General Surgery, Ophthalmologic, Orthopedic, Otorhinolaryngologic",6328796/6328105/6328268/09171657914/09260619903,atflorentino@meralco.com.ph,Dr. ABIGAIL T. FLORENTINO,"Jan. 1, 2022 to Dec. 31, 2024"
NCR,METRO MANILA,,Pasig City,"1101 Raffles Corporate Center, F. Ortigas Jr Rd. Ortigas Center, Brgy. San Antonio, Pasig City",PVT,PHILIPPINE CENTER FOR ASSISTED REPRODUCTION INC.,"Reproductive Health, Urologic",9151048/4705092,crminc_iuf@yahoo.com,Dr. Leonardo Almeda,"Jan. 1, 2022 to Dec. 31, 2024"
NCR,METRO MANILA,,Pasig City,"G/F Silver City Mall, Tiendesitas Complex, Fronter Verde, Brgy. Ugong, Pasig City",PVT,"PROVISION EYE CARE NETWORK, INC.",Ophthalmologic,86614608,provisioneyecarenetwork@gmail.com,Dr. Marco A. Tumalad,"Jan. 1, 2021 to Dec. 31, 2023"
NCR,METRO MANILA,,Pasig City,"Unit 701, 7th Floor, Fortune Bldg., 144 Pasig Blvd., Bagong Ilog, Pasig City",PVT,"RIVER VALLEY EYE CENTER AND SPECIALTY CLINICS, INC.","Colorectal, General Surgery, Ophthalmologic, Orthopedic, Otorhinolaryngologic",584-6411,,Dr. Raymond Evangelista,"Jan. 1, 2023 to Dec. 31, 2025"
NCR,METRO MANILA,,Pasig City,"757 C. Raymundo Ave., Maybunga, Pasig City",PVT,SAA HEALTHCARE,"Colorectal, General Surgery, Ophthalmologic, Orthopedic, Otolaryngologic, Plastic & Reconstructive, Reproductive Health, Urologic",641-3912 0917-5289335,,Dr. Noel C. Cruz,"Jan. 1, 2023 to Dec. 31, 2025"
NCR,METRO MANILA,,Pasig City,"G013 Parking Building, Ortigas Technopoint, #1 Doña Julia Vargas Avenue, Ugong Ortigas, Pasig City",PVT,SCELTO MEDICO,Otorhinolaryngologic,5026269/2779525/09178743261/5026269,info@sceltomedico.com,Dr. Daniel M. Alonzo,"Jan. 1, 2022 to Dec. 31, 2024"
NCR,METRO MANILA,,Pasig City,"21st Floor Hanston Square Bldg., #17 San Miguel Ave., Ortigas Center, Pasig City",PVT,SHINAGAWA LASIK & AESTHETIC CENTER CORPORATION,Ophthalmologic,02-3685240/09178743261/4910000/09176201443,info@shinagawa.ph/viceral@shinagawa.ph,Dr. Carlo Felix Adraneda,"Jan. 1, 2022 to Dec. 31, 2024"
NCR,METRO MANILA,,San Juan City,"#15 Eisenhower St., Brgy. Greenhills, San Juan City",PVT,"AIP DERMATOLOGY & SURGERY CENTER, INC.",Plastic & Reconstructive,7258670/09277198226,aip.derma.surgery@gmail.com,Dr. Gone Gerald Tiongco,"Jan. 1, 2022 to Dec. 31, 2024"
NCR,METRO MANILA,,San Juan City,"3401-B Atlanta Center, 31 Annapolis, Greenhills, San Juan City",PVT,EYE CAN CATARACT SURGERY CENTER AND EYE CARE CLINIC,Ophthalmologic,09985302148/83512083/09566085047,eyecanphil@gmail.com,Dr. Jose V. Corpus Jr.,"Jan. 1, 2022 to Dec. 31, 2024"
NCR,METRO MANILA,,San Juan City,"Basement 1, Promenade Bldg., Greenhills Shopping Center, San Juan City",PVT,HEALTH CUBE MEDICAL CLINICS,"General Surgery, Ophthalmologic, Orthopedic, Otolaryngologic, Plastic & Reconstructive, Reproductive Health, Urologic",86521111/86501111/09175543962,bpd@healthcube.com.ph,Dr. Jan Denton A. Chua,"Jan. 1, 2021 to Dec. 31, 2023"
NCR,METRO MANILA,,San Juan City,"49 Connecticut St., Northeast Greenhills, San Juan City",PVT,"BELO MEDICAL GROUP, INC.",Plastic & Reconstructive,737-3264 loc. 209,,Dr. Victoria G. Belo,"Jan. 1, 2023 to Dec. 31, 2025"
NCR,METRO MANILA,,San Juan City,"#35 F. Flumentritt St., Brgy. Pedro Cruz, San Juan, M.M.",PVT,"OPHTHALMOLOGICAL FOUNDATION OF THE PHILS., INC. (OFPHIL)",Ophthalmologic,9420266 / 0925-6595604,,,"Jan. 1, 2023 to Dec. 31, 2025"
NCR,METRO MANILA,,San Juan City,"Unit C-3 BTTC Centre, 288 Ortigas Ave., Greenhills, San Juan City",PVT,THE ICON CLINIC-PLASTIC SURGERY AND DERMATOLOGY INC.,Plastic & Reconstructive,6376865/09773174388/82522634,joy@theiconclinic.com/vina@theiconclinic.com,Dr. Divina Gracia T. Yapjuangco,"Jan. 1, 2022 to Dec. 31, 2024"
NCR,METRO MANILA,,Taguig City,"Unit 3 & 4 G/F Dusit D2 Hotel and Residences, Mckinley Parkway, Dusit D2, The Fort Bonifacio Global City, Taguig",PVT,COSMEDICS A DERMASTER CLINIC ,General surgery,91757410380,info.mycosmedics@gmail.com,Dr. Alvin M. Jorge,"Aug. 23, 2021 to Dec. 31, 2023"
NCR,METRO MANILA,,Taguig City,"4/F Market Market Mall, Bonifacio Global City, Taguig City",PVT,"HMC, INC.","Colorectal, General Surgery, Ophthalmologic, Otorhinolaryngologic, Orthopedic, Reproductive Health, Urologic",7295049/7514929/09176296107/77206114/09178078386,christyann.madamba@healthway.com.ph,Dr. Reynalyn D. Tomada,"Jan. 1, 2022 to Dec. 31, 2024"
NCR,METRO MANILA,,Taguig City,"3/F Burgos Park Bldg, Forbestown Road, Bonifacio Global City, Taguig City",PVT,K1 HEALTH SCIENCE CORPORATION,Plastic and Reconstructive Surgery,02-5731420/9429617/09178443220/09209665613,abyanee12hr@gmail.com/info@aivee.ph,Dr. Arnold Angeles,"Jan. 1, 2022 to Dec. 31, 2024"
NCR,METRO MANILA,,Taguig City,"21st Flr., One Central Bldg, 9th Avenue corner with 31 Sreeet, Bonifacio Global City, Taguig City",PVT,SHINAGAWA LASIK & AESTHETICS CENTER CORPORATION,Ophthalmologic,3685250,viceral@shinagawa.ph,Dr. Albert France Guerrero,"Jan. 1, 2023 to Dec. 31, 2025"
NCR,METRO MANILA,,Valenzuela City,"2nd Floor Valenzuela Town Center, Mac Arthur Hi-way, Karuhatan, Valenzuela City",PVT,MEDIXCARE HEALTH MANAGEMENT SOLUTIONS INC ,Ophthalmologic,02-83526000,medixcarehealth@yahoo.com,Dr. Mario Reyes,"Mar. 15, 2021 to Dec. 31, 2023"
CORDILLERA,CAR,ABRA,Bangued,"Capitulacion St., Calaba, Bangued, Abra",PVT,ABRA MEDICAL DIAGNOSTIC CENTER AND AMBULATORY SURGICAL CLINIC INC.,"General Surgery, Reproductive Health",0917-501-3527 / 074-614-6216,amdcasc.inc@gmail.com,Dr. Joselito B. Bringas,"Jan. 1, 2022 to Dece. 31, 2024"
CORDILLERA,CAR,BENGUET,Baguio City,"4/F CYA Bldg., Military Cut Off Road, Baguio City",PVT,GASTROHEP ENDOSCOPY UNIT,"General Surgery, Colorectal Surgery, Thoracic Surgery (Esphagascopy) & Urologic",09267523476/09209066576,gastrohependoscopy2014@gmail.com/vannvergara@yahoo.com,Dr. Armando C. Lay,"Jan. 1, 2022 to Dece. 31, 2024"
REGION 13,CARAGA,AGUSAN DEL NORTE,Nasipit,"Ugducan Heights, Triangulo, Nasipit",PVT,"CATAMINA CLINIC & AMBULATORY SURGICAL CLINC , INC.","General Surgery, Ophthalmologic, Orthopedic, Urologic",815-808-0637/ 09165000118 /,jereme_atpm@hotmail.com,Jereme Bacalso Atupan - owner,"Jan. 1, 2023 to Dec. 31, 2025"
REGION 13,CARAGA,AGUSAN DEL NORTE,Butuan City,"2nd Floor, Sentro Bldg., J.C. Aquino Ave., Butuan City",PVT,BUTUAN SPEEDEE LABORATORY & DIAGNOSITC CENTER,"General Surgery, Orthopedic, Reproductive Health, Urologic",085-2255442/8161345/09489393754,,Dr. Erik C. Gamba,"Jan. 1, 2021 to Dec. 31, 2023"
REGION 13,CARAGA,AGUSAN DEL NORTE,Butuan City,"Lifescape Arcade, J.C. Aquino Ave., Butuan City, Agusan del Norte",PVT,"HIPOL UROLOGY, STONE CENTER & AMBULATORY SURGERY","General Surgery, Ophthalmologic, Urologic",085-8173907,hipolurologystonecenter@yahoo.com,Dr. Rodrigo S. Hipol III,"Jan. 1, 2021 to Dec. 31, 2023"
REGION 13,CARAGA,AGUSAN DEL NORTE,Cabadbaran City,"T. Cirato St., Cabadbaran City, Agusan del Norte",PVT,GOOD FRIEND CLILNIC & AMBULATORY SURGICAL CENTER,General Surgery,0966-5492770 /,goodfriend1clinic2surgery@gmail.com,Dr. Richard Bolivar Jugao,"Jan. 1, 2021 to Dec. 31, 2023"
,,,,,,,,0977-648-6095 /,,,
,,,,,,,,0961-076-5082,,,
REGION 13,CARAGA,SURIGAO DEL NORTE,Surigao City,"2/F City Commercial Bldg., Borromeo St., Surigao City",PVT,"SURIGAO HEALTH SPECIALISTS, INC.","Colorectal, General Surgery, Ophthalmologic, Orthopedic, Plastic & Reconstructive, Reproductive Health, Thoracic, Urologic",086-8268425/6200,surigaohealthspecialist@yahoo.com,Dr. Roy Ycong,"Jan. 1, 2021 to Dec. 31, 2023"